{
  "type": "FeatureCollection",
  "features": [
    {
      "type": "Feature",
      "geometry": {
        "type": "LineString",
        "coordinates": [
          [
            80.233794,
            12.994924
          ],
          [
            80.233697,
            12.99502
          ],
          [
            80.233792,
            12.994878
          ],
          [
            80.233562,
            12.994659
          ],
          [
            80.233453,
            12.993823
          ],
          [
            80.23397,
            12.993462
          ],
          [
            80.233684,
            12.992185
          ],
          [
            80.233744,
            12.991707
          ],
          [
            80.232864,
            12.988834
          ],
          [
            80.232935,
            12.988248
          ],
          [
            80.233286,
            12.987669
          ],
          [
            80.233406,
            12.986391
          ],
          [
            80.233669,
            12.986233
          ],
          [
            80.234318,
            12.986193
          ],
          [
            80.235428,
            12.98653
          ],
          [
            80.23584,
            12.986527
          ],
          [
            80.236026,
            12.986305
          ],
          [
            80.236125,
            12.985343
          ],
          [
            80.236257,
            12.985258
          ],
          [
            80.236112,
            12.985592
          ],
          [
            80.235876,
            12.985615
          ],
          [
            80.235834,
            12.9857
          ],
          [
            80.235939,
            12.98555
          ],
          [
            80.236329,
            12.985687
          ],
          [
            80.236263,
            12.985835
          ],
          [
            80.236584,
            12.985685
          ],
          [
            80.236309,
            12.985673
          ],
          [
            80.236164,
            12.985313
          ],
          [
            80.23692,
            12.985349
          ],
          [
            80.236897,
            12.985254
          ],
          [
            80.236321,
            12.985153
          ],
          [
            80.236162,
            12.985301
          ],
          [
            80.235955,
            12.98625
          ],
          [
            80.236108,
            12.986563
          ],
          [
            80.236105,
            12.985773
          ],
          [
            80.235925,
            12.98564
          ],
          [
            80.235777,
            12.985829
          ],
          [
            80.235945,
            12.985979
          ],
          [
            80.235832,
            12.986489
          ],
          [
            80.234361,
            12.986064
          ],
          [
            80.233444,
            12.986086
          ],
          [
            80.233164,
            12.986888
          ],
          [
            80.233111,
            12.987582
          ],
          [
            80.233091,
            12.987447
          ],
          [
            80.232888,
            12.987406
          ],
          [
            80.232248,
            12.987513
          ],
          [
            80.228453,
            12.988956
          ],
          [
            80.227528,
            12.99015
          ],
          [
            80.225872,
            12.990149
          ],
          [
            80.224988,
            12.989592
          ],
          [
            80.223758,
            12.989471
          ],
          [
            80.223394,
            12.989246
          ],
          [
            80.222915,
            12.986424
          ],
          [
            80.223009,
            12.985776
          ],
          [
            80.223313,
            12.985368
          ],
          [
            80.223221,
            12.984838
          ],
          [
            80.223121,
            12.984879
          ],
          [
            80.223151,
            12.984753
          ],
          [
            80.222626,
            12.984044
          ],
          [
            80.220419,
            12.984409
          ],
          [
            80.21799,
            12.984268
          ],
          [
            80.217812,
            12.985302
          ],
          [
            80.2179,
            12.985977
          ],
          [
            80.218018,
            12.986005
          ],
          [
            80.217996,
            12.985177
          ],
          [
            80.218116,
            12.985108
          ],
          [
            80.220381,
            12.985057
          ],
          [
            80.221723,
            12.98487
          ],
          [
            80.221924,
            12.984319
          ],
          [
            80.222538,
            12.984192
          ],
          [
            80.222657,
            12.98405
          ],
          [
            80.222076,
            12.983175
          ],
          [
            80.221981,
            12.982693
          ],
          [
            80.223581,
            12.982568
          ],
          [
            80.223567,
            12.98314
          ],
          [
            80.223442,
            12.983074
          ],
          [
            80.223654,
            12.983006
          ],
          [
            80.223532,
            12.982986
          ],
          [
            80.223582,
            12.982561
          ],
          [
            80.2223,
            12.982567
          ],
          [
            80.221894,
            12.982788
          ],
          [
            80.222065,
            12.983263
          ],
          [
            80.222374,
            12.983334
          ],
          [
            80.222129,
            12.983084
          ],
          [
            80.222402,
            12.983382
          ],
          [
            80.222091,
            12.983303
          ],
          [
            80.222381,
            12.983045
          ],
          [
            80.222139,
            12.983161
          ],
          [
            80.222209,
            12.983283
          ],
          [
            80.222366,
            12.98321
          ],
          [
            80.222016,
            12.983328
          ],
          [
            80.222213,
            12.983321
          ],
          [
            80.222046,
            12.983164
          ],
          [
            80.222383,
            12.983294
          ],
          [
            80.222301,
            12.983152
          ],
          [
            80.222351,
            12.983286
          ],
          [
            80.222151,
            12.983252
          ],
          [
            80.223276,
            12.985046
          ],
          [
            80.223351,
            12.985386
          ],
          [
            80.223034,
            12.985829
          ],
          [
            80.222995,
            12.986626
          ],
          [
            80.223172,
            12.986968
          ],
          [
            80.22305,
            12.987581
          ],
          [
            80.22343,
            12.989287
          ],
          [
            80.223823,
            12.989521
          ],
          [
            80.225055,
            12.989641
          ],
          [
            80.225762,
            12.990085
          ],
          [
            80.227697,
            12.990135
          ],
          [
            80.229709,
            12.990763
          ],
          [
            80.232299,
            12.991007
          ],
          [
            80.233383,
            12.991365
          ],
          [
            80.233665,
            12.991635
          ],
          [
            80.234033,
            12.993279
          ],
          [
            80.233475,
            12.993656
          ],
          [
            80.233572,
            12.994446
          ],
          [
            80.233858,
            12.994836
          ],
          [
            80.233672,
            12.995008
          ],
          [
            80.223179,
            12.987895
          ],
          [
            80.222963,
            12.98625
          ],
          [
            80.223158,
            12.985641
          ],
          [
            80.223418,
            12.985388
          ],
          [
            80.222583,
            12.983839
          ],
          [
            80.221991,
            12.98314
          ],
          [
            80.221865,
            12.982744
          ],
          [
            80.222397,
            12.982471
          ],
          [
            80.223662,
            12.982551
          ],
          [
            80.223614,
            12.983013
          ],
          [
            80.223717,
            12.982681
          ],
          [
            80.223548,
            12.982514
          ],
          [
            80.222075,
            12.982546
          ],
          [
            80.221968,
            12.982666
          ],
          [
            80.222009,
            12.983165
          ],
          [
            80.223226,
            12.985311
          ],
          [
            80.222951,
            12.985782
          ],
          [
            80.223041,
            12.986054
          ],
          [
            80.222846,
            12.986828
          ],
          [
            80.22308,
            12.987084
          ],
          [
            80.22304,
            12.9878
          ],
          [
            80.222475,
            12.988559
          ],
          [
            80.220466,
            12.990288
          ],
          [
            80.219694,
            12.991205
          ],
          [
            80.219944,
            12.991299
          ],
          [
            80.219605,
            12.991284
          ],
          [
            80.219803,
            12.991258
          ],
          [
            80.219281,
            12.992139
          ],
          [
            80.219397,
            12.992305
          ],
          [
            80.219265,
            12.992559
          ],
          [
            80.218412,
            12.993184
          ],
          [
            80.217187,
            12.99382
          ],
          [
            80.216883,
            12.994135
          ],
          [
            80.216781,
            12.994312
          ],
          [
            80.216917,
            12.99495
          ],
          [
            80.216558,
            12.995891
          ],
          [
            80.216631,
            12.996279
          ],
          [
            80.216431,
            12.997207
          ],
          [
            80.215962,
            12.997734
          ],
          [
            80.215851,
            12.998107
          ],
          [
            80.214662,
            12.999249
          ],
          [
            80.214565,
            12.999156
          ],
          [
            80.21463,
            12.999307
          ],
          [
            80.213254,
            13.000659
          ],
          [
            80.212632,
            13.001733
          ],
          [
            80.212306,
            13.001925
          ],
          [
            80.212412,
            13.002188
          ],
          [
            80.212043,
            13.002549
          ],
          [
            80.211903,
            13.003905
          ],
          [
            80.212044,
            13.004018
          ],
          [
            80.211917,
            13.004093
          ],
          [
            80.211974,
            13.003981
          ],
          [
            80.212115,
            13.004508
          ],
          [
            80.212656,
            13.005398
          ],
          [
            80.213045,
            13.005673
          ],
          [
            80.212863,
            13.006255
          ],
          [
            80.212924,
            13.007424
          ],
          [
            80.212814,
            13.007573
          ],
          [
            80.213098,
            13.007916
          ],
          [
            80.213053,
            13.008268
          ],
          [
            80.212555,
            13.008715
          ],
          [
            80.212724,
            13.008802
          ],
          [
            80.212769,
            13.009035
          ],
          [
            80.21343,
            13.009192
          ],
          [
            80.213247,
            13.00926
          ],
          [
            80.209934,
            13.008203
          ],
          [
            80.203654,
            13.006578
          ],
          [
            80.202913,
            13.005966
          ],
          [
            80.164133,
            12.980696
          ],
          [
            80.163863,
            12.981601
          ],
          [
            80.165235,
            12.982074
          ]
        ]
      },
      "properties": {
        "name": "Track"
      }
    }
  ]
}