{
  "type": "FeatureCollection",
  "features": [
    {
      "type": "Feature",
      "geometry": {
        "type": "LineString",
        "coordinates": [
          [
            80.23844,
            12.985047
          ],
          [
            80.238312,
            12.984174
          ],
          [
            80.23777,
            12.983849
          ],
          [
            80.238657,
            12.984233
          ],
          [
            80.239429,
            12.984348
          ],
          [
            80.240135,
            12.984742
          ],
          [
            80.240946,
            12.985715
          ],
          [
            80.241159,
            12.986263
          ],
          [
            80.24291,
            12.986235
          ],
          [
            80.244458,
            12.986388
          ],
          [
            80.246394,
            12.986267
          ],
          [
            80.24843,
            12.986368
          ],
          [
            80.250527,
            12.986281
          ],
          [
            80.251406,
            12.986383
          ],
          [
            80.251602,
            12.986555
          ],
          [
            80.251363,
            12.987048
          ],
          [
            80.251261,
            12.988011
          ],
          [
            80.251388,
            12.988131
          ],
          [
            80.251632,
            12.987926
          ],
          [
            80.252436,
            12.988082
          ],
          [
            80.256976,
            12.9875
          ],
          [
            80.258947,
            12.98755
          ],
          [
            80.259243,
            12.987389
          ],
          [
            80.259708,
            12.987335
          ],
          [
            80.259826,
            12.987056
          ],
          [
            80.259834,
            12.986301
          ],
          [
            80.26087,
            12.986212
          ],
          [
            80.26099,
            12.986114
          ],
          [
            80.26087,
            12.985911
          ],
          [
            80.260827,
            12.984829
          ],
          [
            80.260471,
            12.985004
          ],
          [
            80.260556,
            12.984839
          ],
          [
            80.260023,
            12.984829
          ],
          [
            80.25979,
            12.984687
          ],
          [
            80.259711,
            12.985021
          ],
          [
            80.260306,
            12.985192
          ],
          [
            80.260391,
            12.984922
          ],
          [
            80.260732,
            12.984852
          ],
          [
            80.260887,
            12.984684
          ],
          [
            80.261676,
            12.984632
          ],
          [
            80.261862,
            12.98486
          ],
          [
            80.264164,
            12.984533
          ],
          [
            80.267012,
            12.983789
          ],
          [
            80.267571,
            12.983353
          ],
          [
            80.268594,
            12.983313
          ],
          [
            80.268904,
            12.983139
          ],
          [
            80.268924,
            12.983231
          ],
          [
            80.268872,
            12.983036
          ],
          [
            80.268516,
            12.983308
          ],
          [
            80.268115,
            12.983343
          ],
          [
            80.267977,
            12.982445
          ],
          [
            80.267548,
            12.981092
          ],
          [
            80.266585,
            12.98122
          ],
          [
            80.267211,
            12.983421
          ],
          [
            80.267881,
            12.983325
          ],
          [
            80.26789,
            12.983489
          ],
          [
            80.268285,
            12.983316
          ],
          [
            80.268117,
            12.983263
          ],
          [
            80.268194,
            12.983318
          ],
          [
            80.2679,
            12.983375
          ],
          [
            80.268082,
            12.983483
          ],
          [
            80.267987,
            12.983372
          ],
          [
            80.268086,
            12.983439
          ],
          [
            80.268048,
            12.983214
          ],
          [
            80.267999,
            12.983401
          ],
          [
            80.268109,
            12.983463
          ],
          [
            80.267939,
            12.98336
          ],
          [
            80.268101,
            12.983393
          ],
          [
            80.268246,
            12.983971
          ],
          [
            80.268819,
            12.986608
          ],
          [
            80.268716,
            12.986663
          ],
          [
            80.268908,
            12.986777
          ],
          [
            80.269014,
            12.987434
          ],
          [
            80.269534,
            12.989004
          ],
          [
            80.268793,
            12.989315
          ],
          [
            80.26833,
            12.989131
          ],
          [
            80.268463,
            12.988954
          ],
          [
            80.268074,
            12.989143
          ],
          [
            80.268265,
            12.989278
          ],
          [
            80.268563,
            12.989255
          ],
          [
            80.268641,
            12.989207
          ],
          [
            80.268576,
            12.989015
          ],
          [
            80.268703,
            12.989023
          ],
          [
            80.26855,
            12.989183
          ],
          [
            80.268587,
            12.989058
          ],
          [
            80.268741,
            12.989159
          ],
          [
            80.268633,
            12.988963
          ],
          [
            80.268628,
            12.989209
          ],
          [
            80.268753,
            12.989299
          ],
          [
            80.268969,
            12.989053
          ],
          [
            80.268955,
            12.989219
          ],
          [
            80.268694,
            12.98942
          ],
          [
            80.268781,
            12.990307
          ],
          [
            80.269563,
            12.993749
          ],
          [
            80.269488,
            12.993872
          ],
          [
            80.269416,
            12.99329
          ],
          [
            80.269862,
            12.993041
          ],
          [
            80.270326,
            12.992977
          ],
          [
            80.270312,
            12.992465
          ],
          [
            80.270597,
            12.992734
          ],
          [
            80.27041,
            12.992692
          ],
          [
            80.270337,
            12.992964
          ],
          [
            80.270485,
            12.992999
          ],
          [
            80.270556,
            12.993595
          ],
          [
            80.27075,
            12.993942
          ],
          [
            80.270657,
            12.994103
          ],
          [
            80.270713,
            12.994663
          ],
          [
            80.270885,
            12.995051
          ],
          [
            80.270682,
            12.995171
          ],
          [
            80.269935,
            12.995075
          ],
          [
            80.26984,
            12.995465
          ],
          [
            80.269457,
            12.995575
          ],
          [
            80.266644,
            12.995803
          ],
          [
            80.262008,
            12.996424
          ],
          [
            80.260617,
            12.996466
          ],
          [
            80.257147,
            12.99692
          ],
          [
            80.256021,
            12.996939
          ],
          [
            80.255938,
            12.997069
          ],
          [
            80.255934,
            12.998596
          ],
          [
            80.25655,
            13.001188
          ],
          [
            80.256637,
            13.002287
          ],
          [
            80.256969,
            13.00354
          ],
          [
            80.256943,
            13.004177
          ],
          [
            80.257411,
            13.005598
          ],
          [
            80.257232,
            13.00575
          ],
          [
            80.25749,
            13.005873
          ],
          [
            80.25694,
            13.005639
          ],
          [
            80.256688,
            13.005685
          ],
          [
            80.257249,
            13.005785
          ],
          [
            80.257205,
            13.0056
          ],
          [
            80.257545,
            13.005734
          ],
          [
            80.25715,
            13.005733
          ],
          [
            80.257138,
            13.004948
          ],
          [
            80.256956,
            13.004808
          ],
          [
            80.256099,
            13.004909
          ],
          [
            80.254733,
            13.004796
          ],
          [
            80.254682,
            13.005149
          ],
          [
            80.254523,
            13.005287
          ],
          [
            80.251632,
            13.005045
          ],
          [
            80.25109,
            13.005177
          ],
          [
            80.251035,
            13.005102
          ],
          [
            80.248842,
            13.005156
          ],
          [
            80.248319,
            13.005049
          ],
          [
            80.248086,
            13.005209
          ],
          [
            80.248096,
            13.006403
          ],
          [
            80.247583,
            13.00643
          ],
          [
            80.247384,
            13.006706
          ],
          [
            80.24265,
            13.006589
          ],
          [
            80.242429,
            13.005765
          ],
          [
            80.241799,
            13.005263
          ],
          [
            80.241972,
            13.004372
          ],
          [
            80.241841,
            13.004082
          ],
          [
            80.241075,
            13.003793
          ],
          [
            80.24103,
            13.003906
          ],
          [
            80.24081,
            13.003809
          ],
          [
            80.240475,
            13.003575
          ],
          [
            80.240253,
            13.003117
          ],
          [
            80.239839,
            13.001571
          ],
          [
            80.239806,
            13.00057
          ],
          [
            80.239001,
            12.998169
          ],
          [
            80.238409,
            12.998179
          ],
          [
            80.238182,
            12.998368
          ],
          [
            80.23727,
            12.997372
          ],
          [
            80.235815,
            12.996304
          ],
          [
            80.234647,
            12.995246
          ],
          [
            80.234048,
            12.994961
          ],
          [
            80.233837,
            12.995053
          ],
          [
            80.233774,
            12.994978
          ],
          [
            80.233709,
            12.995117
          ],
          [
            80.233714,
            12.994994
          ],
          [
            80.233709,
            12.995114
          ],
          [
            80.233591,
            12.995002
          ],
          [
            80.233609,
            12.995085
          ],
          [
            80.233837,
            12.994895
          ],
          [
            80.23368,
            12.995017
          ],
          [
            80.233432,
            12.995004
          ]
        ]
      },
      "properties": {
        "name": "Track"
      }
    }
  ]
}