<?xml version="1.0" encoding="UTF-8"?>
<gpx creator="Wikiloc - https://www.wikiloc.com" version="1.1" xmlns="http://www.topografix.com/GPX/1/1" xmlns:xsi="http://www.w3.org/2001/XMLSchema-instance" xsi:schemaLocation="http://www.topografix.com/GPX/1/1 http://www.topografix.com/GPX/1/1/gpx.xsd">
  <metadata>
    <name>Wikiloc - Chennai</name>
    <link href="https://www.wikiloc.com/walking-trails/chennai-66968531">
      <text>Chennai - Wikiloc on Wikiloc</text>
    </link>
    <time>2021-03-02T13:20:35Z</time>
  </metadata>
  <trk>
    <name>Chennai - Wikiloc</name>
    <cmt></cmt>
    <desc></desc>
    <trkseg>
      <trkpt lat="13.000124" lon="80.271106">
        <ele>7.817</ele>
        <time>2021-03-02T11:22:58Z</time>
      </trkpt>
      <trkpt lat="13.000829" lon="80.271126">
        <ele>8.687</ele>
        <time>2021-03-02T11:24:18Z</time>
      </trkpt>
      <trkpt lat="13.000825" lon="80.270179">
        <ele>8.015</ele>
        <time>2021-03-02T11:25:41Z</time>
      </trkpt>
      <trkpt lat="13.000901" lon="80.270048">
        <ele>7.908</ele>
        <time>2021-03-02T11:25:51Z</time>
      </trkpt>
      <trkpt lat="13.000963" lon="80.268990">
        <ele>7.757</ele>
        <time>2021-03-02T11:27:05Z</time>
      </trkpt>
      <trkpt lat="13.001059" lon="80.268599">
        <ele>7.967</ele>
        <time>2021-03-02T11:27:33Z</time>
      </trkpt>
      <trkpt lat="13.001632" lon="80.267630">
        <ele>8.550</ele>
        <time>2021-03-02T11:28:58Z</time>
      </trkpt>
      <trkpt lat="13.001986" lon="80.267804">
        <ele>8.767</ele>
        <time>2021-03-02T11:29:30Z</time>
      </trkpt>
      <trkpt lat="13.002097" lon="80.267699">
        <ele>8.879</ele>
        <time>2021-03-02T11:29:44Z</time>
      </trkpt>
      <trkpt lat="13.003787" lon="80.264230">
        <ele>9.536</ele>
        <time>2021-03-02T11:34:14Z</time>
      </trkpt>
      <trkpt lat="13.004823" lon="80.264273">
        <ele>9.484</ele>
        <time>2021-03-02T11:35:28Z</time>
      </trkpt>
      <trkpt lat="13.004991" lon="80.263723">
        <ele>9.472</ele>
        <time>2021-03-02T11:36:10Z</time>
      </trkpt>
      <trkpt lat="13.005189" lon="80.263650">
        <ele>10.044</ele>
        <time>2021-03-02T11:36:24Z</time>
      </trkpt>
      <trkpt lat="13.005798" lon="80.263829">
        <ele>8.905</ele>
        <time>2021-03-02T11:37:16Z</time>
      </trkpt>
      <trkpt lat="13.006522" lon="80.263911">
        <ele>8.615</ele>
        <time>2021-03-02T11:38:10Z</time>
      </trkpt>
      <trkpt lat="13.006916" lon="80.264063">
        <ele>8.108</ele>
        <time>2021-03-02T11:38:41Z</time>
      </trkpt>
      <trkpt lat="13.007393" lon="80.264062">
        <ele>7.550</ele>
        <time>2021-03-02T11:39:16Z</time>
      </trkpt>
      <trkpt lat="13.008001" lon="80.264178">
        <ele>8.220</ele>
        <time>2021-03-02T11:40:04Z</time>
      </trkpt>
      <trkpt lat="13.008029" lon="80.264128">
        <ele>8.513</ele>
        <time>2021-03-02T11:40:09Z</time>
      </trkpt>
      <trkpt lat="13.007990" lon="80.263678">
        <ele>8.620</ele>
        <time>2021-03-02T11:40:50Z</time>
      </trkpt>
      <trkpt lat="13.007921" lon="80.263639">
        <ele>8.142</ele>
        <time>2021-03-02T11:41:16Z</time>
      </trkpt>
      <trkpt lat="13.008088" lon="80.263514">
        <ele>9.949</ele>
        <time>2021-03-02T11:41:55Z</time>
      </trkpt>
      <trkpt lat="13.007977" lon="80.263622">
        <ele>9.717</ele>
        <time>2021-03-02T11:42:20Z</time>
      </trkpt>
      <trkpt lat="13.008083" lon="80.263595">
        <ele>9.615</ele>
        <time>2021-03-02T11:42:43Z</time>
      </trkpt>
      <trkpt lat="13.007947" lon="80.263538">
        <ele>8.039</ele>
        <time>2021-03-02T11:43:08Z</time>
      </trkpt>
      <trkpt lat="13.007817" lon="80.262979">
        <ele>8.001</ele>
        <time>2021-03-02T11:44:33Z</time>
      </trkpt>
      <trkpt lat="13.007721" lon="80.262862">
        <ele>8.421</ele>
        <time>2021-03-02T11:44:52Z</time>
      </trkpt>
      <trkpt lat="13.007702" lon="80.262452">
        <ele>8.408</ele>
        <time>2021-03-02T11:45:22Z</time>
      </trkpt>
      <trkpt lat="13.007599" lon="80.262315">
        <ele>8.269</ele>
        <time>2021-03-02T11:45:41Z</time>
      </trkpt>
      <trkpt lat="13.007606" lon="80.262112">
        <ele>8.219</ele>
        <time>2021-03-02T11:45:58Z</time>
      </trkpt>
      <trkpt lat="13.007393" lon="80.261587">
        <ele>8.522</ele>
        <time>2021-03-02T11:46:44Z</time>
      </trkpt>
      <trkpt lat="13.007093" lon="80.260163">
        <ele>8.819</ele>
        <time>2021-03-02T11:48:30Z</time>
      </trkpt>
      <trkpt lat="13.007304" lon="80.259318">
        <ele>8.691</ele>
        <time>2021-03-02T11:49:38Z</time>
      </trkpt>
      <trkpt lat="13.007218" lon="80.258873">
        <ele>8.858</ele>
        <time>2021-03-02T11:50:08Z</time>
      </trkpt>
      <trkpt lat="13.006796" lon="80.257982">
        <ele>8.986</ele>
        <time>2021-03-02T11:51:27Z</time>
      </trkpt>
      <trkpt lat="13.006474" lon="80.257635">
        <ele>8.934</ele>
        <time>2021-03-02T11:52:00Z</time>
      </trkpt>
      <trkpt lat="13.006495" lon="80.257552">
        <ele>8.937</ele>
        <time>2021-03-02T11:52:06Z</time>
      </trkpt>
      <trkpt lat="13.006361" lon="80.257495">
        <ele>8.849</ele>
        <time>2021-03-02T11:52:19Z</time>
      </trkpt>
      <trkpt lat="13.006530" lon="80.257307">
        <ele>8.413</ele>
        <time>2021-03-02T11:53:13Z</time>
      </trkpt>
      <trkpt lat="13.006400" lon="80.256694">
        <ele>8.608</ele>
        <time>2021-03-02T11:54:08Z</time>
      </trkpt>
      <trkpt lat="13.006482" lon="80.256450">
        <ele>8.669</ele>
        <time>2021-03-02T11:54:28Z</time>
      </trkpt>
      <trkpt lat="13.006411" lon="80.256251">
        <ele>8.759</ele>
        <time>2021-03-02T11:54:44Z</time>
      </trkpt>
      <trkpt lat="13.006472" lon="80.255885">
        <ele>8.822</ele>
        <time>2021-03-02T11:55:12Z</time>
      </trkpt>
      <trkpt lat="13.006444" lon="80.255773">
        <ele>8.839</ele>
        <time>2021-03-02T11:55:27Z</time>
      </trkpt>
      <trkpt lat="13.006321" lon="80.255744">
        <ele>9.031</ele>
        <time>2021-03-02T11:55:58Z</time>
      </trkpt>
      <trkpt lat="13.006494" lon="80.255774">
        <ele>9.048</ele>
        <time>2021-03-02T11:56:01Z</time>
      </trkpt>
      <trkpt lat="13.006442" lon="80.255735">
        <ele>8.986</ele>
        <time>2021-03-02T11:56:04Z</time>
      </trkpt>
      <trkpt lat="13.006488" lon="80.254939">
        <ele>8.434</ele>
        <time>2021-03-02T11:57:09Z</time>
      </trkpt>
      <trkpt lat="13.006392" lon="80.254184">
        <ele>8.298</ele>
        <time>2021-03-02T11:58:10Z</time>
      </trkpt>
      <trkpt lat="13.006445" lon="80.253771">
        <ele>8.215</ele>
        <time>2021-03-02T11:58:41Z</time>
      </trkpt>
      <trkpt lat="13.006391" lon="80.253345">
        <ele>8.126</ele>
        <time>2021-03-02T11:59:14Z</time>
      </trkpt>
      <trkpt lat="13.006520" lon="80.251832">
        <ele>8.608</ele>
        <time>2021-03-02T12:01:26Z</time>
      </trkpt>
      <trkpt lat="13.006659" lon="80.251273">
        <ele>7.835</ele>
        <time>2021-03-02T12:02:18Z</time>
      </trkpt>
      <trkpt lat="13.006628" lon="80.249472">
        <ele>8.765</ele>
        <time>2021-03-02T12:04:28Z</time>
      </trkpt>
      <trkpt lat="13.006520" lon="80.248478">
        <ele>8.648</ele>
        <time>2021-03-02T12:05:45Z</time>
      </trkpt>
      <trkpt lat="13.006602" lon="80.248325">
        <ele>9.165</ele>
        <time>2021-03-02T12:05:57Z</time>
      </trkpt>
      <trkpt lat="13.006534" lon="80.247574">
        <ele>9.917</ele>
        <time>2021-03-02T12:06:54Z</time>
      </trkpt>
      <trkpt lat="13.006621" lon="80.247156">
        <ele>9.744</ele>
        <time>2021-03-02T12:08:25Z</time>
      </trkpt>
      <trkpt lat="13.006525" lon="80.246618">
        <ele>8.872</ele>
        <time>2021-03-02T12:09:05Z</time>
      </trkpt>
      <trkpt lat="13.006575" lon="80.246366">
        <ele>8.530</ele>
        <time>2021-03-02T12:09:25Z</time>
      </trkpt>
      <trkpt lat="13.006496" lon="80.246240">
        <ele>8.148</ele>
        <time>2021-03-02T12:09:44Z</time>
      </trkpt>
      <trkpt lat="13.006536" lon="80.244511">
        <ele>8.661</ele>
        <time>2021-03-02T12:12:01Z</time>
      </trkpt>
      <trkpt lat="13.006607" lon="80.244392">
        <ele>8.617</ele>
        <time>2021-03-02T12:12:30Z</time>
      </trkpt>
      <trkpt lat="13.006511" lon="80.242208">
        <ele>9.608</ele>
        <time>2021-03-02T12:15:21Z</time>
      </trkpt>
      <trkpt lat="13.006573" lon="80.241499">
        <ele>9.510</ele>
        <time>2021-03-02T12:16:13Z</time>
      </trkpt>
      <trkpt lat="13.006510" lon="80.241350">
        <ele>9.650</ele>
        <time>2021-03-02T12:16:21Z</time>
      </trkpt>
      <trkpt lat="13.006876" lon="80.239650">
        <ele>10.653</ele>
        <time>2021-03-02T12:18:30Z</time>
      </trkpt>
      <trkpt lat="13.006781" lon="80.239589">
        <ele>10.030</ele>
        <time>2021-03-02T12:19:07Z</time>
      </trkpt>
      <trkpt lat="13.006895" lon="80.239541">
        <ele>10.522</ele>
        <time>2021-03-02T12:20:22Z</time>
      </trkpt>
      <trkpt lat="13.007260" lon="80.237510">
        <ele>11.779</ele>
        <time>2021-03-02T12:23:21Z</time>
      </trkpt>
      <trkpt lat="13.006808" lon="80.237318">
        <ele>12.487</ele>
        <time>2021-03-02T12:24:29Z</time>
      </trkpt>
      <trkpt lat="13.006668" lon="80.237385">
        <ele>12.935</ele>
        <time>2021-03-02T12:24:56Z</time>
      </trkpt>
      <trkpt lat="13.006688" lon="80.237159">
        <ele>12.824</ele>
        <time>2021-03-02T12:25:31Z</time>
      </trkpt>
      <trkpt lat="13.006610" lon="80.237021">
        <ele>12.404</ele>
        <time>2021-03-02T12:25:43Z</time>
      </trkpt>
      <trkpt lat="13.006747" lon="80.236838">
        <ele>13.214</ele>
        <time>2021-03-02T12:26:11Z</time>
      </trkpt>
      <trkpt lat="13.006627" lon="80.236953">
        <ele>12.808</ele>
        <time>2021-03-02T12:26:42Z</time>
      </trkpt>
      <trkpt lat="13.006810" lon="80.237056">
        <ele>12.548</ele>
        <time>2021-03-02T12:27:12Z</time>
      </trkpt>
      <trkpt lat="13.006819" lon="80.237349">
        <ele>12.498</ele>
        <time>2021-03-02T12:27:45Z</time>
      </trkpt>
      <trkpt lat="13.007252" lon="80.237453">
        <ele>11.921</ele>
        <time>2021-03-02T12:28:25Z</time>
      </trkpt>
      <trkpt lat="13.008147" lon="80.233004">
        <ele>13.378</ele>
        <time>2021-03-02T12:34:22Z</time>
      </trkpt>
      <trkpt lat="13.008433" lon="80.231932">
        <ele>12.940</ele>
        <time>2021-03-02T12:35:48Z</time>
      </trkpt>
      <trkpt lat="13.008576" lon="80.230765">
        <ele>12.237</ele>
        <time>2021-03-02T12:37:14Z</time>
      </trkpt>
      <trkpt lat="13.009082" lon="80.228368">
        <ele>12.595</ele>
        <time>2021-03-02T12:40:20Z</time>
      </trkpt>
      <trkpt lat="13.010594" lon="80.224947">
        <ele>13.713</ele>
        <time>2021-03-02T12:45:12Z</time>
      </trkpt>
      <trkpt lat="13.010600" lon="80.224822">
        <ele>13.368</ele>
        <time>2021-03-02T12:45:35Z</time>
      </trkpt>
      <trkpt lat="13.010508" lon="80.224825">
        <ele>13.042</ele>
        <time>2021-03-02T12:45:47Z</time>
      </trkpt>
      <trkpt lat="13.010688" lon="80.224763">
        <ele>13.426</ele>
        <time>2021-03-02T12:46:46Z</time>
      </trkpt>
      <trkpt lat="13.010798" lon="80.224368">
        <ele>13.208</ele>
        <time>2021-03-02T12:47:20Z</time>
      </trkpt>
      <trkpt lat="13.011293" lon="80.223322">
        <ele>11.222</ele>
        <time>2021-03-02T12:48:53Z</time>
      </trkpt>
      <trkpt lat="13.011179" lon="80.223176">
        <ele>11.432</ele>
        <time>2021-03-02T12:49:32Z</time>
      </trkpt>
      <trkpt lat="13.010730" lon="80.223045">
        <ele>11.295</ele>
        <time>2021-03-02T12:50:06Z</time>
      </trkpt>
      <trkpt lat="13.010371" lon="80.222741">
        <ele>11.282</ele>
        <time>2021-03-02T12:50:41Z</time>
      </trkpt>
      <trkpt lat="13.009472" lon="80.222310">
        <ele>11.694</ele>
        <time>2021-03-02T12:52:25Z</time>
      </trkpt>
      <trkpt lat="13.009355" lon="80.222165">
        <ele>12.291</ele>
        <time>2021-03-02T12:53:02Z</time>
      </trkpt>
      <trkpt lat="13.006987" lon="80.221006">
        <ele>14.569</ele>
        <time>2021-03-02T12:56:25Z</time>
      </trkpt>
      <trkpt lat="13.006610" lon="80.220743">
        <ele>14.817</ele>
        <time>2021-03-02T12:57:00Z</time>
      </trkpt>
      <trkpt lat="13.004180" lon="80.220205">
        <ele>13.534</ele>
        <time>2021-03-02T13:00:39Z</time>
      </trkpt>
      <trkpt lat="13.003560" lon="80.219981">
        <ele>13.055</ele>
        <time>2021-03-02T13:01:36Z</time>
      </trkpt>
      <trkpt lat="13.003431" lon="80.220053">
        <ele>13.010</ele>
        <time>2021-03-02T13:01:45Z</time>
      </trkpt>
      <trkpt lat="13.003358" lon="80.219984">
        <ele>13.108</ele>
        <time>2021-03-02T13:01:52Z</time>
      </trkpt>
      <trkpt lat="13.003192" lon="80.220047">
        <ele>13.049</ele>
        <time>2021-03-02T13:02:00Z</time>
      </trkpt>
      <trkpt lat="13.003056" lon="80.219901">
        <ele>13.119</ele>
        <time>2021-03-02T13:02:15Z</time>
      </trkpt>
      <trkpt lat="13.002400" lon="80.219696">
        <ele>12.522</ele>
        <time>2021-03-02T13:03:11Z</time>
      </trkpt>
      <trkpt lat="13.001902" lon="80.219014">
        <ele>12.729</ele>
        <time>2021-03-02T13:04:18Z</time>
      </trkpt>
      <trkpt lat="13.001191" lon="80.218338">
        <ele>11.951</ele>
        <time>2021-03-02T13:05:37Z</time>
      </trkpt>
      <trkpt lat="13.000757" lon="80.218166">
        <ele>12.098</ele>
        <time>2021-03-02T13:06:44Z</time>
      </trkpt>
      <trkpt lat="13.000699" lon="80.218031">
        <ele>11.436</ele>
        <time>2021-03-02T13:06:55Z</time>
      </trkpt>
      <trkpt lat="12.999592" lon="80.217356">
        <ele>11.214</ele>
        <time>2021-03-02T13:08:41Z</time>
      </trkpt>
      <trkpt lat="12.999315" lon="80.217220">
        <ele>10.787</ele>
        <time>2021-03-02T13:09:04Z</time>
      </trkpt>
      <trkpt lat="12.999039" lon="80.217212">
        <ele>10.742</ele>
        <time>2021-03-02T13:09:25Z</time>
      </trkpt>
      <trkpt lat="12.998000" lon="80.216633">
        <ele>9.826</ele>
        <time>2021-03-02T13:11:06Z</time>
      </trkpt>
      <trkpt lat="12.997271" lon="80.216549">
        <ele>9.708</ele>
        <time>2021-03-02T13:12:04Z</time>
      </trkpt>
      <trkpt lat="12.996553" lon="80.216584">
        <ele>9.184</ele>
        <time>2021-03-02T13:13:06Z</time>
      </trkpt>
      <trkpt lat="12.995700" lon="80.216755">
        <ele>8.834</ele>
        <time>2021-03-02T13:14:17Z</time>
      </trkpt>
      <trkpt lat="12.994993" lon="80.217109">
        <ele>8.817</ele>
        <time>2021-03-02T13:15:25Z</time>
      </trkpt>
      <trkpt lat="12.994053" lon="80.217856">
        <ele>9.284</ele>
        <time>2021-03-02T13:17:05Z</time>
      </trkpt>
      <trkpt lat="12.993896" lon="80.217861">
        <ele>9.316</ele>
        <time>2021-03-02T13:17:44Z</time>
      </trkpt>
      <trkpt lat="12.993299" lon="80.218196">
        <ele>9.493</ele>
        <time>2021-03-02T13:18:43Z</time>
      </trkpt>
      <trkpt lat="12.993137" lon="80.218339">
        <ele>9.811</ele>
        <time>2021-03-02T13:19:02Z</time>
      </trkpt>
      <trkpt lat="12.993166" lon="80.218411">
        <ele>9.859</ele>
        <time>2021-03-02T13:19:07Z</time>
      </trkpt>
      <trkpt lat="12.992925" lon="80.218336">
        <ele>10.079</ele>
        <time>2021-03-02T13:20:35Z</time>
      </trkpt>
    </trkseg>
  </trk></gpx>