{
  "type": "FeatureCollection",
  "features": [
    {
      "type": "Feature",
      "geometry": {
        "type": "LineString",
        "coordinates": [
          [
            80.271106,
            13.000124
          ],
          [
            80.271126,
            13.000829
          ],
          [
            80.270179,
            13.000825
          ],
          [
            80.270048,
            13.000901
          ],
          [
            80.26899,
            13.000963
          ],
          [
            80.268599,
            13.001059
          ],
          [
            80.26763,
            13.001632
          ],
          [
            80.267804,
            13.001986
          ],
          [
            80.267699,
            13.002097
          ],
          [
            80.26423,
            13.003787
          ],
          [
            80.264273,
            13.004823
          ],
          [
            80.263723,
            13.004991
          ],
          [
            80.26365,
            13.005189
          ],
          [
            80.263829,
            13.005798
          ],
          [
            80.263911,
            13.006522
          ],
          [
            80.264063,
            13.006916
          ],
          [
            80.264062,
            13.007393
          ],
          [
            80.264178,
            13.008001
          ],
          [
            80.264128,
            13.008029
          ],
          [
            80.263678,
            13.00799
          ],
          [
            80.263639,
            13.007921
          ],
          [
            80.263514,
            13.008088
          ],
          [
            80.263622,
            13.007977
          ],
          [
            80.263595,
            13.008083
          ],
          [
            80.263538,
            13.007947
          ],
          [
            80.262979,
            13.007817
          ],
          [
            80.262862,
            13.007721
          ],
          [
            80.262452,
            13.007702
          ],
          [
            80.262315,
            13.007599
          ],
          [
            80.262112,
            13.007606
          ],
          [
            80.261587,
            13.007393
          ],
          [
            80.260163,
            13.007093
          ],
          [
            80.259318,
            13.007304
          ],
          [
            80.258873,
            13.007218
          ],
          [
            80.257982,
            13.006796
          ],
          [
            80.257635,
            13.006474
          ],
          [
            80.257552,
            13.006495
          ],
          [
            80.257495,
            13.006361
          ],
          [
            80.257307,
            13.00653
          ],
          [
            80.256694,
            13.0064
          ],
          [
            80.25645,
            13.006482
          ],
          [
            80.256251,
            13.006411
          ],
          [
            80.255885,
            13.006472
          ],
          [
            80.255773,
            13.006444
          ],
          [
            80.255744,
            13.006321
          ],
          [
            80.255774,
            13.006494
          ],
          [
            80.255735,
            13.006442
          ],
          [
            80.254939,
            13.006488
          ],
          [
            80.254184,
            13.006392
          ],
          [
            80.253771,
            13.006445
          ],
          [
            80.253345,
            13.006391
          ],
          [
            80.251832,
            13.00652
          ],
          [
            80.251273,
            13.006659
          ],
          [
            80.249472,
            13.006628
          ],
          [
            80.248478,
            13.00652
          ],
          [
            80.248325,
            13.006602
          ],
          [
            80.247574,
            13.006534
          ],
          [
            80.247156,
            13.006621
          ],
          [
            80.246618,
            13.006525
          ],
          [
            80.246366,
            13.006575
          ],
          [
            80.24624,
            13.006496
          ],
          [
            80.244511,
            13.006536
          ],
          [
            80.244392,
            13.006607
          ],
          [
            80.242208,
            13.006511
          ],
          [
            80.241499,
            13.006573
          ],
          [
            80.24135,
            13.00651
          ],
          [
            80.23965,
            13.006876
          ],
          [
            80.239589,
            13.006781
          ],
          [
            80.239541,
            13.006895
          ],
          [
            80.23751,
            13.00726
          ],
          [
            80.237318,
            13.006808
          ],
          [
            80.237385,
            13.006668
          ],
          [
            80.237159,
            13.006688
          ],
          [
            80.237021,
            13.00661
          ],
          [
            80.236838,
            13.006747
          ],
          [
            80.236953,
            13.006627
          ],
          [
            80.237056,
            13.00681
          ],
          [
            80.237349,
            13.006819
          ],
          [
            80.237453,
            13.007252
          ],
          [
            80.233004,
            13.008147
          ],
          [
            80.231932,
            13.008433
          ],
          [
            80.230765,
            13.008576
          ],
          [
            80.228368,
            13.009082
          ],
          [
            80.224947,
            13.010594
          ],
          [
            80.224822,
            13.0106
          ],
          [
            80.224825,
            13.010508
          ],
          [
            80.224763,
            13.010688
          ],
          [
            80.224368,
            13.010798
          ],
          [
            80.223322,
            13.011293
          ],
          [
            80.223176,
            13.011179
          ],
          [
            80.223045,
            13.01073
          ],
          [
            80.222741,
            13.010371
          ],
          [
            80.22231,
            13.009472
          ],
          [
            80.222165,
            13.009355
          ],
          [
            80.221006,
            13.006987
          ],
          [
            80.220743,
            13.00661
          ],
          [
            80.220205,
            13.00418
          ],
          [
            80.219981,
            13.00356
          ],
          [
            80.220053,
            13.003431
          ],
          [
            80.219984,
            13.003358
          ],
          [
            80.220047,
            13.003192
          ],
          [
            80.219901,
            13.003056
          ],
          [
            80.219696,
            13.0024
          ],
          [
            80.219014,
            13.001902
          ],
          [
            80.218338,
            13.001191
          ],
          [
            80.218166,
            13.000757
          ],
          [
            80.218031,
            13.000699
          ],
          [
            80.217356,
            12.999592
          ],
          [
            80.21722,
            12.999315
          ],
          [
            80.217212,
            12.999039
          ],
          [
            80.216633,
            12.998
          ],
          [
            80.216549,
            12.997271
          ],
          [
            80.216584,
            12.996553
          ],
          [
            80.216755,
            12.9957
          ],
          [
            80.217109,
            12.994993
          ],
          [
            80.217856,
            12.994053
          ],
          [
            80.217861,
            12.993896
          ],
          [
            80.218196,
            12.993299
          ],
          [
            80.218339,
            12.993137
          ],
          [
            80.218411,
            12.993166
          ],
          [
            80.218336,
            12.992925
          ]
        ]
      },
      "properties": {
        "name": "Track"
      }
    }
  ]
}