{
  "type": "FeatureCollection",
  "features": [
    {
      "type": "Feature",
      "geometry": {
        "type": "LineString",
        "coordinates": [
          [
            80.233774,
            12.994916
          ],
          [
            80.233563,
            12.995022
          ],
          [
            80.233863,
            12.994972
          ],
          [
            80.233591,
            12.994872
          ],
          [
            80.233403,
            12.994656
          ],
          [
            80.233391,
            12.993817
          ],
          [
            80.233863,
            12.99357
          ],
          [
            80.233962,
            12.993409
          ],
          [
            80.23375,
            12.992611
          ],
          [
            80.233803,
            12.991584
          ],
          [
            80.233092,
            12.989821
          ],
          [
            80.232905,
            12.988817
          ],
          [
            80.233112,
            12.987842
          ],
          [
            80.233352,
            12.987347
          ],
          [
            80.233401,
            12.986306
          ],
          [
            80.232894,
            12.985904
          ],
          [
            80.232834,
            12.984915
          ],
          [
            80.232495,
            12.984895
          ],
          [
            80.23289,
            12.984944
          ],
          [
            80.232887,
            12.98509
          ],
          [
            80.232571,
            12.985093
          ],
          [
            80.232145,
            12.98529
          ],
          [
            80.232205,
            12.985623
          ],
          [
            80.232103,
            12.985246
          ],
          [
            80.232446,
            12.985112
          ],
          [
            80.232728,
            12.985189
          ],
          [
            80.23272,
            12.985684
          ],
          [
            80.233007,
            12.986024
          ],
          [
            80.234349,
            12.98607
          ],
          [
            80.235421,
            12.986465
          ],
          [
            80.236192,
            12.986599
          ],
          [
            80.23672,
            12.986582
          ],
          [
            80.237035,
            12.986314
          ],
          [
            80.237428,
            12.986594
          ],
          [
            80.2379,
            12.986577
          ],
          [
            80.237918,
            12.985977
          ],
          [
            80.23823,
            12.985853
          ],
          [
            80.238358,
            12.985295
          ],
          [
            80.238917,
            12.984302
          ],
          [
            80.238692,
            12.984231
          ],
          [
            80.238594,
            12.984333
          ],
          [
            80.238339,
            12.984164
          ],
          [
            80.238404,
            12.983816
          ],
          [
            80.238189,
            12.983058
          ],
          [
            80.238118,
            12.982089
          ],
          [
            80.237758,
            12.980775
          ],
          [
            80.238035,
            12.980343
          ],
          [
            80.238396,
            12.980203
          ],
          [
            80.238476,
            12.979963
          ],
          [
            80.238341,
            12.979523
          ],
          [
            80.239801,
            12.98018
          ],
          [
            80.241985,
            12.979998
          ],
          [
            80.241723,
            12.978915
          ],
          [
            80.240949,
            12.979023
          ],
          [
            80.239956,
            12.978726
          ],
          [
            80.240151,
            12.978734
          ],
          [
            80.239998,
            12.978909
          ],
          [
            80.240111,
            12.978828
          ],
          [
            80.240023,
            12.978693
          ],
          [
            80.243855,
            12.978784
          ],
          [
            80.245619,
            12.979184
          ],
          [
            80.246787,
            12.979779
          ],
          [
            80.247736,
            12.980561
          ],
          [
            80.251261,
            12.984699
          ],
          [
            80.251809,
            12.985949
          ],
          [
            80.251934,
            12.986975
          ],
          [
            80.251585,
            12.98878
          ],
          [
            80.251434,
            12.988946
          ],
          [
            80.251009,
            12.990101
          ],
          [
            80.251007,
            12.990001
          ],
          [
            80.250724,
            12.989896
          ],
          [
            80.250632,
            12.989644
          ],
          [
            80.251075,
            12.988596
          ],
          [
            80.251125,
            12.988721
          ],
          [
            80.251259,
            12.988632
          ],
          [
            80.251354,
            12.988306
          ],
          [
            80.251206,
            12.988024
          ],
          [
            80.251516,
            12.986445
          ],
          [
            80.251323,
            12.986146
          ],
          [
            80.24999,
            12.98619
          ],
          [
            80.250197,
            12.986069
          ],
          [
            80.250249,
            12.986214
          ],
          [
            80.250108,
            12.986019
          ],
          [
            80.250241,
            12.986577
          ],
          [
            80.250161,
            12.986102
          ],
          [
            80.250084,
            12.986182
          ],
          [
            80.250171,
            12.986152
          ],
          [
            80.250246,
            12.986428
          ],
          [
            80.250185,
            12.986007
          ],
          [
            80.250217,
            12.986174
          ],
          [
            80.250147,
            12.986009
          ],
          [
            80.250249,
            12.98616
          ],
          [
            80.250122,
            12.98608
          ],
          [
            80.249445,
            12.986265
          ],
          [
            80.248143,
            12.986126
          ],
          [
            80.246558,
            12.986177
          ],
          [
            80.246028,
            12.986075
          ],
          [
            80.245395,
            12.986198
          ],
          [
            80.243841,
            12.986064
          ],
          [
            80.242229,
            12.98625
          ],
          [
            80.241685,
            12.986098
          ],
          [
            80.241362,
            12.986195
          ],
          [
            80.241052,
            12.985902
          ],
          [
            80.241147,
            12.985816
          ],
          [
            80.240794,
            12.985697
          ],
          [
            80.240927,
            12.985692
          ],
          [
            80.24063,
            12.985399
          ],
          [
            80.240702,
            12.985154
          ],
          [
            80.240889,
            12.985423
          ],
          [
            80.240669,
            12.986151
          ],
          [
            80.240859,
            12.985606
          ],
          [
            80.240327,
            12.984907
          ],
          [
            80.239847,
            12.984576
          ],
          [
            80.239047,
            12.984274
          ],
          [
            80.23875,
            12.984871
          ],
          [
            80.238453,
            12.985089
          ],
          [
            80.238398,
            12.985682
          ],
          [
            80.238024,
            12.985799
          ],
          [
            80.238074,
            12.9865
          ],
          [
            80.235673,
            12.986495
          ],
          [
            80.235264,
            12.986433
          ],
          [
            80.234586,
            12.986119
          ],
          [
            80.234114,
            12.98603
          ],
          [
            80.233525,
            12.986082
          ],
          [
            80.233365,
            12.986275
          ],
          [
            80.233335,
            12.98753
          ],
          [
            80.232735,
            12.987462
          ],
          [
            80.231394,
            12.987628
          ],
          [
            80.231412,
            12.988359
          ],
          [
            80.231277,
            12.988586
          ],
          [
            80.231789,
            12.989337
          ],
          [
            80.231824,
            12.98959
          ],
          [
            80.231404,
            12.989702
          ],
          [
            80.231427,
            12.990817
          ],
          [
            80.231629,
            12.990928
          ],
          [
            80.232347,
            12.9909
          ],
          [
            80.233709,
            12.99154
          ],
          [
            80.233935,
            12.992914
          ],
          [
            80.234154,
            12.993384
          ],
          [
            80.2323,
            12.993729
          ],
          [
            80.232335,
            12.993845
          ],
          [
            80.231901,
            12.993808
          ],
          [
            80.233197,
            12.993617
          ],
          [
            80.233358,
            12.993874
          ],
          [
            80.233514,
            12.994717
          ],
          [
            80.233847,
            12.994863
          ],
          [
            80.233788,
            12.99492
          ]
        ]
      },
      "properties": {
        "name": "Track"
      }
    }
  ]
}