{
  "type": "FeatureCollection",
  "features": [
    {
      "type": "Feature",
      "geometry": {
        "type": "LineString",
        "coordinates": [
          [
            80.227641,
            12.971527
          ],
          [
            80.231562,
            12.975389
          ],
          [
            80.231996,
            12.975671
          ],
          [
            80.232892,
            12.976696
          ],
          [
            80.233868,
            12.97748
          ],
          [
            80.234854,
            12.977985
          ],
          [
            80.235777,
            12.978293
          ],
          [
            80.237213,
            12.978566
          ],
          [
            80.244433,
            12.978858
          ],
          [
            80.245391,
            12.979131
          ],
          [
            80.246349,
            12.979594
          ],
          [
            80.247701,
            12.980705
          ],
          [
            80.251437,
            12.985119
          ],
          [
            80.251902,
            12.986372
          ],
          [
            80.251891,
            12.987342
          ],
          [
            80.250592,
            12.992525
          ],
          [
            80.249804,
            12.995093
          ],
          [
            80.24979,
            12.995611
          ],
          [
            80.247691,
            13.003682
          ],
          [
            80.247606,
            13.004743
          ],
          [
            80.2478,
            13.00639
          ],
          [
            80.247876,
            13.010283
          ],
          [
            80.248365,
            13.015098
          ],
          [
            80.248629,
            13.016392
          ],
          [
            80.249198,
            13.017454
          ],
          [
            80.251728,
            13.020326
          ],
          [
            80.251934,
            13.020336
          ],
          [
            80.25385,
            13.022726
          ],
          [
            80.258242,
            13.024569
          ],
          [
            80.259029,
            13.025081
          ],
          [
            80.259706,
            13.026083
          ],
          [
            80.262177,
            13.031599
          ],
          [
            80.263995,
            13.033388
          ],
          [
            80.266242,
            13.034225
          ],
          [
            80.267309,
            13.035298
          ]
        ]
      },
      "properties": {
        "name": "Track"
      }
    }
  ]
}