{
  "type": "FeatureCollection",
  "features": [
    {
      "type": "Feature",
      "geometry": {
        "type": "LineString",
        "coordinates": [
          [
            80.229253,
            12.989917
          ],
          [
            80.229195,
            12.989923
          ],
          [
            80.229275,
            12.989983
          ],
          [
            80.229303,
            12.989878
          ],
          [
            80.229398,
            12.989893
          ],
          [
            80.229405,
            12.99006
          ],
          [
            80.229023,
            12.989858
          ],
          [
            80.229417,
            12.990453
          ],
          [
            80.229588,
            12.990505
          ],
          [
            80.229598,
            12.990447
          ],
          [
            80.229632,
            12.990493
          ],
          [
            80.229677,
            12.99068
          ],
          [
            80.229655,
            12.990798
          ],
          [
            80.229712,
            12.990838
          ],
          [
            80.229678,
            12.990805
          ],
          [
            80.229683,
            12.99105
          ],
          [
            80.229572,
            12.991047
          ],
          [
            80.228275,
            12.990577
          ],
          [
            80.227795,
            12.990452
          ],
          [
            80.227732,
            12.990387
          ],
          [
            80.227818,
            12.990128
          ],
          [
            80.228012,
            12.9899
          ],
          [
            80.228248,
            12.989447
          ],
          [
            80.228458,
            12.989188
          ],
          [
            80.228872,
            12.988958
          ],
          [
            80.229183,
            12.988852
          ],
          [
            80.229717,
            12.988453
          ],
          [
            80.230563,
            12.988077
          ],
          [
            80.231132,
            12.987728
          ],
          [
            80.231225,
            12.987758
          ],
          [
            80.23131,
            12.987993
          ],
          [
            80.231317,
            12.9886
          ],
          [
            80.231262,
            12.988985
          ],
          [
            80.231613,
            12.98903
          ],
          [
            80.231733,
            12.988832
          ],
          [
            80.231772,
            12.988638
          ],
          [
            80.231835,
            12.988608
          ],
          [
            80.232847,
            12.988623
          ],
          [
            80.232998,
            12.989492
          ],
          [
            80.233457,
            12.99076
          ],
          [
            80.23364,
            12.991628
          ],
          [
            80.234217,
            12.991837
          ],
          [
            80.23465,
            12.992113
          ],
          [
            80.235515,
            12.992795
          ],
          [
            80.235782,
            12.993145
          ],
          [
            80.236103,
            12.993822
          ],
          [
            80.236825,
            12.994402
          ],
          [
            80.237462,
            12.995528
          ],
          [
            80.2378,
            12.9959
          ],
          [
            80.239003,
            12.996877
          ],
          [
            80.240033,
            12.997397
          ],
          [
            80.240198,
            12.99753
          ],
          [
            80.240765,
            12.99913
          ],
          [
            80.241048,
            13.000752
          ],
          [
            80.24142,
            13.002188
          ],
          [
            80.24155,
            13.003047
          ],
          [
            80.241527,
            13.003507
          ],
          [
            80.241578,
            13.003933
          ],
          [
            80.2414,
            13.00392
          ],
          [
            80.240575,
            13.003528
          ],
          [
            80.240415,
            13.003405
          ],
          [
            80.240305,
            13.003225
          ],
          [
            80.239738,
            13.001475
          ],
          [
            80.239413,
            12.999447
          ],
          [
            80.239138,
            12.998435
          ],
          [
            80.238935,
            12.997957
          ],
          [
            80.238613,
            12.997622
          ],
          [
            80.237925,
            12.997158
          ],
          [
            80.237348,
            12.996797
          ],
          [
            80.236373,
            12.996305
          ],
          [
            80.23574,
            12.995857
          ],
          [
            80.23528,
            12.99527
          ],
          [
            80.234575,
            12.994108
          ],
          [
            80.234083,
            12.993417
          ],
          [
            80.23381,
            12.992707
          ],
          [
            80.233745,
            12.991962
          ],
          [
            80.233795,
            12.991527
          ],
          [
            80.233598,
            12.991108
          ],
          [
            80.233465,
            12.990582
          ],
          [
            80.233078,
            12.989605
          ],
          [
            80.232983,
            12.989115
          ],
          [
            80.232955,
            12.988422
          ],
          [
            80.233273,
            12.987585
          ],
          [
            80.23327,
            12.987458
          ],
          [
            80.232887,
            12.987443
          ],
          [
            80.232108,
            12.987527
          ],
          [
            80.231703,
            12.987642
          ],
          [
            80.23135,
            12.987803
          ],
          [
            80.23129,
            12.987925
          ],
          [
            80.231322,
            12.988227
          ],
          [
            80.231293,
            12.988653
          ]
        ]
      },
      "properties": {
        "name": "Track"
      }
    }
  ]
}