{
  "type": "FeatureCollection",
  "features": [
    {
      "type": "Feature",
      "geometry": {
        "type": "LineString",
        "coordinates": [
          [
            80.233712,
            12.994749
          ],
          [
            80.233499,
            12.994652
          ],
          [
            80.233411,
            12.993673
          ],
          [
            80.235796,
            12.993065
          ],
          [
            80.236184,
            12.992685
          ],
          [
            80.235811,
            12.991634
          ],
          [
            80.23606,
            12.991213
          ],
          [
            80.235904,
            12.990853
          ],
          [
            80.235869,
            12.98975
          ],
          [
            80.237068,
            12.989477
          ],
          [
            80.237241,
            12.988995
          ],
          [
            80.237185,
            12.987948
          ],
          [
            80.235624,
            12.98763
          ],
          [
            80.235843,
            12.98695
          ],
          [
            80.236102,
            12.98676
          ],
          [
            80.235858,
            12.986817
          ],
          [
            80.23565,
            12.986595
          ],
          [
            80.235168,
            12.986507
          ],
          [
            80.23463,
            12.98614
          ],
          [
            80.233833,
            12.986057
          ],
          [
            80.233283,
            12.986218
          ],
          [
            80.233222,
            12.987388
          ],
          [
            80.232847,
            12.988209
          ],
          [
            80.232841,
            12.989139
          ],
          [
            80.233453,
            12.9909
          ],
          [
            80.23392,
            12.993217
          ],
          [
            80.233447,
            12.993666
          ],
          [
            80.233523,
            12.994648
          ],
          [
            80.23535,
            12.995553
          ],
          [
            80.235965,
            12.99617
          ],
          [
            80.237563,
            12.99702
          ],
          [
            80.238645,
            12.997963
          ],
          [
            80.23914,
            12.998876
          ],
          [
            80.239464,
            12.998743
          ],
          [
            80.24009,
            12.997741
          ],
          [
            80.239843,
            12.997248
          ],
          [
            80.237578,
            12.995606
          ],
          [
            80.236824,
            12.994268
          ],
          [
            80.236173,
            12.993807
          ],
          [
            80.235559,
            12.992774
          ],
          [
            80.233772,
            12.991313
          ],
          [
            80.233008,
            12.989297
          ],
          [
            80.233057,
            12.988264
          ],
          [
            80.233358,
            12.987407
          ],
          [
            80.233396,
            12.986323
          ],
          [
            80.23367,
            12.986179
          ],
          [
            80.234283,
            12.986193
          ],
          [
            80.236099,
            12.986613
          ],
          [
            80.236166,
            12.985364
          ],
          [
            80.237141,
            12.985161
          ],
          [
            80.237846,
            12.985239
          ],
          [
            80.237975,
            12.986545
          ],
          [
            80.235724,
            12.986577
          ],
          [
            80.234685,
            12.986184
          ],
          [
            80.233537,
            12.986144
          ],
          [
            80.233343,
            12.986335
          ],
          [
            80.233277,
            12.987312
          ],
          [
            80.230879,
            12.987888
          ],
          [
            80.230056,
            12.988216
          ],
          [
            80.229733,
            12.988498
          ],
          [
            80.228583,
            12.988906
          ],
          [
            80.228174,
            12.98928
          ],
          [
            80.227588,
            12.990186
          ],
          [
            80.225905,
            12.990067
          ],
          [
            80.225186,
            12.989641
          ],
          [
            80.223876,
            12.989478
          ],
          [
            80.223448,
            12.98916
          ],
          [
            80.223257,
            12.988226
          ],
          [
            80.223371,
            12.988174
          ],
          [
            80.223115,
            12.987716
          ],
          [
            80.222967,
            12.986426
          ],
          [
            80.222995,
            12.985849
          ],
          [
            80.223311,
            12.985246
          ],
          [
            80.221875,
            12.982647
          ],
          [
            80.222446,
            12.982478
          ],
          [
            80.223983,
            12.982572
          ],
          [
            80.222599,
            12.982593
          ],
          [
            80.222089,
            12.983116
          ],
          [
            80.223393,
            12.985412
          ],
          [
            80.223,
            12.985767
          ],
          [
            80.222964,
            12.986815
          ],
          [
            80.223451,
            12.98931
          ],
          [
            80.223755,
            12.989531
          ],
          [
            80.224696,
            12.989701
          ],
          [
            80.225227,
            12.989608
          ],
          [
            80.225788,
            12.990091
          ],
          [
            80.226975,
            12.990147
          ],
          [
            80.227167,
            12.990011
          ],
          [
            80.229804,
            12.990777
          ],
          [
            80.230107,
            12.992287
          ],
          [
            80.231073,
            12.992638
          ],
          [
            80.231466,
            12.992254
          ],
          [
            80.231969,
            12.992786
          ],
          [
            80.232303,
            12.993635
          ],
          [
            80.233107,
            12.993522
          ],
          [
            80.233302,
            12.993652
          ],
          [
            80.233637,
            12.99468
          ],
          [
            80.233807,
            12.994846
          ],
          [
            80.238719,
            12.998141
          ],
          [
            80.238994,
            12.998184
          ],
          [
            80.23928,
            12.999144
          ],
          [
            80.239494,
            13.000811
          ],
          [
            80.240263,
            13.003339
          ],
          [
            80.241757,
            13.004157
          ],
          [
            80.241714,
            13.005333
          ],
          [
            80.241872,
            13.006165
          ],
          [
            80.242235,
            13.006011
          ],
          [
            80.242378,
            13.006293
          ],
          [
            80.242341,
            13.00646
          ],
          [
            80.242082,
            13.006445
          ],
          [
            80.24641,
            13.006564
          ],
          [
            80.246646,
            13.006399
          ],
          [
            80.247154,
            13.006635
          ],
          [
            80.247492,
            13.006395
          ],
          [
            80.247564,
            13.005987
          ],
          [
            80.24756,
            13.005418
          ],
          [
            80.247289,
            13.005301
          ],
          [
            80.247638,
            13.005489
          ],
          [
            80.247508,
            13.005275
          ],
          [
            80.247745,
            13.005487
          ],
          [
            80.24786,
            13.005832
          ],
          [
            80.247737,
            13.00655
          ],
          [
            80.247865,
            13.005939
          ],
          [
            80.247934,
            13.006129
          ],
          [
            80.247867,
            13.005926
          ],
          [
            80.247902,
            13.006151
          ],
          [
            80.247792,
            13.006133
          ],
          [
            80.247969,
            13.006206
          ],
          [
            80.247795,
            13.006
          ],
          [
            80.24783,
            13.005728
          ],
          [
            80.247948,
            13.005836
          ],
          [
            80.247907,
            13.010254
          ],
          [
            80.248312,
            13.014088
          ],
          [
            80.247789,
            13.014191
          ],
          [
            80.247983,
            13.014308
          ],
          [
            80.248383,
            13.015192
          ],
          [
            80.248958,
            13.017096
          ],
          [
            80.251817,
            13.020244
          ],
          [
            80.252059,
            13.020717
          ],
          [
            80.253664,
            13.022649
          ],
          [
            80.258595,
            13.024814
          ],
          [
            80.259268,
            13.025365
          ],
          [
            80.259714,
            13.026102
          ],
          [
            80.260589,
            13.028206
          ],
          [
            80.260623,
            13.028691
          ],
          [
            80.26174,
            13.030909
          ],
          [
            80.262266,
            13.031659
          ],
          [
            80.263478,
            13.032781
          ],
          [
            80.264136,
            13.033216
          ],
          [
            80.266042,
            13.034004
          ],
          [
            80.267156,
            13.035131
          ],
          [
            80.267362,
            13.03556
          ],
          [
            80.267803,
            13.035571
          ],
          [
            80.268095,
            13.034413
          ],
          [
            80.267758,
            13.032836
          ],
          [
            80.267793,
            13.032631
          ],
          [
            80.268242,
            13.032411
          ],
          [
            80.26732,
            13.032494
          ],
          [
            80.267271,
            13.031758
          ],
          [
            80.267449,
            13.031741
          ],
          [
            80.267644,
            13.032186
          ],
          [
            80.267744,
            13.032177
          ],
          [
            80.267619,
            13.031841
          ],
          [
            80.267798,
            13.031758
          ],
          [
            80.267539,
            13.031686
          ],
          [
            80.26736,
            13.031116
          ],
          [
            80.267589,
            13.030878
          ],
          [
            80.267813,
            13.030881
          ],
          [
            80.267847,
            13.03112
          ],
          [
            80.267655,
            13.030997
          ],
          [
            80.267813,
            13.030927
          ],
          [
            80.267599,
            13.031206
          ],
          [
            80.267186,
            13.031221
          ],
          [
            80.266834,
            13.031003
          ],
          [
            80.266791,
            13.030432
          ],
          [
            80.26691,
            13.030255
          ],
          [
            80.267754,
            13.03013
          ],
          [
            80.267927,
            13.029474
          ],
          [
            80.268195,
            13.029621
          ],
          [
            80.268391,
            13.029958
          ],
          [
            80.268262,
            13.030415
          ],
          [
            80.268575,
            13.031794
          ],
          [
            80.268513,
            13.031889
          ],
          [
            80.268304,
            13.031808
          ],
          [
            80.268599,
            13.031826
          ],
          [
            80.268879,
            13.032463
          ],
          [
            80.269247,
            13.032496
          ],
          [
            80.269463,
            13.033639
          ],
          [
            80.269652,
            13.033799
          ],
          [
            80.269717,
            13.033719
          ],
          [
            80.269467,
            13.033912
          ],
          [
            80.269628,
            13.033715
          ],
          [
            80.269789,
            13.033731
          ],
          [
            80.269647,
            13.033676
          ],
          [
            80.26962,
            13.033784
          ],
          [
            80.269784,
            13.033722
          ],
          [
            80.269819,
            13.033448
          ],
          [
            80.270162,
            13.033369
          ],
          [
            80.270145,
            13.033692
          ],
          [
            80.270013,
            13.033715
          ],
          [
            80.270065,
            13.03363
          ],
          [
            80.270138,
            13.033733
          ],
          [
            80.270083,
            13.03386
          ],
          [
            80.270211,
            13.033522
          ],
          [
            80.27025,
            13.03363
          ],
          [
            80.270306,
            13.03349
          ],
          [
            80.270419,
            13.033492
          ],
          [
            80.270242,
            13.033575
          ],
          [
            80.271206,
            13.033366
          ],
          [
            80.271328,
            13.034285
          ],
          [
            80.271636,
            13.03473
          ],
          [
            80.271294,
            13.034833
          ],
          [
            80.271567,
            13.034466
          ],
          [
            80.271485,
            13.034743
          ],
          [
            80.270693,
            13.035022
          ],
          [
            80.270398,
            13.03481
          ],
          [
            80.270476,
            13.034624
          ],
          [
            80.270348,
            13.034572
          ],
          [
            80.270585,
            13.034372
          ],
          [
            80.270425,
            13.034141
          ],
          [
            80.268871,
            13.034441
          ],
          [
            80.269446,
            13.034188
          ],
          [
            80.269457,
            13.034334
          ],
          [
            80.270316,
            13.034184
          ],
          [
            80.271331,
            13.033811
          ],
          [
            80.271515,
            13.034631
          ],
          [
            80.271985,
            13.034645
          ],
          [
            80.27251,
            13.034439
          ],
          [
            80.273581,
            13.034396
          ],
          [
            80.273941,
            13.034009
          ],
          [
            80.274086,
            13.034206
          ],
          [
            80.273989,
            13.034005
          ],
          [
            80.273956,
            13.034353
          ],
          [
            80.274393,
            13.033986
          ],
          [
            80.274742,
            13.033999
          ],
          [
            80.275713,
            13.033605
          ],
          [
            80.276328,
            13.033661
          ],
          [
            80.277227,
            13.033287
          ],
          [
            80.277422,
            13.033386
          ],
          [
            80.277446,
            13.033688
          ],
          [
            80.277591,
            13.033766
          ],
          [
            80.277555,
            13.033557
          ],
          [
            80.277852,
            13.033715
          ],
          [
            80.278279,
            13.03353
          ],
          [
            80.278189,
            13.033423
          ],
          [
            80.277894,
            13.033598
          ],
          [
            80.277996,
            13.033441
          ],
          [
            80.277901,
            13.03334
          ],
          [
            80.277731,
            13.03344
          ],
          [
            80.277556,
            13.03334
          ],
          [
            80.277483,
            13.033725
          ],
          [
            80.277641,
            13.033839
          ],
          [
            80.277293,
            13.033632
          ],
          [
            80.2773,
            13.033492
          ],
          [
            80.27779,
            13.033215
          ],
          [
            80.280464,
            13.032981
          ],
          [
            80.280464,
            13.033846
          ],
          [
            80.28059,
            13.034093
          ],
          [
            80.280439,
            13.034517
          ],
          [
            80.280844,
            13.035444
          ],
          [
            80.281072,
            13.03655
          ],
          [
            80.280928,
            13.036976
          ],
          [
            80.280278,
            13.036983
          ],
          [
            80.280136,
            13.037269
          ],
          [
            80.280188,
            13.038185
          ],
          [
            80.280004,
            13.038063
          ],
          [
            80.279762,
            13.03857
          ],
          [
            80.279877,
            13.039006
          ],
          [
            80.279498,
            13.039167
          ],
          [
            80.279771,
            13.039594
          ],
          [
            80.279801,
            13.040055
          ],
          [
            80.279596,
            13.040196
          ],
          [
            80.279665,
            13.040511
          ],
          [
            80.280139,
            13.040711
          ],
          [
            80.280056,
            13.040994
          ],
          [
            80.279846,
            13.040762
          ],
          [
            80.279217,
            13.040802
          ],
          [
            80.279467,
            13.04305
          ],
          [
            80.279107,
            13.043191
          ],
          [
            80.278635,
            13.043046
          ],
          [
            80.278373,
            13.043197
          ],
          [
            80.276498,
            13.04323
          ],
          [
            80.276635,
            13.044589
          ],
          [
            80.2768,
            13.04466
          ],
          [
            80.276217,
            13.045608
          ],
          [
            80.276259,
            13.045218
          ],
          [
            80.276602,
            13.04518
          ],
          [
            80.243152,
            13.006467
          ],
          [
            80.242718,
            13.006363
          ]
        ]
      },
      "properties": {
        "name": "Track"
      }
    }
  ]
}