<?xml version="1.0" encoding="UTF-8"?><gpx creator="Wikiloc - https://www.wikiloc.com" version="1.1" xmlns="http://www.topografix.com/GPX/1/1" xmlns:xsi="http://www.w3.org/2001/XMLSchema-instance" xsi:schemaLocation="http://www.topografix.com/GPX/1/1 http://www.topografix.com/GPX/1/1/gpx.xsd"><metadata><name>Wikiloc - Velachcheri</name><author><name>karthigasika666@gmail.com</name><link href="https://www.wikiloc.com/wikiloc/user.do?id=7445391"><text>karthigasika666@gmail.com on Wikiloc</text></link></author><link href="https://www.wikiloc.com/running-trails/velachcheri-172003892"><text>Velachcheri on Wikiloc</text></link><time>2024-05-26T02:04:58Z</time></metadata><trk><name>Velachcheri - Wikiloc</name><cmt></cmt><desc></desc><trkseg><trkpt lat="12.965041" lon="80.219694"><ele>1.357</ele><time>2024-05-26T01:33:59Z</time></trkpt><trkpt lat="12.965054" lon="80.219700"><ele>1.300</ele><time>2024-05-26T01:34:00Z</time></trkpt><trkpt lat="12.965158" lon="80.219741"><ele>1.620</ele><time>2024-05-26T01:34:05Z</time></trkpt><trkpt lat="12.965207" lon="80.219766"><ele>1.709</ele><time>2024-05-26T01:34:07Z</time></trkpt><trkpt lat="12.965253" lon="80.219784"><ele>1.856</ele><time>2024-05-26T01:34:09Z</time></trkpt><trkpt lat="12.965327" lon="80.219821"><ele>2.062</ele><time>2024-05-26T01:34:12Z</time></trkpt><trkpt lat="12.965406" lon="80.219858"><ele>2.157</ele><time>2024-05-26T01:34:15Z</time></trkpt><trkpt lat="12.965509" lon="80.219896"><ele>2.495</ele><time>2024-05-26T01:34:19Z</time></trkpt><trkpt lat="12.965610" lon="80.219944"><ele>2.635</ele><time>2024-05-26T01:34:23Z</time></trkpt><trkpt lat="12.965684" lon="80.219973"><ele>2.828</ele><time>2024-05-26T01:34:26Z</time></trkpt><trkpt lat="12.965817" lon="80.220027"><ele>3.053</ele><time>2024-05-26T01:34:31Z</time></trkpt><trkpt lat="12.965868" lon="80.220046"><ele>3.094</ele><time>2024-05-26T01:34:33Z</time></trkpt><trkpt lat="12.966040" lon="80.220106"><ele>3.057</ele><time>2024-05-26T01:34:39Z</time></trkpt><trkpt lat="12.966224" lon="80.220188"><ele>3.031</ele><time>2024-05-26T01:34:46Z</time></trkpt><trkpt lat="12.966239" lon="80.220200"><ele>3.061</ele><time>2024-05-26T01:34:47Z</time></trkpt><trkpt lat="12.966247" lon="80.220223"><ele>3.007</ele><time>2024-05-26T01:34:49Z</time></trkpt><trkpt lat="12.966225" lon="80.220225"><ele>3.009</ele><time>2024-05-26T01:34:50Z</time></trkpt><trkpt lat="12.966126" lon="80.220206"><ele>3.094</ele><time>2024-05-26T01:34:53Z</time></trkpt><trkpt lat="12.965933" lon="80.220141"><ele>3.030</ele><time>2024-05-26T01:34:59Z</time></trkpt><trkpt lat="12.965901" lon="80.220128"><ele>3.015</ele><time>2024-05-26T01:35:00Z</time></trkpt><trkpt lat="12.965706" lon="80.220055"><ele>2.963</ele><time>2024-05-26T01:35:07Z</time></trkpt><trkpt lat="12.965509" lon="80.220001"><ele>2.643</ele><time>2024-05-26T01:35:14Z</time></trkpt><trkpt lat="12.965485" lon="80.219991"><ele>2.626</ele><time>2024-05-26T01:35:15Z</time></trkpt><trkpt lat="12.965321" lon="80.219931"><ele>2.271</ele><time>2024-05-26T01:35:21Z</time></trkpt><trkpt lat="12.965237" lon="80.219900"><ele>2.072</ele><time>2024-05-26T01:35:24Z</time></trkpt><trkpt lat="12.965135" lon="80.219863"><ele>1.815</ele><time>2024-05-26T01:35:28Z</time></trkpt><trkpt lat="12.965084" lon="80.219845"><ele>1.788</ele><time>2024-05-26T01:35:30Z</time></trkpt><trkpt lat="12.964933" lon="80.219802"><ele>1.624</ele><time>2024-05-26T01:35:36Z</time></trkpt><trkpt lat="12.964749" lon="80.219721"><ele>1.626</ele><time>2024-05-26T01:35:43Z</time></trkpt><trkpt lat="12.964721" lon="80.219711"><ele>1.709</ele><time>2024-05-26T01:35:44Z</time></trkpt><trkpt lat="12.964614" lon="80.219666"><ele>1.889</ele><time>2024-05-26T01:35:48Z</time></trkpt><trkpt lat="12.964563" lon="80.219636"><ele>1.855</ele><time>2024-05-26T01:35:50Z</time></trkpt><trkpt lat="12.964393" lon="80.219549"><ele>2.150</ele><time>2024-05-26T01:35:56Z</time></trkpt><trkpt lat="12.964371" lon="80.219527"><ele>2.228</ele><time>2024-05-26T01:35:57Z</time></trkpt><trkpt lat="12.964337" lon="80.219405"><ele>2.328</ele><time>2024-05-26T01:36:01Z</time></trkpt><trkpt lat="12.964378" lon="80.219280"><ele>2.221</ele><time>2024-05-26T01:36:05Z</time></trkpt><trkpt lat="12.964402" lon="80.219190"><ele>2.126</ele><time>2024-05-26T01:36:08Z</time></trkpt><trkpt lat="12.964457" lon="80.219014"><ele>1.837</ele><time>2024-05-26T01:36:14Z</time></trkpt><trkpt lat="12.964477" lon="80.218956"><ele>1.710</ele><time>2024-05-26T01:36:16Z</time></trkpt><trkpt lat="12.964524" lon="80.218767"><ele>1.459</ele><time>2024-05-26T01:36:23Z</time></trkpt><trkpt lat="12.964593" lon="80.218594"><ele>1.103</ele><time>2024-05-26T01:36:29Z</time></trkpt><trkpt lat="12.964630" lon="80.218509"><ele>1.023</ele><time>2024-05-26T01:36:32Z</time></trkpt><trkpt lat="12.964704" lon="80.218340"><ele>0.709</ele><time>2024-05-26T01:36:38Z</time></trkpt><trkpt lat="12.964791" lon="80.218151"><ele>0.846</ele><time>2024-05-26T01:36:45Z</time></trkpt><trkpt lat="12.964803" lon="80.218124"><ele>0.862</ele><time>2024-05-26T01:36:46Z</time></trkpt><trkpt lat="12.964865" lon="80.217949"><ele>1.017</ele><time>2024-05-26T01:36:52Z</time></trkpt><trkpt lat="12.964874" lon="80.217920"><ele>1.135</ele><time>2024-05-26T01:36:53Z</time></trkpt><trkpt lat="12.964915" lon="80.217784"><ele>1.385</ele><time>2024-05-26T01:36:58Z</time></trkpt><trkpt lat="12.964866" lon="80.217694"><ele>1.558</ele><time>2024-05-26T01:37:02Z</time></trkpt><trkpt lat="12.964708" lon="80.217621"><ele>1.573</ele><time>2024-05-26T01:37:08Z</time></trkpt><trkpt lat="12.964517" lon="80.217559"><ele>1.474</ele><time>2024-05-26T01:37:15Z</time></trkpt><trkpt lat="12.964462" lon="80.217545"><ele>1.497</ele><time>2024-05-26T01:37:17Z</time></trkpt><trkpt lat="12.964350" lon="80.217494"><ele>1.234</ele><time>2024-05-26T01:37:21Z</time></trkpt><trkpt lat="12.964161" lon="80.217414"><ele>1.255</ele><time>2024-05-26T01:37:28Z</time></trkpt><trkpt lat="12.964081" lon="80.217389"><ele>1.110</ele><time>2024-05-26T01:37:31Z</time></trkpt><trkpt lat="12.963939" lon="80.217351"><ele>1.009</ele><time>2024-05-26T01:37:36Z</time></trkpt><trkpt lat="12.963860" lon="80.217322"><ele>0.974</ele><time>2024-05-26T01:37:39Z</time></trkpt><trkpt lat="12.963789" lon="80.217260"><ele>0.970</ele><time>2024-05-26T01:37:42Z</time></trkpt><trkpt lat="12.963772" lon="80.217200"><ele>0.915</ele><time>2024-05-26T01:37:44Z</time></trkpt><trkpt lat="12.963812" lon="80.217048"><ele>1.283</ele><time>2024-05-26T01:37:49Z</time></trkpt><trkpt lat="12.963870" lon="80.216849"><ele>1.763</ele><time>2024-05-26T01:37:56Z</time></trkpt><trkpt lat="12.963893" lon="80.216787"><ele>1.816</ele><time>2024-05-26T01:37:58Z</time></trkpt><trkpt lat="12.963967" lon="80.216600"><ele>2.361</ele><time>2024-05-26T01:38:05Z</time></trkpt><trkpt lat="12.963980" lon="80.216563"><ele>2.472</ele><time>2024-05-26T01:38:07Z</time></trkpt><trkpt lat="12.963981" lon="80.216570"><ele>2.495</ele><time>2024-05-26T01:38:08Z</time></trkpt><trkpt lat="12.963978" lon="80.216590"><ele>2.428</ele><time>2024-05-26T01:38:09Z</time></trkpt><trkpt lat="12.963906" lon="80.216783"><ele>1.989</ele><time>2024-05-26T01:38:16Z</time></trkpt><trkpt lat="12.963897" lon="80.216810"><ele>1.817</ele><time>2024-05-26T01:38:17Z</time></trkpt><trkpt lat="12.963845" lon="80.216993"><ele>1.409</ele><time>2024-05-26T01:38:23Z</time></trkpt><trkpt lat="12.963827" lon="80.217078"><ele>1.223</ele><time>2024-05-26T01:38:26Z</time></trkpt><trkpt lat="12.963847" lon="80.217261"><ele>1.039</ele><time>2024-05-26T01:38:32Z</time></trkpt><trkpt lat="12.963861" lon="80.217285"><ele>1.094</ele><time>2024-05-26T01:38:33Z</time></trkpt><trkpt lat="12.963882" lon="80.217305"><ele>1.092</ele><time>2024-05-26T01:38:34Z</time></trkpt><trkpt lat="12.963945" lon="80.217318"><ele>1.142</ele><time>2024-05-26T01:38:36Z</time></trkpt><trkpt lat="12.964008" lon="80.217313"><ele>1.215</ele><time>2024-05-26T01:38:38Z</time></trkpt><trkpt lat="12.964154" lon="80.217354"><ele>1.360</ele><time>2024-05-26T01:38:43Z</time></trkpt><trkpt lat="12.964179" lon="80.217365"><ele>1.381</ele><time>2024-05-26T01:38:44Z</time></trkpt><trkpt lat="12.964362" lon="80.217422"><ele>1.444</ele><time>2024-05-26T01:38:50Z</time></trkpt><trkpt lat="12.964393" lon="80.217431"><ele>1.456</ele><time>2024-05-26T01:38:51Z</time></trkpt><trkpt lat="12.964591" lon="80.217480"><ele>1.559</ele><time>2024-05-26T01:38:58Z</time></trkpt><trkpt lat="12.964794" lon="80.217534"><ele>1.714</ele><time>2024-05-26T01:39:05Z</time></trkpt><trkpt lat="12.964855" lon="80.217557"><ele>1.709</ele><time>2024-05-26T01:39:07Z</time></trkpt><trkpt lat="12.964964" lon="80.217610"><ele>1.756</ele><time>2024-05-26T01:39:11Z</time></trkpt><trkpt lat="12.965032" lon="80.217678"><ele>1.692</ele><time>2024-05-26T01:39:14Z</time></trkpt><trkpt lat="12.965047" lon="80.217802"><ele>1.377</ele><time>2024-05-26T01:39:17Z</time></trkpt><trkpt lat="12.965047" lon="80.217802"><ele>1.355</ele><time>2024-05-26T01:39:18Z</time></trkpt><trkpt lat="12.964979" lon="80.217996"><ele>0.855</ele><time>2024-05-26T01:39:23Z</time></trkpt><trkpt lat="12.964946" lon="80.218078"><ele>0.758</ele><time>2024-05-26T01:39:26Z</time></trkpt><trkpt lat="12.964879" lon="80.218257"><ele>0.483</ele><time>2024-05-26T01:39:32Z</time></trkpt><trkpt lat="12.964840" lon="80.218368"><ele>0.454</ele><time>2024-05-26T01:39:36Z</time></trkpt><trkpt lat="12.964767" lon="80.218544"><ele>0.687</ele><time>2024-05-26T01:39:42Z</time></trkpt><trkpt lat="12.964733" lon="80.218629"><ele>0.887</ele><time>2024-05-26T01:39:45Z</time></trkpt><trkpt lat="12.964651" lon="80.218819"><ele>1.142</ele><time>2024-05-26T01:39:51Z</time></trkpt><trkpt lat="12.964614" lon="80.218907"><ele>1.226</ele><time>2024-05-26T01:39:54Z</time></trkpt><trkpt lat="12.964541" lon="80.219078"><ele>1.609</ele><time>2024-05-26T01:40:00Z</time></trkpt><trkpt lat="12.964520" lon="80.219140"><ele>1.759</ele><time>2024-05-26T01:40:02Z</time></trkpt><trkpt lat="12.964468" lon="80.219345"><ele>1.915</ele><time>2024-05-26T01:40:09Z</time></trkpt><trkpt lat="12.964468" lon="80.219345"><ele>1.990</ele><time>2024-05-26T01:40:10Z</time></trkpt><trkpt lat="12.964533" lon="80.219477"><ele>1.858</ele><time>2024-05-26T01:40:14Z</time></trkpt><trkpt lat="12.964696" lon="80.219543"><ele>1.558</ele><time>2024-05-26T01:40:20Z</time></trkpt><trkpt lat="12.964752" lon="80.219562"><ele>1.461</ele><time>2024-05-26T01:40:22Z</time></trkpt><trkpt lat="12.964901" lon="80.219624"><ele>1.376</ele><time>2024-05-26T01:40:29Z</time></trkpt><trkpt lat="12.964960" lon="80.219645"><ele>1.267</ele><time>2024-05-26T01:40:30Z</time></trkpt><trkpt lat="12.965113" lon="80.219705"><ele>1.410</ele><time>2024-05-26T01:40:35Z</time></trkpt><trkpt lat="12.965234" lon="80.219741"><ele>1.724</ele><time>2024-05-26T01:40:39Z</time></trkpt><trkpt lat="12.965283" lon="80.219769"><ele>1.804</ele><time>2024-05-26T01:40:41Z</time></trkpt><trkpt lat="12.965455" lon="80.219852"><ele>2.214</ele><time>2024-05-26T01:40:47Z</time></trkpt><trkpt lat="12.965477" lon="80.219860"><ele>2.209</ele><time>2024-05-26T01:40:48Z</time></trkpt><trkpt lat="12.965655" lon="80.219937"><ele>2.623</ele><time>2024-05-26T01:40:54Z</time></trkpt><trkpt lat="12.965684" lon="80.219949"><ele>2.789</ele><time>2024-05-26T01:40:55Z</time></trkpt><trkpt lat="12.965868" lon="80.220014"><ele>3.094</ele><time>2024-05-26T01:41:01Z</time></trkpt><trkpt lat="12.965889" lon="80.220024"><ele>3.042</ele><time>2024-05-26T01:41:02Z</time></trkpt><trkpt lat="12.965946" lon="80.220051"><ele>3.022</ele><time>2024-05-26T01:41:04Z</time></trkpt><trkpt lat="12.966120" lon="80.220124"><ele>3.035</ele><time>2024-05-26T01:41:10Z</time></trkpt><trkpt lat="12.966270" lon="80.220193"><ele>3.030</ele><time>2024-05-26T01:41:15Z</time></trkpt><trkpt lat="12.966334" lon="80.220174"><ele>3.091</ele><time>2024-05-26T01:41:17Z</time></trkpt><trkpt lat="12.966350" lon="80.220154"><ele>3.074</ele><time>2024-05-26T01:41:18Z</time></trkpt><trkpt lat="12.966368" lon="80.220095"><ele>3.083</ele><time>2024-05-26T01:41:20Z</time></trkpt><trkpt lat="12.966367" lon="80.220031"><ele>3.025</ele><time>2024-05-26T01:41:22Z</time></trkpt><trkpt lat="12.966378" lon="80.219836"><ele>2.917</ele><time>2024-05-26T01:41:28Z</time></trkpt><trkpt lat="12.966381" lon="80.219677"><ele>2.709</ele><time>2024-05-26T01:41:33Z</time></trkpt><trkpt lat="12.966383" lon="80.219464"><ele>2.699</ele><time>2024-05-26T01:41:40Z</time></trkpt><trkpt lat="12.966394" lon="80.219350"><ele>2.565</ele><time>2024-05-26T01:41:44Z</time></trkpt><trkpt lat="12.966407" lon="80.219153"><ele>2.460</ele><time>2024-05-26T01:41:50Z</time></trkpt><trkpt lat="12.966412" lon="80.219087"><ele>2.348</ele><time>2024-05-26T01:41:52Z</time></trkpt><trkpt lat="12.966435" lon="80.218903"><ele>2.148</ele><time>2024-05-26T01:41:58Z</time></trkpt><trkpt lat="12.966450" lon="80.218820"><ele>2.161</ele><time>2024-05-26T01:42:01Z</time></trkpt><trkpt lat="12.966466" lon="80.218631"><ele>1.996</ele><time>2024-05-26T01:42:07Z</time></trkpt><trkpt lat="12.966468" lon="80.218546"><ele>1.847</ele><time>2024-05-26T01:42:10Z</time></trkpt><trkpt lat="12.966474" lon="80.218350"><ele>1.630</ele><time>2024-05-26T01:42:16Z</time></trkpt><trkpt lat="12.966477" lon="80.218219"><ele>1.782</ele><time>2024-05-26T01:42:20Z</time></trkpt><trkpt lat="12.966481" lon="80.218015"><ele>2.043</ele><time>2024-05-26T01:42:27Z</time></trkpt><trkpt lat="12.966505" lon="80.217975"><ele>2.117</ele><time>2024-05-26T01:42:29Z</time></trkpt><trkpt lat="12.966540" lon="80.218007"><ele>2.109</ele><time>2024-05-26T01:42:31Z</time></trkpt><trkpt lat="12.966547" lon="80.218162"><ele>1.969</ele><time>2024-05-26T01:42:36Z</time></trkpt><trkpt lat="12.966539" lon="80.218357"><ele>1.725</ele><time>2024-05-26T01:42:42Z</time></trkpt><trkpt lat="12.966537" lon="80.218388"><ele>1.830</ele><time>2024-05-26T01:42:43Z</time></trkpt><trkpt lat="12.966534" lon="80.218587"><ele>2.018</ele><time>2024-05-26T01:42:49Z</time></trkpt><trkpt lat="12.966535" lon="80.218708"><ele>2.138</ele><time>2024-05-26T01:42:53Z</time></trkpt><trkpt lat="12.966517" lon="80.218900"><ele>2.311</ele><time>2024-05-26T01:42:59Z</time></trkpt><trkpt lat="12.966491" lon="80.219017"><ele>2.496</ele><time>2024-05-26T01:43:03Z</time></trkpt><trkpt lat="12.966470" lon="80.219198"><ele>2.587</ele><time>2024-05-26T01:43:09Z</time></trkpt><trkpt lat="12.966469" lon="80.219228"><ele>2.650</ele><time>2024-05-26T01:43:10Z</time></trkpt><trkpt lat="12.966461" lon="80.219413"><ele>2.751</ele><time>2024-05-26T01:43:16Z</time></trkpt><trkpt lat="12.966453" lon="80.219480"><ele>2.701</ele><time>2024-05-26T01:43:18Z</time></trkpt><trkpt lat="12.966453" lon="80.219668"><ele>2.811</ele><time>2024-05-26T01:43:24Z</time></trkpt><trkpt lat="12.966451" lon="80.219737"><ele>2.809</ele><time>2024-05-26T01:43:26Z</time></trkpt><trkpt lat="12.966431" lon="80.219933"><ele>3.096</ele><time>2024-05-26T01:43:32Z</time></trkpt><trkpt lat="12.966424" lon="80.219989"><ele>3.082</ele><time>2024-05-26T01:43:34Z</time></trkpt><trkpt lat="12.966410" lon="80.220189"><ele>3.057</ele><time>2024-05-26T01:43:40Z</time></trkpt><trkpt lat="12.966405" lon="80.220252"><ele>3.015</ele><time>2024-05-26T01:43:42Z</time></trkpt><trkpt lat="12.966385" lon="80.220443"><ele>3.075</ele><time>2024-05-26T01:43:48Z</time></trkpt><trkpt lat="12.966380" lon="80.220541"><ele>3.028</ele><time>2024-05-26T01:43:51Z</time></trkpt><trkpt lat="12.966358" lon="80.220734"><ele>3.083</ele><time>2024-05-26T01:43:57Z</time></trkpt><trkpt lat="12.966355" lon="80.220837"><ele>3.064</ele><time>2024-05-26T01:44:00Z</time></trkpt><trkpt lat="12.966338" lon="80.220929"><ele>2.977</ele><time>2024-05-26T01:44:03Z</time></trkpt><trkpt lat="12.966290" lon="80.221046"><ele>2.734</ele><time>2024-05-26T01:44:07Z</time></trkpt><trkpt lat="12.966240" lon="80.221219"><ele>2.555</ele><time>2024-05-26T01:44:13Z</time></trkpt><trkpt lat="12.966207" lon="80.221259"><ele>2.510</ele><time>2024-05-26T01:44:15Z</time></trkpt><trkpt lat="12.966162" lon="80.221192"><ele>2.609</ele><time>2024-05-26T01:44:18Z</time></trkpt><trkpt lat="12.966163" lon="80.221167"><ele>2.654</ele><time>2024-05-26T01:44:19Z</time></trkpt><trkpt lat="12.966213" lon="80.221005"><ele>2.860</ele><time>2024-05-26T01:44:24Z</time></trkpt><trkpt lat="12.966271" lon="80.220816"><ele>3.015</ele><time>2024-05-26T01:44:31Z</time></trkpt><trkpt lat="12.966228" lon="80.220634"><ele>3.073</ele><time>2024-05-26T01:44:37Z</time></trkpt><trkpt lat="12.966226" lon="80.220600"><ele>3.083</ele><time>2024-05-26T01:44:38Z</time></trkpt><trkpt lat="12.966231" lon="80.220407"><ele>3.086</ele><time>2024-05-26T01:44:44Z</time></trkpt><trkpt lat="12.966228" lon="80.220318"><ele>3.011</ele><time>2024-05-26T01:44:47Z</time></trkpt><trkpt lat="12.966160" lon="80.220199"><ele>3.022</ele><time>2024-05-26T01:44:52Z</time></trkpt><trkpt lat="12.966012" lon="80.220191"><ele>3.095</ele><time>2024-05-26T01:44:57Z</time></trkpt><trkpt lat="12.965812" lon="80.220119"><ele>3.081</ele><time>2024-05-26T01:45:04Z</time></trkpt><trkpt lat="12.965783" lon="80.220108"><ele>3.061</ele><time>2024-05-26T01:45:05Z</time></trkpt><trkpt lat="12.965586" lon="80.220031"><ele>2.717</ele><time>2024-05-26T01:45:12Z</time></trkpt><trkpt lat="12.965473" lon="80.219984"><ele>2.509</ele><time>2024-05-26T01:45:16Z</time></trkpt><trkpt lat="12.965295" lon="80.219921"><ele>2.269</ele><time>2024-05-26T01:45:22Z</time></trkpt><trkpt lat="12.965155" lon="80.219868"><ele>1.995</ele><time>2024-05-26T01:45:27Z</time></trkpt><trkpt lat="12.964974" lon="80.219798"><ele>1.550</ele><time>2024-05-26T01:45:34Z</time></trkpt><trkpt lat="12.964834" lon="80.219744"><ele>1.618</ele><time>2024-05-26T01:45:39Z</time></trkpt><trkpt lat="12.964779" lon="80.219712"><ele>1.628</ele><time>2024-05-26T01:45:41Z</time></trkpt><trkpt lat="12.964610" lon="80.219634"><ele>1.751</ele><time>2024-05-26T01:45:47Z</time></trkpt><trkpt lat="12.964553" lon="80.219609"><ele>1.826</ele><time>2024-05-26T01:45:49Z</time></trkpt><trkpt lat="12.964383" lon="80.219542"><ele>2.127</ele><time>2024-05-26T01:45:55Z</time></trkpt><trkpt lat="12.964344" lon="80.219494"><ele>2.220</ele><time>2024-05-26T01:45:57Z</time></trkpt><trkpt lat="12.964337" lon="80.219366"><ele>2.347</ele><time>2024-05-26T01:46:01Z</time></trkpt><trkpt lat="12.964394" lon="80.219185"><ele>2.229</ele><time>2024-05-26T01:46:07Z</time></trkpt><trkpt lat="12.964455" lon="80.218997"><ele>1.821</ele><time>2024-05-26T01:46:13Z</time></trkpt><trkpt lat="12.964501" lon="80.218877"><ele>1.609</ele><time>2024-05-26T01:46:17Z</time></trkpt><trkpt lat="12.964577" lon="80.218702"><ele>1.225</ele><time>2024-05-26T01:46:23Z</time></trkpt><trkpt lat="12.964615" lon="80.218611"><ele>1.121</ele><time>2024-05-26T01:46:26Z</time></trkpt><trkpt lat="12.964671" lon="80.218466"><ele>0.986</ele><time>2024-05-26T01:46:31Z</time></trkpt><trkpt lat="12.964726" lon="80.218311"><ele>0.734</ele><time>2024-05-26T01:46:36Z</time></trkpt><trkpt lat="12.964790" lon="80.218127"><ele>0.844</ele><time>2024-05-26T01:46:42Z</time></trkpt><trkpt lat="12.964873" lon="80.217928"><ele>1.127</ele><time>2024-05-26T01:46:49Z</time></trkpt><trkpt lat="12.964883" lon="80.217905"><ele>1.142</ele><time>2024-05-26T01:46:50Z</time></trkpt><trkpt lat="12.964915" lon="80.217758"><ele>1.413</ele><time>2024-05-26T01:46:55Z</time></trkpt><trkpt lat="12.964891" lon="80.217714"><ele>1.536</ele><time>2024-05-26T01:46:57Z</time></trkpt><trkpt lat="12.964736" lon="80.217623"><ele>1.584</ele><time>2024-05-26T01:47:03Z</time></trkpt><trkpt lat="12.964555" lon="80.217572"><ele>1.407</ele><time>2024-05-26T01:47:09Z</time></trkpt><trkpt lat="12.964493" lon="80.217555"><ele>1.417</ele><time>2024-05-26T01:47:11Z</time></trkpt><trkpt lat="12.964310" lon="80.217500"><ele>1.209</ele><time>2024-05-26T01:47:17Z</time></trkpt><trkpt lat="12.964281" lon="80.217490"><ele>1.269</ele><time>2024-05-26T01:47:18Z</time></trkpt><trkpt lat="12.964102" lon="80.217409"><ele>1.135</ele><time>2024-05-26T01:47:25Z</time></trkpt><trkpt lat="12.963915" lon="80.217359"><ele>0.960</ele><time>2024-05-26T01:47:31Z</time></trkpt><trkpt lat="12.963852" lon="80.217337"><ele>0.968</ele><time>2024-05-26T01:47:33Z</time></trkpt><trkpt lat="12.963769" lon="80.217254"><ele>0.898</ele><time>2024-05-26T01:47:37Z</time></trkpt><trkpt lat="12.963764" lon="80.217221"><ele>0.941</ele><time>2024-05-26T01:47:38Z</time></trkpt><trkpt lat="12.963802" lon="80.217074"><ele>1.156</ele><time>2024-05-26T01:47:43Z</time></trkpt><trkpt lat="12.963856" lon="80.216890"><ele>1.547</ele><time>2024-05-26T01:47:49Z</time></trkpt><trkpt lat="12.963932" lon="80.216697"><ele>2.150</ele><time>2024-05-26T01:47:56Z</time></trkpt><trkpt lat="12.963949" lon="80.216636"><ele>2.289</ele><time>2024-05-26T01:47:58Z</time></trkpt><trkpt lat="12.963978" lon="80.216554"><ele>2.406</ele><time>2024-05-26T01:48:01Z</time></trkpt><trkpt lat="12.963997" lon="80.216566"><ele>2.526</ele><time>2024-05-26T01:48:03Z</time></trkpt><trkpt lat="12.963962" lon="80.216676"><ele>2.209</ele><time>2024-05-26T01:48:07Z</time></trkpt><trkpt lat="12.963895" lon="80.216857"><ele>1.739</ele><time>2024-05-26T01:48:13Z</time></trkpt><trkpt lat="12.963858" lon="80.216948"><ele>1.555</ele><time>2024-05-26T01:48:16Z</time></trkpt><trkpt lat="12.963820" lon="80.217139"><ele>1.190</ele><time>2024-05-26T01:48:22Z</time></trkpt><trkpt lat="12.963818" lon="80.217168"><ele>1.078</ele><time>2024-05-26T01:48:23Z</time></trkpt><trkpt lat="12.963873" lon="80.217289"><ele>1.068</ele><time>2024-05-26T01:48:27Z</time></trkpt><trkpt lat="12.963977" lon="80.217344"><ele>1.191</ele><time>2024-05-26T01:48:31Z</time></trkpt><trkpt lat="12.964155" lon="80.217373"><ele>1.396</ele><time>2024-05-26T01:48:37Z</time></trkpt><trkpt lat="12.964184" lon="80.217381"><ele>1.397</ele><time>2024-05-26T01:48:38Z</time></trkpt><trkpt lat="12.964379" lon="80.217432"><ele>1.480</ele><time>2024-05-26T01:48:44Z</time></trkpt><trkpt lat="12.964500" lon="80.217465"><ele>1.521</ele><time>2024-05-26T01:48:48Z</time></trkpt><trkpt lat="12.964676" lon="80.217529"><ele>1.641</ele><time>2024-05-26T01:48:54Z</time></trkpt><trkpt lat="12.964731" lon="80.217555"><ele>1.605</ele><time>2024-05-26T01:48:56Z</time></trkpt><trkpt lat="12.964842" lon="80.217591"><ele>1.709</ele><time>2024-05-26T01:49:00Z</time></trkpt><trkpt lat="12.964950" lon="80.217630"><ele>1.753</ele><time>2024-05-26T01:49:04Z</time></trkpt><trkpt lat="12.965045" lon="80.217747"><ele>1.419</ele><time>2024-05-26T01:49:09Z</time></trkpt><trkpt lat="12.965030" lon="80.217883"><ele>1.184</ele><time>2024-05-26T01:49:13Z</time></trkpt><trkpt lat="12.964956" lon="80.218066"><ele>0.782</ele><time>2024-05-26T01:49:19Z</time></trkpt><trkpt lat="12.964936" lon="80.218130"><ele>0.652</ele><time>2024-05-26T01:49:21Z</time></trkpt><trkpt lat="12.964867" lon="80.218319"><ele>0.335</ele><time>2024-05-26T01:49:27Z</time></trkpt><trkpt lat="12.964807" lon="80.218461"><ele>0.560</ele><time>2024-05-26T01:49:32Z</time></trkpt><trkpt lat="12.964736" lon="80.218660"><ele>0.881</ele><time>2024-05-26T01:49:39Z</time></trkpt><trkpt lat="12.964660" lon="80.218844"><ele>1.174</ele><time>2024-05-26T01:49:46Z</time></trkpt><trkpt lat="12.964637" lon="80.218897"><ele>1.248</ele><time>2024-05-26T01:49:48Z</time></trkpt><trkpt lat="12.964565" lon="80.219074"><ele>1.561</ele><time>2024-05-26T01:49:54Z</time></trkpt><trkpt lat="12.964504" lon="80.219252"><ele>1.817</ele><time>2024-05-26T01:50:00Z</time></trkpt><trkpt lat="12.964490" lon="80.219438"><ele>1.909</ele><time>2024-05-26T01:50:06Z</time></trkpt><trkpt lat="12.964502" lon="80.219466"><ele>1.995</ele><time>2024-05-26T01:50:07Z</time></trkpt><trkpt lat="12.964618" lon="80.219550"><ele>1.781</ele><time>2024-05-26T01:50:12Z</time></trkpt><trkpt lat="12.964789" lon="80.219615"><ele>1.436</ele><time>2024-05-26T01:50:18Z</time></trkpt><trkpt lat="12.964872" lon="80.219642"><ele>1.314</ele><time>2024-05-26T01:50:21Z</time></trkpt><trkpt lat="12.965049" lon="80.219708"><ele>1.464</ele><time>2024-05-26T01:50:27Z</time></trkpt><trkpt lat="12.965225" lon="80.219777"><ele>1.717</ele><time>2024-05-26T01:50:33Z</time></trkpt><trkpt lat="12.965257" lon="80.219789"><ele>1.862</ele><time>2024-05-26T01:50:34Z</time></trkpt><trkpt lat="12.965434" lon="80.219860"><ele>2.213</ele><time>2024-05-26T01:50:40Z</time></trkpt><trkpt lat="12.965492" lon="80.219887"><ele>2.356</ele><time>2024-05-26T01:50:42Z</time></trkpt><trkpt lat="12.965670" lon="80.219961"><ele>2.771</ele><time>2024-05-26T01:50:48Z</time></trkpt><trkpt lat="12.965821" lon="80.220017"><ele>3.041</ele><time>2024-05-26T01:50:53Z</time></trkpt><trkpt lat="12.965996" lon="80.220086"><ele>3.015</ele><time>2024-05-26T01:50:59Z</time></trkpt><trkpt lat="12.966024" lon="80.220098"><ele>3.009</ele><time>2024-05-26T01:51:00Z</time></trkpt><trkpt lat="12.966222" lon="80.220167"><ele>3.048</ele><time>2024-05-26T01:51:07Z</time></trkpt><trkpt lat="12.966249" lon="80.220175"><ele>3.044</ele><time>2024-05-26T01:51:08Z</time></trkpt><trkpt lat="12.966330" lon="80.220170"><ele>3.059</ele><time>2024-05-26T01:51:11Z</time></trkpt><trkpt lat="12.966351" lon="80.220153"><ele>3.097</ele><time>2024-05-26T01:51:12Z</time></trkpt><trkpt lat="12.966378" lon="80.220032"><ele>3.077</ele><time>2024-05-26T01:51:16Z</time></trkpt><trkpt lat="12.966382" lon="80.219846"><ele>2.990</ele><time>2024-05-26T01:51:22Z</time></trkpt><trkpt lat="12.966385" lon="80.219786"><ele>2.875</ele><time>2024-05-26T01:51:24Z</time></trkpt><trkpt lat="12.966394" lon="80.219600"><ele>2.756</ele><time>2024-05-26T01:51:30Z</time></trkpt><trkpt lat="12.966410" lon="80.219480"><ele>2.649</ele><time>2024-05-26T01:51:34Z</time></trkpt><trkpt lat="12.966423" lon="80.219295"><ele>2.541</ele><time>2024-05-26T01:51:40Z</time></trkpt><trkpt lat="12.966430" lon="80.219179"><ele>2.481</ele><time>2024-05-26T01:51:44Z</time></trkpt><trkpt lat="12.966440" lon="80.218981"><ele>2.209</ele><time>2024-05-26T01:51:50Z</time></trkpt><trkpt lat="12.966442" lon="80.218951"><ele>2.209</ele><time>2024-05-26T01:51:51Z</time></trkpt><trkpt lat="12.966455" lon="80.218751"><ele>2.095</ele><time>2024-05-26T01:51:57Z</time></trkpt><trkpt lat="12.966464" lon="80.218687"><ele>1.931</ele><time>2024-05-26T01:51:59Z</time></trkpt><trkpt lat="12.966480" lon="80.218502"><ele>1.826</ele><time>2024-05-26T01:52:05Z</time></trkpt><trkpt lat="12.966481" lon="80.218470"><ele>1.784</ele><time>2024-05-26T01:52:06Z</time></trkpt><trkpt lat="12.966488" lon="80.218270"><ele>1.734</ele><time>2024-05-26T01:52:12Z</time></trkpt><trkpt lat="12.966498" lon="80.218139"><ele>1.987</ele><time>2024-05-26T01:52:16Z</time></trkpt><trkpt lat="12.966502" lon="80.218003"><ele>2.112</ele><time>2024-05-26T01:52:21Z</time></trkpt><trkpt lat="12.966520" lon="80.217997"><ele>2.173</ele><time>2024-05-26T01:52:22Z</time></trkpt><trkpt lat="12.966556" lon="80.218061"><ele>2.116</ele><time>2024-05-26T01:52:25Z</time></trkpt><trkpt lat="12.966549" lon="80.218201"><ele>1.973</ele><time>2024-05-26T01:52:29Z</time></trkpt><trkpt lat="12.966546" lon="80.218334"><ele>1.785</ele><time>2024-05-26T01:52:33Z</time></trkpt><trkpt lat="12.966547" lon="80.218525"><ele>1.913</ele><time>2024-05-26T01:52:39Z</time></trkpt><trkpt lat="12.966540" lon="80.218625"><ele>2.009</ele><time>2024-05-26T01:52:42Z</time></trkpt><trkpt lat="12.966530" lon="80.218824"><ele>2.348</ele><time>2024-05-26T01:52:48Z</time></trkpt><trkpt lat="12.966527" lon="80.218949"><ele>2.454</ele><time>2024-05-26T01:52:52Z</time></trkpt><trkpt lat="12.966502" lon="80.219155"><ele>2.669</ele><time>2024-05-26T01:52:59Z</time></trkpt><trkpt lat="12.966481" lon="80.219360"><ele>2.797</ele><time>2024-05-26T01:53:06Z</time></trkpt><trkpt lat="12.966472" lon="80.219460"><ele>2.737</ele><time>2024-05-26T01:53:09Z</time></trkpt><trkpt lat="12.966464" lon="80.219663"><ele>2.820</ele><time>2024-05-26T01:53:15Z</time></trkpt><trkpt lat="12.966460" lon="80.219697"><ele>2.845</ele><time>2024-05-26T01:53:16Z</time></trkpt><trkpt lat="12.966451" lon="80.219897"><ele>2.926</ele><time>2024-05-26T01:53:22Z</time></trkpt><trkpt lat="12.966441" lon="80.220030"><ele>3.099</ele><time>2024-05-26T01:53:26Z</time></trkpt><trkpt lat="12.966420" lon="80.220219"><ele>3.094</ele><time>2024-05-26T01:53:32Z</time></trkpt><trkpt lat="12.966414" lon="80.220279"><ele>3.057</ele><time>2024-05-26T01:53:34Z</time></trkpt><trkpt lat="12.966386" lon="80.220478"><ele>3.022</ele><time>2024-05-26T01:53:40Z</time></trkpt><trkpt lat="12.966386" lon="80.220547"><ele>3.009</ele><time>2024-05-26T01:53:42Z</time></trkpt><trkpt lat="12.966377" lon="80.220739"><ele>3.020</ele><time>2024-05-26T01:53:48Z</time></trkpt><trkpt lat="12.966372" lon="80.220840"><ele>3.056</ele><time>2024-05-26T01:53:51Z</time></trkpt><trkpt lat="12.966368" lon="80.220873"><ele>3.071</ele><time>2024-05-26T01:53:52Z</time></trkpt><trkpt lat="12.966305" lon="80.221060"><ele>2.749</ele><time>2024-05-26T01:53:58Z</time></trkpt><trkpt lat="12.966246" lon="80.221247"><ele>2.549</ele><time>2024-05-26T01:54:04Z</time></trkpt><trkpt lat="12.966221" lon="80.221252"><ele>2.562</ele><time>2024-05-26T01:54:05Z</time></trkpt><trkpt lat="12.966198" lon="80.221246"><ele>2.597</ele><time>2024-05-26T01:54:06Z</time></trkpt><trkpt lat="12.966187" lon="80.221229"><ele>2.568</ele><time>2024-05-26T01:54:07Z</time></trkpt><trkpt lat="12.966192" lon="80.221178"><ele>2.611</ele><time>2024-05-26T01:54:09Z</time></trkpt><trkpt lat="12.966258" lon="80.220982"><ele>2.875</ele><time>2024-05-26T01:54:14Z</time></trkpt><trkpt lat="12.966277" lon="80.220912"><ele>2.928</ele><time>2024-05-26T01:54:16Z</time></trkpt><trkpt lat="12.966278" lon="80.220733"><ele>3.020</ele><time>2024-05-26T01:54:22Z</time></trkpt><trkpt lat="12.966270" lon="80.220702"><ele>3.009</ele><time>2024-05-26T01:54:23Z</time></trkpt><trkpt lat="12.966260" lon="80.220511"><ele>3.038</ele><time>2024-05-26T01:54:29Z</time></trkpt><trkpt lat="12.966257" lon="80.220420"><ele>3.094</ele><time>2024-05-26T01:54:32Z</time></trkpt><trkpt lat="12.966238" lon="80.220237"><ele>3.029</ele><time>2024-05-26T01:54:38Z</time></trkpt><trkpt lat="12.966226" lon="80.220217"><ele>3.047</ele><time>2024-05-26T01:54:39Z</time></trkpt><trkpt lat="12.966186" lon="80.220197"><ele>3.057</ele><time>2024-05-26T01:54:41Z</time></trkpt><trkpt lat="12.966154" lon="80.220196"><ele>3.050</ele><time>2024-05-26T01:54:42Z</time></trkpt><trkpt lat="12.965972" lon="80.220155"><ele>3.095</ele><time>2024-05-26T01:54:48Z</time></trkpt><trkpt lat="12.965946" lon="80.220142"><ele>3.036</ele><time>2024-05-26T01:54:49Z</time></trkpt><trkpt lat="12.965776" lon="80.220074"><ele>2.959</ele><time>2024-05-26T01:54:55Z</time></trkpt><trkpt lat="12.965658" lon="80.220042"><ele>2.861</ele><time>2024-05-26T01:54:59Z</time></trkpt><trkpt lat="12.965469" lon="80.219965"><ele>2.521</ele><time>2024-05-26T01:55:06Z</time></trkpt><trkpt lat="12.965411" lon="80.219943"><ele>2.413</ele><time>2024-05-26T01:55:08Z</time></trkpt><trkpt lat="12.965229" lon="80.219880"><ele>2.009</ele><time>2024-05-26T01:55:14Z</time></trkpt><trkpt lat="12.965166" lon="80.219856"><ele>1.997</ele><time>2024-05-26T01:55:16Z</time></trkpt><trkpt lat="12.964965" lon="80.219786"><ele>1.523</ele><time>2024-05-26T01:55:23Z</time></trkpt><trkpt lat="12.964913" lon="80.219752"><ele>1.598</ele><time>2024-05-26T01:55:25Z</time></trkpt><trkpt lat="12.964737" lon="80.219691"><ele>1.656</ele><time>2024-05-26T01:55:31Z</time></trkpt><trkpt lat="12.964708" lon="80.219680"><ele>1.666</ele><time>2024-05-26T01:55:32Z</time></trkpt><trkpt lat="12.964523" lon="80.219612"><ele>1.949</ele><time>2024-05-26T01:55:38Z</time></trkpt><trkpt lat="12.964437" lon="80.219565"><ele>2.054</ele><time>2024-05-26T01:55:41Z</time></trkpt><trkpt lat="12.964350" lon="80.219437"><ele>2.275</ele><time>2024-05-26T01:55:46Z</time></trkpt><trkpt lat="12.964380" lon="80.219266"><ele>2.248</ele><time>2024-05-26T01:55:51Z</time></trkpt><trkpt lat="12.964457" lon="80.219074"><ele>1.912</ele><time>2024-05-26T01:55:57Z</time></trkpt><trkpt lat="12.964468" lon="80.219043"><ele>1.832</ele><time>2024-05-26T01:55:58Z</time></trkpt><trkpt lat="12.964532" lon="80.218838"><ele>1.505</ele><time>2024-05-26T01:56:05Z</time></trkpt><trkpt lat="12.964594" lon="80.218649"><ele>1.209</ele><time>2024-05-26T01:56:11Z</time></trkpt><trkpt lat="12.964630" lon="80.218562"><ele>1.062</ele><time>2024-05-26T01:56:14Z</time></trkpt><trkpt lat="12.964702" lon="80.218375"><ele>0.758</ele><time>2024-05-26T01:56:20Z</time></trkpt><trkpt lat="12.964758" lon="80.218254"><ele>0.773</ele><time>2024-05-26T01:56:24Z</time></trkpt><trkpt lat="12.964841" lon="80.218069"><ele>0.821</ele><time>2024-05-26T01:56:31Z</time></trkpt><trkpt lat="12.964875" lon="80.217974"><ele>1.011</ele><time>2024-05-26T01:56:34Z</time></trkpt><trkpt lat="12.964935" lon="80.217796"><ele>1.344</ele><time>2024-05-26T01:56:40Z</time></trkpt><trkpt lat="12.964925" lon="80.217744"><ele>1.479</ele><time>2024-05-26T01:56:42Z</time></trkpt><trkpt lat="12.964902" lon="80.217718"><ele>1.590</ele><time>2024-05-26T01:56:43Z</time></trkpt><trkpt lat="12.964823" lon="80.217675"><ele>1.513</ele><time>2024-05-26T01:56:46Z</time></trkpt><trkpt lat="12.964642" lon="80.217602"><ele>1.531</ele><time>2024-05-26T01:56:52Z</time></trkpt><trkpt lat="12.964555" lon="80.217561"><ele>1.461</ele><time>2024-05-26T01:56:55Z</time></trkpt><trkpt lat="12.964375" lon="80.217498"><ele>1.307</ele><time>2024-05-26T01:57:01Z</time></trkpt><trkpt lat="12.964342" lon="80.217490"><ele>1.209</ele><time>2024-05-26T01:57:02Z</time></trkpt><trkpt lat="12.964172" lon="80.217436"><ele>1.214</ele><time>2024-05-26T01:57:08Z</time></trkpt><trkpt lat="12.963994" lon="80.217381"><ele>1.080</ele><time>2024-05-26T01:57:14Z</time></trkpt><trkpt lat="12.963959" lon="80.217374"><ele>1.085</ele><time>2024-05-26T01:57:15Z</time></trkpt><trkpt lat="12.963786" lon="80.217284"><ele>0.833</ele><time>2024-05-26T01:57:21Z</time></trkpt><trkpt lat="12.963789" lon="80.217150"><ele>1.033</ele><time>2024-05-26T01:57:25Z</time></trkpt><trkpt lat="12.963858" lon="80.216980"><ele>1.496</ele><time>2024-05-26T01:57:31Z</time></trkpt><trkpt lat="12.963902" lon="80.216790"><ele>1.891</ele><time>2024-05-26T01:57:37Z</time></trkpt><trkpt lat="12.963922" lon="80.216738"><ele>2.042</ele><time>2024-05-26T01:57:39Z</time></trkpt><trkpt lat="12.963977" lon="80.216564"><ele>2.435</ele><time>2024-05-26T01:57:46Z</time></trkpt><trkpt lat="12.963980" lon="80.216630"><ele>2.452</ele><time>2024-05-26T01:57:49Z</time></trkpt><trkpt lat="12.963952" lon="80.216817"><ele>2.053</ele><time>2024-05-26T01:57:55Z</time></trkpt><trkpt lat="12.963937" lon="80.216886"><ele>1.808</ele><time>2024-05-26T01:57:57Z</time></trkpt><trkpt lat="12.963879" lon="80.217084"><ele>1.309</ele><time>2024-05-26T01:58:04Z</time></trkpt><trkpt lat="12.963872" lon="80.217113"><ele>1.266</ele><time>2024-05-26T01:58:05Z</time></trkpt><trkpt lat="12.963889" lon="80.217277"><ele>1.072</ele><time>2024-05-26T01:58:11Z</time></trkpt><trkpt lat="12.963960" lon="80.217324"><ele>1.157</ele><time>2024-05-26T01:58:14Z</time></trkpt><trkpt lat="12.963991" lon="80.217326"><ele>1.165</ele><time>2024-05-26T01:58:15Z</time></trkpt><trkpt lat="12.964169" lon="80.217354"><ele>1.435</ele><time>2024-05-26T01:58:21Z</time></trkpt><trkpt lat="12.964199" lon="80.217365"><ele>1.498</ele><time>2024-05-26T01:58:22Z</time></trkpt><trkpt lat="12.964381" lon="80.217410"><ele>1.413</ele><time>2024-05-26T01:58:28Z</time></trkpt><trkpt lat="12.964467" lon="80.217436"><ele>1.574</ele><time>2024-05-26T01:58:31Z</time></trkpt><trkpt lat="12.964657" lon="80.217494"><ele>1.697</ele><time>2024-05-26T01:58:37Z</time></trkpt><trkpt lat="12.964719" lon="80.217517"><ele>1.661</ele><time>2024-05-26T01:58:39Z</time></trkpt><trkpt lat="12.964841" lon="80.217562"><ele>1.721</ele><time>2024-05-26T01:58:43Z</time></trkpt><trkpt lat="12.964949" lon="80.217610"><ele>1.713</ele><time>2024-05-26T01:58:47Z</time></trkpt><trkpt lat="12.965051" lon="80.217746"><ele>1.409</ele><time>2024-05-26T01:58:52Z</time></trkpt><trkpt lat="12.965045" lon="80.217778"><ele>1.317</ele><time>2024-05-26T01:58:53Z</time></trkpt><trkpt lat="12.965015" lon="80.217842"><ele>1.263</ele><time>2024-05-26T01:58:55Z</time></trkpt><trkpt lat="12.964978" lon="80.218023"><ele>0.878</ele><time>2024-05-26T01:59:00Z</time></trkpt><trkpt lat="12.964958" lon="80.218086"><ele>0.756</ele><time>2024-05-26T01:59:02Z</time></trkpt><trkpt lat="12.964889" lon="80.218276"><ele>0.486</ele><time>2024-05-26T01:59:08Z</time></trkpt><trkpt lat="12.964864" lon="80.218337"><ele>0.389</ele><time>2024-05-26T01:59:10Z</time></trkpt><trkpt lat="12.964838" lon="80.218397"><ele>0.454</ele><time>2024-05-26T01:59:12Z</time></trkpt><trkpt lat="12.964825" lon="80.218425"><ele>0.445</ele><time>2024-05-26T01:59:13Z</time></trkpt><trkpt lat="12.964755" lon="80.218593"><ele>0.718</ele><time>2024-05-26T01:59:19Z</time></trkpt><trkpt lat="12.964686" lon="80.218769"><ele>1.073</ele><time>2024-05-26T01:59:25Z</time></trkpt><trkpt lat="12.964627" lon="80.218938"><ele>1.285</ele><time>2024-05-26T01:59:31Z</time></trkpt><trkpt lat="12.964556" lon="80.219119"><ele>1.613</ele><time>2024-05-26T01:59:37Z</time></trkpt><trkpt lat="12.964535" lon="80.219202"><ele>1.709</ele><time>2024-05-26T01:59:40Z</time></trkpt><trkpt lat="12.964486" lon="80.219383"><ele>1.928</ele><time>2024-05-26T01:59:46Z</time></trkpt><trkpt lat="12.964490" lon="80.219444"><ele>1.954</ele><time>2024-05-26T01:59:48Z</time></trkpt><trkpt lat="12.964569" lon="80.219522"><ele>1.729</ele><time>2024-05-26T01:59:52Z</time></trkpt><trkpt lat="12.964763" lon="80.219596"><ele>1.457</ele><time>2024-05-26T01:59:59Z</time></trkpt><trkpt lat="12.964819" lon="80.219617"><ele>1.487</ele><time>2024-05-26T02:00:01Z</time></trkpt><trkpt lat="12.965008" lon="80.219674"><ele>1.260</ele><time>2024-05-26T02:00:07Z</time></trkpt><trkpt lat="12.965097" lon="80.219712"><ele>1.425</ele><time>2024-05-26T02:00:10Z</time></trkpt><trkpt lat="12.965280" lon="80.219781"><ele>1.876</ele><time>2024-05-26T02:00:16Z</time></trkpt><trkpt lat="12.965371" lon="80.219816"><ele>2.099</ele><time>2024-05-26T02:00:19Z</time></trkpt><trkpt lat="12.965455" lon="80.219858"><ele>2.218</ele><time>2024-05-26T02:00:22Z</time></trkpt><trkpt lat="12.965542" lon="80.219902"><ele>2.498</ele><time>2024-05-26T02:00:25Z</time></trkpt><trkpt lat="12.965631" lon="80.219934"><ele>2.617</ele><time>2024-05-26T02:00:28Z</time></trkpt><trkpt lat="12.965806" lon="80.220007"><ele>3.009</ele><time>2024-05-26T02:00:34Z</time></trkpt><trkpt lat="12.965835" lon="80.220017"><ele>3.062</ele><time>2024-05-26T02:00:35Z</time></trkpt><trkpt lat="12.966014" lon="80.220080"><ele>3.058</ele><time>2024-05-26T02:00:41Z</time></trkpt><trkpt lat="12.966042" lon="80.220093"><ele>3.013</ele><time>2024-05-26T02:00:42Z</time></trkpt><trkpt lat="12.966210" lon="80.220170"><ele>3.041</ele><time>2024-05-26T02:00:48Z</time></trkpt><trkpt lat="12.966238" lon="80.220180"><ele>3.031</ele><time>2024-05-26T02:00:49Z</time></trkpt><trkpt lat="12.966322" lon="80.220174"><ele>3.034</ele><time>2024-05-26T02:00:52Z</time></trkpt><trkpt lat="12.966341" lon="80.220153"><ele>3.059</ele><time>2024-05-26T02:00:53Z</time></trkpt><trkpt lat="12.966369" lon="80.220020"><ele>3.060</ele><time>2024-05-26T02:00:57Z</time></trkpt><trkpt lat="12.966364" lon="80.219819"><ele>2.813</ele><time>2024-05-26T02:01:03Z</time></trkpt><trkpt lat="12.966375" lon="80.219632"><ele>2.785</ele><time>2024-05-26T02:01:09Z</time></trkpt><trkpt lat="12.966374" lon="80.219478"><ele>2.689</ele><time>2024-05-26T02:01:14Z</time></trkpt><trkpt lat="12.966390" lon="80.219266"><ele>2.417</ele><time>2024-05-26T02:01:21Z</time></trkpt><trkpt lat="12.966406" lon="80.219082"><ele>2.309</ele><time>2024-05-26T02:01:27Z</time></trkpt><trkpt lat="12.966407" lon="80.219048"><ele>2.299</ele><time>2024-05-26T02:01:28Z</time></trkpt><trkpt lat="12.966427" lon="80.218862"><ele>2.145</ele><time>2024-05-26T02:01:34Z</time></trkpt><trkpt lat="12.966434" lon="80.218790"><ele>2.020</ele><time>2024-05-26T02:01:36Z</time></trkpt><trkpt lat="12.966461" lon="80.218582"><ele>1.818</ele><time>2024-05-26T02:01:42Z</time></trkpt><trkpt lat="12.966466" lon="80.218492"><ele>1.778</ele><time>2024-05-26T02:01:45Z</time></trkpt><trkpt lat="12.966490" lon="80.218322"><ele>1.641</ele><time>2024-05-26T02:01:51Z</time></trkpt><trkpt lat="12.966516" lon="80.218114"><ele>1.916</ele><time>2024-05-26T02:01:58Z</time></trkpt><trkpt lat="12.966532" lon="80.218103"><ele>2.047</ele><time>2024-05-26T02:01:59Z</time></trkpt><trkpt lat="12.966551" lon="80.218113"><ele>2.040</ele><time>2024-05-26T02:02:00Z</time></trkpt><trkpt lat="12.966567" lon="80.218198"><ele>1.985</ele><time>2024-05-26T02:02:03Z</time></trkpt><trkpt lat="12.966563" lon="80.218384"><ele>1.889</ele><time>2024-05-26T02:02:08Z</time></trkpt><trkpt lat="12.966559" lon="80.218517"><ele>2.017</ele><time>2024-05-26T02:02:12Z</time></trkpt><trkpt lat="12.966539" lon="80.218717"><ele>2.209</ele><time>2024-05-26T02:02:18Z</time></trkpt><trkpt lat="12.966523" lon="80.218845"><ele>2.319</ele><time>2024-05-26T02:02:22Z</time></trkpt><trkpt lat="12.966516" lon="80.219046"><ele>2.515</ele><time>2024-05-26T02:02:28Z</time></trkpt><trkpt lat="12.966507" lon="80.219135"><ele>2.670</ele><time>2024-05-26T02:02:31Z</time></trkpt><trkpt lat="12.966488" lon="80.219346"><ele>2.728</ele><time>2024-05-26T02:02:38Z</time></trkpt><trkpt lat="12.966476" lon="80.219553"><ele>2.838</ele><time>2024-05-26T02:02:44Z</time></trkpt><trkpt lat="12.966477" lon="80.219647"><ele>2.891</ele><time>2024-05-26T02:02:47Z</time></trkpt><trkpt lat="12.966470" lon="80.219839"><ele>2.976</ele><time>2024-05-26T02:02:53Z</time></trkpt><trkpt lat="12.966463" lon="80.219908"><ele>2.987</ele><time>2024-05-26T02:02:55Z</time></trkpt><trkpt lat="12.966443" lon="80.220101"><ele>3.040</ele><time>2024-05-26T02:03:01Z</time></trkpt><trkpt lat="12.966421" lon="80.220296"><ele>3.016</ele><time>2024-05-26T02:03:07Z</time></trkpt><trkpt lat="12.966399" lon="80.220503"><ele>3.076</ele><time>2024-05-26T02:03:13Z</time></trkpt><trkpt lat="12.966393" lon="80.220627"><ele>3.013</ele><time>2024-05-26T02:03:17Z</time></trkpt><trkpt lat="12.966384" lon="80.220830"><ele>3.009</ele><time>2024-05-26T02:03:23Z</time></trkpt><trkpt lat="12.966371" lon="80.220928"><ele>2.992</ele><time>2024-05-26T02:03:26Z</time></trkpt><trkpt lat="12.966320" lon="80.221070"><ele>2.718</ele><time>2024-05-26T02:03:31Z</time></trkpt><trkpt lat="12.966289" lon="80.221157"><ele>2.613</ele><time>2024-05-26T02:03:34Z</time></trkpt><trkpt lat="12.966224" lon="80.221270"><ele>2.581</ele><time>2024-05-26T02:03:39Z</time></trkpt><trkpt lat="12.966209" lon="80.221231"><ele>2.561</ele><time>2024-05-26T02:03:41Z</time></trkpt><trkpt lat="12.966214" lon="80.221202"><ele>2.694</ele><time>2024-05-26T02:03:42Z</time></trkpt><trkpt lat="12.966265" lon="80.220999"><ele>2.859</ele><time>2024-05-26T02:03:48Z</time></trkpt><trkpt lat="12.966278" lon="80.220965"><ele>2.870</ele><time>2024-05-26T02:03:49Z</time></trkpt><trkpt lat="12.966288" lon="80.220761"><ele>3.013</ele><time>2024-05-26T02:03:55Z</time></trkpt><trkpt lat="12.966253" lon="80.220551"><ele>3.029</ele><time>2024-05-26T02:04:01Z</time></trkpt><trkpt lat="12.966257" lon="80.220484"><ele>3.000</ele><time>2024-05-26T02:04:03Z</time></trkpt><trkpt lat="12.966252" lon="80.220291"><ele>3.020</ele><time>2024-05-26T02:04:09Z</time></trkpt><trkpt lat="12.966235" lon="80.220207"><ele>3.009</ele><time>2024-05-26T02:04:12Z</time></trkpt><trkpt lat="12.966217" lon="80.220192"><ele>3.053</ele><time>2024-05-26T02:04:13Z</time></trkpt><trkpt lat="12.966159" lon="80.220179"><ele>3.039</ele><time>2024-05-26T02:04:15Z</time></trkpt><trkpt lat="12.965974" lon="80.220143"><ele>3.054</ele><time>2024-05-26T02:04:21Z</time></trkpt><trkpt lat="12.965912" lon="80.220118"><ele>3.022</ele><time>2024-05-26T02:04:23Z</time></trkpt><trkpt lat="12.965724" lon="80.220053"><ele>2.922</ele><time>2024-05-26T02:04:29Z</time></trkpt><trkpt lat="12.965693" lon="80.220037"><ele>2.845</ele><time>2024-05-26T02:04:30Z</time></trkpt><trkpt lat="12.965508" lon="80.219952"><ele>2.590</ele><time>2024-05-26T02:04:36Z</time></trkpt><trkpt lat="12.965383" lon="80.219902"><ele>2.271</ele><time>2024-05-26T02:04:40Z</time></trkpt><trkpt lat="12.965319" lon="80.219880"><ele>2.144</ele><time>2024-05-26T02:04:42Z</time></trkpt><trkpt lat="12.965135" lon="80.219812"><ele>1.782</ele><time>2024-05-26T02:04:48Z</time></trkpt><trkpt lat="12.964990" lon="80.219747"><ele>1.443</ele><time>2024-05-26T02:04:53Z</time></trkpt><trkpt lat="12.964878" lon="80.219705"><ele>1.417</ele><time>2024-05-26T02:04:57Z</time></trkpt><trkpt lat="12.964855" lon="80.219700"><ele>1.509</ele><time>2024-05-26T02:04:58Z</time></trkpt></trkseg></trk></gpx>