{
  "type": "FeatureCollection",
  "features": [
    {
      "type": "Feature",
      "geometry": {
        "type": "LineString",
        "coordinates": [
          [
            80.219694,
            12.965041
          ],
          [
            80.2197,
            12.965054
          ],
          [
            80.219741,
            12.965158
          ],
          [
            80.219766,
            12.965207
          ],
          [
            80.219784,
            12.965253
          ],
          [
            80.219821,
            12.965327
          ],
          [
            80.219858,
            12.965406
          ],
          [
            80.219896,
            12.965509
          ],
          [
            80.219944,
            12.96561
          ],
          [
            80.219973,
            12.965684
          ],
          [
            80.220027,
            12.965817
          ],
          [
            80.220046,
            12.965868
          ],
          [
            80.220106,
            12.96604
          ],
          [
            80.220188,
            12.966224
          ],
          [
            80.2202,
            12.966239
          ],
          [
            80.220223,
            12.966247
          ],
          [
            80.220225,
            12.966225
          ],
          [
            80.220206,
            12.966126
          ],
          [
            80.220141,
            12.965933
          ],
          [
            80.220128,
            12.965901
          ],
          [
            80.220055,
            12.965706
          ],
          [
            80.220001,
            12.965509
          ],
          [
            80.219991,
            12.965485
          ],
          [
            80.219931,
            12.965321
          ],
          [
            80.2199,
            12.965237
          ],
          [
            80.219863,
            12.965135
          ],
          [
            80.219845,
            12.965084
          ],
          [
            80.219802,
            12.964933
          ],
          [
            80.219721,
            12.964749
          ],
          [
            80.219711,
            12.964721
          ],
          [
            80.219666,
            12.964614
          ],
          [
            80.219636,
            12.964563
          ],
          [
            80.219549,
            12.964393
          ],
          [
            80.219527,
            12.964371
          ],
          [
            80.219405,
            12.964337
          ],
          [
            80.21928,
            12.964378
          ],
          [
            80.21919,
            12.964402
          ],
          [
            80.219014,
            12.964457
          ],
          [
            80.218956,
            12.964477
          ],
          [
            80.218767,
            12.964524
          ],
          [
            80.218594,
            12.964593
          ],
          [
            80.218509,
            12.96463
          ],
          [
            80.21834,
            12.964704
          ],
          [
            80.218151,
            12.964791
          ],
          [
            80.218124,
            12.964803
          ],
          [
            80.217949,
            12.964865
          ],
          [
            80.21792,
            12.964874
          ],
          [
            80.217784,
            12.964915
          ],
          [
            80.217694,
            12.964866
          ],
          [
            80.217621,
            12.964708
          ],
          [
            80.217559,
            12.964517
          ],
          [
            80.217545,
            12.964462
          ],
          [
            80.217494,
            12.96435
          ],
          [
            80.217414,
            12.964161
          ],
          [
            80.217389,
            12.964081
          ],
          [
            80.217351,
            12.963939
          ],
          [
            80.217322,
            12.96386
          ],
          [
            80.21726,
            12.963789
          ],
          [
            80.2172,
            12.963772
          ],
          [
            80.217048,
            12.963812
          ],
          [
            80.216849,
            12.96387
          ],
          [
            80.216787,
            12.963893
          ],
          [
            80.2166,
            12.963967
          ],
          [
            80.216563,
            12.96398
          ],
          [
            80.21657,
            12.963981
          ],
          [
            80.21659,
            12.963978
          ],
          [
            80.216783,
            12.963906
          ],
          [
            80.21681,
            12.963897
          ],
          [
            80.216993,
            12.963845
          ],
          [
            80.217078,
            12.963827
          ],
          [
            80.217261,
            12.963847
          ],
          [
            80.217285,
            12.963861
          ],
          [
            80.217305,
            12.963882
          ],
          [
            80.217318,
            12.963945
          ],
          [
            80.217313,
            12.964008
          ],
          [
            80.217354,
            12.964154
          ],
          [
            80.217365,
            12.964179
          ],
          [
            80.217422,
            12.964362
          ],
          [
            80.217431,
            12.964393
          ],
          [
            80.21748,
            12.964591
          ],
          [
            80.217534,
            12.964794
          ],
          [
            80.217557,
            12.964855
          ],
          [
            80.21761,
            12.964964
          ],
          [
            80.217678,
            12.965032
          ],
          [
            80.217802,
            12.965047
          ],
          [
            80.217802,
            12.965047
          ],
          [
            80.217996,
            12.964979
          ],
          [
            80.218078,
            12.964946
          ],
          [
            80.218257,
            12.964879
          ],
          [
            80.218368,
            12.96484
          ],
          [
            80.218544,
            12.964767
          ],
          [
            80.218629,
            12.964733
          ],
          [
            80.218819,
            12.964651
          ],
          [
            80.218907,
            12.964614
          ],
          [
            80.219078,
            12.964541
          ],
          [
            80.21914,
            12.96452
          ],
          [
            80.219345,
            12.964468
          ],
          [
            80.219345,
            12.964468
          ],
          [
            80.219477,
            12.964533
          ],
          [
            80.219543,
            12.964696
          ],
          [
            80.219562,
            12.964752
          ],
          [
            80.219624,
            12.964901
          ],
          [
            80.219645,
            12.96496
          ],
          [
            80.219705,
            12.965113
          ],
          [
            80.219741,
            12.965234
          ],
          [
            80.219769,
            12.965283
          ],
          [
            80.219852,
            12.965455
          ],
          [
            80.21986,
            12.965477
          ],
          [
            80.219937,
            12.965655
          ],
          [
            80.219949,
            12.965684
          ],
          [
            80.220014,
            12.965868
          ],
          [
            80.220024,
            12.965889
          ],
          [
            80.220051,
            12.965946
          ],
          [
            80.220124,
            12.96612
          ],
          [
            80.220193,
            12.96627
          ],
          [
            80.220174,
            12.966334
          ],
          [
            80.220154,
            12.96635
          ],
          [
            80.220095,
            12.966368
          ],
          [
            80.220031,
            12.966367
          ],
          [
            80.219836,
            12.966378
          ],
          [
            80.219677,
            12.966381
          ],
          [
            80.219464,
            12.966383
          ],
          [
            80.21935,
            12.966394
          ],
          [
            80.219153,
            12.966407
          ],
          [
            80.219087,
            12.966412
          ],
          [
            80.218903,
            12.966435
          ],
          [
            80.21882,
            12.96645
          ],
          [
            80.218631,
            12.966466
          ],
          [
            80.218546,
            12.966468
          ],
          [
            80.21835,
            12.966474
          ],
          [
            80.218219,
            12.966477
          ],
          [
            80.218015,
            12.966481
          ],
          [
            80.217975,
            12.966505
          ],
          [
            80.218007,
            12.96654
          ],
          [
            80.218162,
            12.966547
          ],
          [
            80.218357,
            12.966539
          ],
          [
            80.218388,
            12.966537
          ],
          [
            80.218587,
            12.966534
          ],
          [
            80.218708,
            12.966535
          ],
          [
            80.2189,
            12.966517
          ],
          [
            80.219017,
            12.966491
          ],
          [
            80.219198,
            12.96647
          ],
          [
            80.219228,
            12.966469
          ],
          [
            80.219413,
            12.966461
          ],
          [
            80.21948,
            12.966453
          ],
          [
            80.219668,
            12.966453
          ],
          [
            80.219737,
            12.966451
          ],
          [
            80.219933,
            12.966431
          ],
          [
            80.219989,
            12.966424
          ],
          [
            80.220189,
            12.96641
          ],
          [
            80.220252,
            12.966405
          ],
          [
            80.220443,
            12.966385
          ],
          [
            80.220541,
            12.96638
          ],
          [
            80.220734,
            12.966358
          ],
          [
            80.220837,
            12.966355
          ],
          [
            80.220929,
            12.966338
          ],
          [
            80.221046,
            12.96629
          ],
          [
            80.221219,
            12.96624
          ],
          [
            80.221259,
            12.966207
          ],
          [
            80.221192,
            12.966162
          ],
          [
            80.221167,
            12.966163
          ],
          [
            80.221005,
            12.966213
          ],
          [
            80.220816,
            12.966271
          ],
          [
            80.220634,
            12.966228
          ],
          [
            80.2206,
            12.966226
          ],
          [
            80.220407,
            12.966231
          ],
          [
            80.220318,
            12.966228
          ],
          [
            80.220199,
            12.96616
          ],
          [
            80.220191,
            12.966012
          ],
          [
            80.220119,
            12.965812
          ],
          [
            80.220108,
            12.965783
          ],
          [
            80.220031,
            12.965586
          ],
          [
            80.219984,
            12.965473
          ],
          [
            80.219921,
            12.965295
          ],
          [
            80.219868,
            12.965155
          ],
          [
            80.219798,
            12.964974
          ],
          [
            80.219744,
            12.964834
          ],
          [
            80.219712,
            12.964779
          ],
          [
            80.219634,
            12.96461
          ],
          [
            80.219609,
            12.964553
          ],
          [
            80.219542,
            12.964383
          ],
          [
            80.219494,
            12.964344
          ],
          [
            80.219366,
            12.964337
          ],
          [
            80.219185,
            12.964394
          ],
          [
            80.218997,
            12.964455
          ],
          [
            80.218877,
            12.964501
          ],
          [
            80.218702,
            12.964577
          ],
          [
            80.218611,
            12.964615
          ],
          [
            80.218466,
            12.964671
          ],
          [
            80.218311,
            12.964726
          ],
          [
            80.218127,
            12.96479
          ],
          [
            80.217928,
            12.964873
          ],
          [
            80.217905,
            12.964883
          ],
          [
            80.217758,
            12.964915
          ],
          [
            80.217714,
            12.964891
          ],
          [
            80.217623,
            12.964736
          ],
          [
            80.217572,
            12.964555
          ],
          [
            80.217555,
            12.964493
          ],
          [
            80.2175,
            12.96431
          ],
          [
            80.21749,
            12.964281
          ],
          [
            80.217409,
            12.964102
          ],
          [
            80.217359,
            12.963915
          ],
          [
            80.217337,
            12.963852
          ],
          [
            80.217254,
            12.963769
          ],
          [
            80.217221,
            12.963764
          ],
          [
            80.217074,
            12.963802
          ],
          [
            80.21689,
            12.963856
          ],
          [
            80.216697,
            12.963932
          ],
          [
            80.216636,
            12.963949
          ],
          [
            80.216554,
            12.963978
          ],
          [
            80.216566,
            12.963997
          ],
          [
            80.216676,
            12.963962
          ],
          [
            80.216857,
            12.963895
          ],
          [
            80.216948,
            12.963858
          ],
          [
            80.217139,
            12.96382
          ],
          [
            80.217168,
            12.963818
          ],
          [
            80.217289,
            12.963873
          ],
          [
            80.217344,
            12.963977
          ],
          [
            80.217373,
            12.964155
          ],
          [
            80.217381,
            12.964184
          ],
          [
            80.217432,
            12.964379
          ],
          [
            80.217465,
            12.9645
          ],
          [
            80.217529,
            12.964676
          ],
          [
            80.217555,
            12.964731
          ],
          [
            80.217591,
            12.964842
          ],
          [
            80.21763,
            12.96495
          ],
          [
            80.217747,
            12.965045
          ],
          [
            80.217883,
            12.96503
          ],
          [
            80.218066,
            12.964956
          ],
          [
            80.21813,
            12.964936
          ],
          [
            80.218319,
            12.964867
          ],
          [
            80.218461,
            12.964807
          ],
          [
            80.21866,
            12.964736
          ],
          [
            80.218844,
            12.96466
          ],
          [
            80.218897,
            12.964637
          ],
          [
            80.219074,
            12.964565
          ],
          [
            80.219252,
            12.964504
          ],
          [
            80.219438,
            12.96449
          ],
          [
            80.219466,
            12.964502
          ],
          [
            80.21955,
            12.964618
          ],
          [
            80.219615,
            12.964789
          ],
          [
            80.219642,
            12.964872
          ],
          [
            80.219708,
            12.965049
          ],
          [
            80.219777,
            12.965225
          ],
          [
            80.219789,
            12.965257
          ],
          [
            80.21986,
            12.965434
          ],
          [
            80.219887,
            12.965492
          ],
          [
            80.219961,
            12.96567
          ],
          [
            80.220017,
            12.965821
          ],
          [
            80.220086,
            12.965996
          ],
          [
            80.220098,
            12.966024
          ],
          [
            80.220167,
            12.966222
          ],
          [
            80.220175,
            12.966249
          ],
          [
            80.22017,
            12.96633
          ],
          [
            80.220153,
            12.966351
          ],
          [
            80.220032,
            12.966378
          ],
          [
            80.219846,
            12.966382
          ],
          [
            80.219786,
            12.966385
          ],
          [
            80.2196,
            12.966394
          ],
          [
            80.21948,
            12.96641
          ],
          [
            80.219295,
            12.966423
          ],
          [
            80.219179,
            12.96643
          ],
          [
            80.218981,
            12.96644
          ],
          [
            80.218951,
            12.966442
          ],
          [
            80.218751,
            12.966455
          ],
          [
            80.218687,
            12.966464
          ],
          [
            80.218502,
            12.96648
          ],
          [
            80.21847,
            12.966481
          ],
          [
            80.21827,
            12.966488
          ],
          [
            80.218139,
            12.966498
          ],
          [
            80.218003,
            12.966502
          ],
          [
            80.217997,
            12.96652
          ],
          [
            80.218061,
            12.966556
          ],
          [
            80.218201,
            12.966549
          ],
          [
            80.218334,
            12.966546
          ],
          [
            80.218525,
            12.966547
          ],
          [
            80.218625,
            12.96654
          ],
          [
            80.218824,
            12.96653
          ],
          [
            80.218949,
            12.966527
          ],
          [
            80.219155,
            12.966502
          ],
          [
            80.21936,
            12.966481
          ],
          [
            80.21946,
            12.966472
          ],
          [
            80.219663,
            12.966464
          ],
          [
            80.219697,
            12.96646
          ],
          [
            80.219897,
            12.966451
          ],
          [
            80.22003,
            12.966441
          ],
          [
            80.220219,
            12.96642
          ],
          [
            80.220279,
            12.966414
          ],
          [
            80.220478,
            12.966386
          ],
          [
            80.220547,
            12.966386
          ],
          [
            80.220739,
            12.966377
          ],
          [
            80.22084,
            12.966372
          ],
          [
            80.220873,
            12.966368
          ],
          [
            80.22106,
            12.966305
          ],
          [
            80.221247,
            12.966246
          ],
          [
            80.221252,
            12.966221
          ],
          [
            80.221246,
            12.966198
          ],
          [
            80.221229,
            12.966187
          ],
          [
            80.221178,
            12.966192
          ],
          [
            80.220982,
            12.966258
          ],
          [
            80.220912,
            12.966277
          ],
          [
            80.220733,
            12.966278
          ],
          [
            80.220702,
            12.96627
          ],
          [
            80.220511,
            12.96626
          ],
          [
            80.22042,
            12.966257
          ],
          [
            80.220237,
            12.966238
          ],
          [
            80.220217,
            12.966226
          ],
          [
            80.220197,
            12.966186
          ],
          [
            80.220196,
            12.966154
          ],
          [
            80.220155,
            12.965972
          ],
          [
            80.220142,
            12.965946
          ],
          [
            80.220074,
            12.965776
          ],
          [
            80.220042,
            12.965658
          ],
          [
            80.219965,
            12.965469
          ],
          [
            80.219943,
            12.965411
          ],
          [
            80.21988,
            12.965229
          ],
          [
            80.219856,
            12.965166
          ],
          [
            80.219786,
            12.964965
          ],
          [
            80.219752,
            12.964913
          ],
          [
            80.219691,
            12.964737
          ],
          [
            80.21968,
            12.964708
          ],
          [
            80.219612,
            12.964523
          ],
          [
            80.219565,
            12.964437
          ],
          [
            80.219437,
            12.96435
          ],
          [
            80.219266,
            12.96438
          ],
          [
            80.219074,
            12.964457
          ],
          [
            80.219043,
            12.964468
          ],
          [
            80.218838,
            12.964532
          ],
          [
            80.218649,
            12.964594
          ],
          [
            80.218562,
            12.96463
          ],
          [
            80.218375,
            12.964702
          ],
          [
            80.218254,
            12.964758
          ],
          [
            80.218069,
            12.964841
          ],
          [
            80.217974,
            12.964875
          ],
          [
            80.217796,
            12.964935
          ],
          [
            80.217744,
            12.964925
          ],
          [
            80.217718,
            12.964902
          ],
          [
            80.217675,
            12.964823
          ],
          [
            80.217602,
            12.964642
          ],
          [
            80.217561,
            12.964555
          ],
          [
            80.217498,
            12.964375
          ],
          [
            80.21749,
            12.964342
          ],
          [
            80.217436,
            12.964172
          ],
          [
            80.217381,
            12.963994
          ],
          [
            80.217374,
            12.963959
          ],
          [
            80.217284,
            12.963786
          ],
          [
            80.21715,
            12.963789
          ],
          [
            80.21698,
            12.963858
          ],
          [
            80.21679,
            12.963902
          ],
          [
            80.216738,
            12.963922
          ],
          [
            80.216564,
            12.963977
          ],
          [
            80.21663,
            12.96398
          ],
          [
            80.216817,
            12.963952
          ],
          [
            80.216886,
            12.963937
          ],
          [
            80.217084,
            12.963879
          ],
          [
            80.217113,
            12.963872
          ],
          [
            80.217277,
            12.963889
          ],
          [
            80.217324,
            12.96396
          ],
          [
            80.217326,
            12.963991
          ],
          [
            80.217354,
            12.964169
          ],
          [
            80.217365,
            12.964199
          ],
          [
            80.21741,
            12.964381
          ],
          [
            80.217436,
            12.964467
          ],
          [
            80.217494,
            12.964657
          ],
          [
            80.217517,
            12.964719
          ],
          [
            80.217562,
            12.964841
          ],
          [
            80.21761,
            12.964949
          ],
          [
            80.217746,
            12.965051
          ],
          [
            80.217778,
            12.965045
          ],
          [
            80.217842,
            12.965015
          ],
          [
            80.218023,
            12.964978
          ],
          [
            80.218086,
            12.964958
          ],
          [
            80.218276,
            12.964889
          ],
          [
            80.218337,
            12.964864
          ],
          [
            80.218397,
            12.964838
          ],
          [
            80.218425,
            12.964825
          ],
          [
            80.218593,
            12.964755
          ],
          [
            80.218769,
            12.964686
          ],
          [
            80.218938,
            12.964627
          ],
          [
            80.219119,
            12.964556
          ],
          [
            80.219202,
            12.964535
          ],
          [
            80.219383,
            12.964486
          ],
          [
            80.219444,
            12.96449
          ],
          [
            80.219522,
            12.964569
          ],
          [
            80.219596,
            12.964763
          ],
          [
            80.219617,
            12.964819
          ],
          [
            80.219674,
            12.965008
          ],
          [
            80.219712,
            12.965097
          ],
          [
            80.219781,
            12.96528
          ],
          [
            80.219816,
            12.965371
          ],
          [
            80.219858,
            12.965455
          ],
          [
            80.219902,
            12.965542
          ],
          [
            80.219934,
            12.965631
          ],
          [
            80.220007,
            12.965806
          ],
          [
            80.220017,
            12.965835
          ],
          [
            80.22008,
            12.966014
          ],
          [
            80.220093,
            12.966042
          ],
          [
            80.22017,
            12.96621
          ],
          [
            80.22018,
            12.966238
          ],
          [
            80.220174,
            12.966322
          ],
          [
            80.220153,
            12.966341
          ],
          [
            80.22002,
            12.966369
          ],
          [
            80.219819,
            12.966364
          ],
          [
            80.219632,
            12.966375
          ],
          [
            80.219478,
            12.966374
          ],
          [
            80.219266,
            12.96639
          ],
          [
            80.219082,
            12.966406
          ],
          [
            80.219048,
            12.966407
          ],
          [
            80.218862,
            12.966427
          ],
          [
            80.21879,
            12.966434
          ],
          [
            80.218582,
            12.966461
          ],
          [
            80.218492,
            12.966466
          ],
          [
            80.218322,
            12.96649
          ],
          [
            80.218114,
            12.966516
          ],
          [
            80.218103,
            12.966532
          ],
          [
            80.218113,
            12.966551
          ],
          [
            80.218198,
            12.966567
          ],
          [
            80.218384,
            12.966563
          ],
          [
            80.218517,
            12.966559
          ],
          [
            80.218717,
            12.966539
          ],
          [
            80.218845,
            12.966523
          ],
          [
            80.219046,
            12.966516
          ],
          [
            80.219135,
            12.966507
          ],
          [
            80.219346,
            12.966488
          ],
          [
            80.219553,
            12.966476
          ],
          [
            80.219647,
            12.966477
          ],
          [
            80.219839,
            12.96647
          ],
          [
            80.219908,
            12.966463
          ],
          [
            80.220101,
            12.966443
          ],
          [
            80.220296,
            12.966421
          ],
          [
            80.220503,
            12.966399
          ],
          [
            80.220627,
            12.966393
          ],
          [
            80.22083,
            12.966384
          ],
          [
            80.220928,
            12.966371
          ],
          [
            80.22107,
            12.96632
          ],
          [
            80.221157,
            12.966289
          ],
          [
            80.22127,
            12.966224
          ],
          [
            80.221231,
            12.966209
          ],
          [
            80.221202,
            12.966214
          ],
          [
            80.220999,
            12.966265
          ],
          [
            80.220965,
            12.966278
          ],
          [
            80.220761,
            12.966288
          ],
          [
            80.220551,
            12.966253
          ],
          [
            80.220484,
            12.966257
          ],
          [
            80.220291,
            12.966252
          ],
          [
            80.220207,
            12.966235
          ],
          [
            80.220192,
            12.966217
          ],
          [
            80.220179,
            12.966159
          ],
          [
            80.220143,
            12.965974
          ],
          [
            80.220118,
            12.965912
          ],
          [
            80.220053,
            12.965724
          ],
          [
            80.220037,
            12.965693
          ],
          [
            80.219952,
            12.965508
          ],
          [
            80.219902,
            12.965383
          ],
          [
            80.21988,
            12.965319
          ],
          [
            80.219812,
            12.965135
          ],
          [
            80.219747,
            12.96499
          ],
          [
            80.219705,
            12.964878
          ],
          [
            80.2197,
            12.964855
          ]
        ]
      },
      "properties": {
        "name": "Track"
      }
    }
  ]
}