<?xml version="1.0" encoding="UTF-8"?>
<gpx creator="Wikiloc - https://www.wikiloc.com" version="1.1" xmlns="http://www.topografix.com/GPX/1/1" xmlns:xsi="http://www.w3.org/2001/XMLSchema-instance" xsi:schemaLocation="http://www.topografix.com/GPX/1/1 http://www.topografix.com/GPX/1/1/gpx.xsd">
  <metadata>
    <name>Wikiloc - Voltes per Chennai - IITM - lighthouse</name>
    <link href="https://www.wikiloc.com/walking-trails/voltes-per-chennai-iitm-lighthouse-195050245">
      <text>Voltes per Chennai - IITM - lighthouse - Wikiloc on Wikiloc</text>
    </link>
    <time>2024-12-16T15:56:04.403Z</time>
  </metadata>
  <trk>
    <name>Voltes per Chennai - IITM - lighthouse - Wikiloc</name>
    <cmt></cmt>
    <desc></desc>
    <trkseg>
      <trkpt lat="12.994749" lon="80.233712">
        <ele>14.529</ele>
        <time>2024-12-16T03:06:34.288Z</time>
      </trkpt>
      <trkpt lat="12.994652" lon="80.233499">
        <ele>14.800</ele>
        <time>2024-12-16T03:07:19.186Z</time>
      </trkpt>
      <trkpt lat="12.993673" lon="80.233411">
        <ele>13.920</ele>
        <time>2024-12-16T03:08:40.198Z</time>
      </trkpt>
      <trkpt lat="12.993065" lon="80.235796">
        <ele>13.109</ele>
        <time>2024-12-16T03:11:58.191Z</time>
      </trkpt>
      <trkpt lat="12.992685" lon="80.236184">
        <ele>10.823</ele>
        <time>2024-12-16T03:13:26.192Z</time>
      </trkpt>
      <trkpt lat="12.991634" lon="80.235811">
        <ele>11.131</ele>
        <time>2024-12-16T03:15:02.212Z</time>
      </trkpt>
      <trkpt lat="12.991213" lon="80.236060">
        <ele>11.127</ele>
        <time>2024-12-16T03:15:37.193Z</time>
      </trkpt>
      <trkpt lat="12.990853" lon="80.235904">
        <ele>11.852</ele>
        <time>2024-12-16T03:16:06.191Z</time>
      </trkpt>
      <trkpt lat="12.989750" lon="80.235869">
        <ele>11.677</ele>
        <time>2024-12-16T03:17:31.198Z</time>
      </trkpt>
      <trkpt lat="12.989477" lon="80.237068">
        <ele>9.012</ele>
        <time>2024-12-16T03:19:19.199Z</time>
      </trkpt>
      <trkpt lat="12.988995" lon="80.237241">
        <ele>9.384</ele>
        <time>2024-12-16T03:20:18.204Z</time>
      </trkpt>
      <trkpt lat="12.987948" lon="80.237185">
        <ele>11.146</ele>
        <time>2024-12-16T03:22:27.198Z</time>
      </trkpt>
      <trkpt lat="12.987630" lon="80.235624">
        <ele>12.027</ele>
        <time>2024-12-16T03:24:27.258Z</time>
      </trkpt>
      <trkpt lat="12.986950" lon="80.235843">
        <ele>13.336</ele>
        <time>2024-12-16T03:25:29.187Z</time>
      </trkpt>
      <trkpt lat="12.986760" lon="80.236102">
        <ele>13.517</ele>
        <time>2024-12-16T03:46:29.195Z</time>
      </trkpt>
      <trkpt lat="12.986817" lon="80.235858">
        <ele>13.618</ele>
        <time>2024-12-16T03:46:52.192Z</time>
      </trkpt>
      <trkpt lat="12.986595" lon="80.235650">
        <ele>13.909</ele>
        <time>2024-12-16T03:47:24.187Z</time>
      </trkpt>
      <trkpt lat="12.986507" lon="80.235168">
        <ele>13.844</ele>
        <time>2024-12-16T03:48:04.195Z</time>
      </trkpt>
      <trkpt lat="12.986140" lon="80.234630">
        <ele>13.872</ele>
        <time>2024-12-16T03:49:24.196Z</time>
      </trkpt>
      <trkpt lat="12.986057" lon="80.233833">
        <ele>14.788</ele>
        <time>2024-12-16T03:50:21.189Z</time>
      </trkpt>
      <trkpt lat="12.986218" lon="80.233283">
        <ele>15.413</ele>
        <time>2024-12-16T03:51:05.189Z</time>
      </trkpt>
      <trkpt lat="12.987388" lon="80.233222">
        <ele>14.278</ele>
        <time>2024-12-16T03:52:25.194Z</time>
      </trkpt>
      <trkpt lat="12.988209" lon="80.232847">
        <ele>14.523</ele>
        <time>2024-12-16T03:53:25.192Z</time>
      </trkpt>
      <trkpt lat="12.989139" lon="80.232841">
        <ele>13.115</ele>
        <time>2024-12-16T03:54:34.211Z</time>
      </trkpt>
      <trkpt lat="12.990900" lon="80.233453">
        <ele>12.057</ele>
        <time>2024-12-16T03:55:59.194Z</time>
      </trkpt>
      <trkpt lat="12.993217" lon="80.233920">
        <ele>14.238</ele>
        <time>2024-12-16T03:57:38.192Z</time>
      </trkpt>
      <trkpt lat="12.993666" lon="80.233447">
        <ele>13.943</ele>
        <time>2024-12-16T03:58:17.193Z</time>
      </trkpt>
      <trkpt lat="12.994648" lon="80.233523">
        <ele>14.864</ele>
        <time>2024-12-16T03:58:57.193Z</time>
      </trkpt>
      <trkpt lat="12.995553" lon="80.235350">
        <ele>14.910</ele>
        <time>2024-12-16T05:41:54.187Z</time>
      </trkpt>
      <trkpt lat="12.996170" lon="80.235965">
        <ele>14.509</ele>
        <time>2024-12-16T05:42:16.188Z</time>
      </trkpt>
      <trkpt lat="12.997020" lon="80.237563">
        <ele>14.045</ele>
        <time>2024-12-16T05:43:02.182Z</time>
      </trkpt>
      <trkpt lat="12.997963" lon="80.238645">
        <ele>14.293</ele>
        <time>2024-12-16T05:43:30.228Z</time>
      </trkpt>
      <trkpt lat="12.998876" lon="80.239140">
        <ele>15.079</ele>
        <time>2024-12-16T05:44:00.205Z</time>
      </trkpt>
      <trkpt lat="12.998743" lon="80.239464">
        <ele>14.644</ele>
        <time>2024-12-16T05:44:09.184Z</time>
      </trkpt>
      <trkpt lat="12.997741" lon="80.240090">
        <ele>13.839</ele>
        <time>2024-12-16T05:44:42.188Z</time>
      </trkpt>
      <trkpt lat="12.997248" lon="80.239843">
        <ele>13.754</ele>
        <time>2024-12-16T05:44:56.184Z</time>
      </trkpt>
      <trkpt lat="12.995606" lon="80.237578">
        <ele>13.996</ele>
        <time>2024-12-16T05:45:59.187Z</time>
      </trkpt>
      <trkpt lat="12.994268" lon="80.236824">
        <ele>14.598</ele>
        <time>2024-12-16T05:46:32.186Z</time>
      </trkpt>
      <trkpt lat="12.993807" lon="80.236173">
        <ele>14.219</ele>
        <time>2024-12-16T05:46:50.187Z</time>
      </trkpt>
      <trkpt lat="12.992774" lon="80.235559">
        <ele>12.544</ele>
        <time>2024-12-16T05:47:21.187Z</time>
      </trkpt>
      <trkpt lat="12.991313" lon="80.233772">
        <ele>12.005</ele>
        <time>2024-12-16T05:48:11.184Z</time>
      </trkpt>
      <trkpt lat="12.989297" lon="80.233008">
        <ele>12.915</ele>
        <time>2024-12-16T05:49:02.185Z</time>
      </trkpt>
      <trkpt lat="12.988264" lon="80.233057">
        <ele>14.309</ele>
        <time>2024-12-16T05:49:30.212Z</time>
      </trkpt>
      <trkpt lat="12.987407" lon="80.233358">
        <ele>14.245</ele>
        <time>2024-12-16T05:49:53.187Z</time>
      </trkpt>
      <trkpt lat="12.986323" lon="80.233396">
        <ele>15.513</ele>
        <time>2024-12-16T05:50:24.243Z</time>
      </trkpt>
      <trkpt lat="12.986179" lon="80.233670">
        <ele>15.039</ele>
        <time>2024-12-16T05:50:32.185Z</time>
      </trkpt>
      <trkpt lat="12.986193" lon="80.234283">
        <ele>14.354</ele>
        <time>2024-12-16T05:50:48.188Z</time>
      </trkpt>
      <trkpt lat="12.986613" lon="80.236099">
        <ele>13.689</ele>
        <time>2024-12-16T05:51:30.189Z</time>
      </trkpt>
      <trkpt lat="12.985364" lon="80.236166">
        <ele>11.684</ele>
        <time>2024-12-16T05:52:10.190Z</time>
      </trkpt>
      <trkpt lat="12.985161" lon="80.237141">
        <ele>11.056</ele>
        <time>2024-12-16T05:52:48.184Z</time>
      </trkpt>
      <trkpt lat="12.985239" lon="80.237846">
        <ele>10.788</ele>
        <time>2024-12-16T05:53:06.190Z</time>
      </trkpt>
      <trkpt lat="12.986545" lon="80.237975">
        <ele>11.929</ele>
        <time>2024-12-16T05:53:47.186Z</time>
      </trkpt>
      <trkpt lat="12.986577" lon="80.235724">
        <ele>13.976</ele>
        <time>2024-12-16T05:54:41.186Z</time>
      </trkpt>
      <trkpt lat="12.986184" lon="80.234685">
        <ele>13.890</ele>
        <time>2024-12-16T05:55:07.180Z</time>
      </trkpt>
      <trkpt lat="12.986144" lon="80.233537">
        <ele>15.119</ele>
        <time>2024-12-16T05:55:36.191Z</time>
      </trkpt>
      <trkpt lat="12.986335" lon="80.233343">
        <ele>15.609</ele>
        <time>2024-12-16T05:55:42.190Z</time>
      </trkpt>
      <trkpt lat="12.987312" lon="80.233277">
        <ele>14.458</ele>
        <time>2024-12-16T05:56:09.186Z</time>
      </trkpt>
      <trkpt lat="12.987888" lon="80.230879">
        <ele>12.956</ele>
        <time>2024-12-16T05:57:10.186Z</time>
      </trkpt>
      <trkpt lat="12.988216" lon="80.230056">
        <ele>13.022</ele>
        <time>2024-12-16T05:57:30.207Z</time>
      </trkpt>
      <trkpt lat="12.988498" lon="80.229733">
        <ele>13.617</ele>
        <time>2024-12-16T05:57:40.187Z</time>
      </trkpt>
      <trkpt lat="12.988906" lon="80.228583">
        <ele>13.362</ele>
        <time>2024-12-16T05:58:08.183Z</time>
      </trkpt>
      <trkpt lat="12.989280" lon="80.228174">
        <ele>13.227</ele>
        <time>2024-12-16T05:58:20.186Z</time>
      </trkpt>
      <trkpt lat="12.990186" lon="80.227588">
        <ele>16.219</ele>
        <time>2024-12-16T05:58:49.183Z</time>
      </trkpt>
      <trkpt lat="12.990067" lon="80.225905">
        <ele>13.481</ele>
        <time>2024-12-16T05:59:30.207Z</time>
      </trkpt>
      <trkpt lat="12.989641" lon="80.225186">
        <ele>12.412</ele>
        <time>2024-12-16T05:59:48.190Z</time>
      </trkpt>
      <trkpt lat="12.989478" lon="80.223876">
        <ele>13.065</ele>
        <time>2024-12-16T06:00:19.185Z</time>
      </trkpt>
      <trkpt lat="12.989160" lon="80.223448">
        <ele>12.168</ele>
        <time>2024-12-16T06:00:30.210Z</time>
      </trkpt>
      <trkpt lat="12.988226" lon="80.223257">
        <ele>11.114</ele>
        <time>2024-12-16T06:00:58.186Z</time>
      </trkpt>
      <trkpt lat="12.988174" lon="80.223371">
        <ele>11.009</ele>
        <time>2024-12-16T06:02:01.186Z</time>
      </trkpt>
      <trkpt lat="12.987716" lon="80.223115">
        <ele>11.147</ele>
        <time>2024-12-16T06:02:58.185Z</time>
      </trkpt>
      <trkpt lat="12.986426" lon="80.222967">
        <ele>10.275</ele>
        <time>2024-12-16T06:04:43.187Z</time>
      </trkpt>
      <trkpt lat="12.985849" lon="80.222995">
        <ele>10.651</ele>
        <time>2024-12-16T06:05:23.183Z</time>
      </trkpt>
      <trkpt lat="12.985246" lon="80.223311">
        <ele>11.086</ele>
        <time>2024-12-16T06:06:35.187Z</time>
      </trkpt>
      <trkpt lat="12.982647" lon="80.221875">
        <ele>9.461</ele>
        <time>2024-12-16T06:10:41.188Z</time>
      </trkpt>
      <trkpt lat="12.982478" lon="80.222446">
        <ele>9.916</ele>
        <time>2024-12-16T06:11:22.192Z</time>
      </trkpt>
      <trkpt lat="12.982572" lon="80.223983">
        <ele>10.378</ele>
        <time>2024-12-16T06:20:07.183Z</time>
      </trkpt>
      <trkpt lat="12.982593" lon="80.222599">
        <ele>10.110</ele>
        <time>2024-12-16T06:51:50.179Z</time>
      </trkpt>
      <trkpt lat="12.983116" lon="80.222089">
        <ele>9.931</ele>
        <time>2024-12-16T06:59:46.181Z</time>
      </trkpt>
      <trkpt lat="12.985412" lon="80.223393">
        <ele>11.017</ele>
        <time>2024-12-16T07:03:28.182Z</time>
      </trkpt>
      <trkpt lat="12.985767" lon="80.223000">
        <ele>10.687</ele>
        <time>2024-12-16T07:04:03.180Z</time>
      </trkpt>
      <trkpt lat="12.986815" lon="80.222964">
        <ele>10.215</ele>
        <time>2024-12-16T07:05:29.178Z</time>
      </trkpt>
      <trkpt lat="12.989310" lon="80.223451">
        <ele>12.309</ele>
        <time>2024-12-16T07:10:10.180Z</time>
      </trkpt>
      <trkpt lat="12.989531" lon="80.223755">
        <ele>12.932</ele>
        <time>2024-12-16T07:10:22.180Z</time>
      </trkpt>
      <trkpt lat="12.989701" lon="80.224696">
        <ele>13.070</ele>
        <time>2024-12-16T07:10:49.179Z</time>
      </trkpt>
      <trkpt lat="12.989608" lon="80.225227">
        <ele>12.316</ele>
        <time>2024-12-16T07:10:57.182Z</time>
      </trkpt>
      <trkpt lat="12.990091" lon="80.225788">
        <ele>13.391</ele>
        <time>2024-12-16T07:11:16.178Z</time>
      </trkpt>
      <trkpt lat="12.990147" lon="80.226975">
        <ele>15.546</ele>
        <time>2024-12-16T07:11:48.189Z</time>
      </trkpt>
      <trkpt lat="12.990011" lon="80.227167">
        <ele>15.621</ele>
        <time>2024-12-16T07:11:54.179Z</time>
      </trkpt>
      <trkpt lat="12.990777" lon="80.229804">
        <ele>16.983</ele>
        <time>2024-12-16T07:13:02.179Z</time>
      </trkpt>
      <trkpt lat="12.992287" lon="80.230107">
        <ele>15.075</ele>
        <time>2024-12-16T07:14:05.171Z</time>
      </trkpt>
      <trkpt lat="12.992638" lon="80.231073">
        <ele>15.016</ele>
        <time>2024-12-16T07:15:08.171Z</time>
      </trkpt>
      <trkpt lat="12.992254" lon="80.231466">
        <ele>15.385</ele>
        <time>2024-12-16T07:15:24.239Z</time>
      </trkpt>
      <trkpt lat="12.992786" lon="80.231969">
        <ele>14.689</ele>
        <time>2024-12-16T07:15:44.178Z</time>
      </trkpt>
      <trkpt lat="12.993635" lon="80.232303">
        <ele>14.817</ele>
        <time>2024-12-16T07:16:09.178Z</time>
      </trkpt>
      <trkpt lat="12.993522" lon="80.233107">
        <ele>13.709</ele>
        <time>2024-12-16T07:16:40.183Z</time>
      </trkpt>
      <trkpt lat="12.993652" lon="80.233302">
        <ele>13.839</ele>
        <time>2024-12-16T07:16:46.180Z</time>
      </trkpt>
      <trkpt lat="12.994680" lon="80.233637">
        <ele>14.627</ele>
        <time>2024-12-16T07:17:18.191Z</time>
      </trkpt>
      <trkpt lat="12.994846" lon="80.233807">
        <ele>14.433</ele>
        <time>2024-12-16T07:17:34.180Z</time>
      </trkpt>
      <trkpt lat="12.998141" lon="80.238719">
        <ele>14.488</ele>
        <time>2024-12-16T09:53:35.175Z</time>
      </trkpt>
      <trkpt lat="12.998184" lon="80.238994">
        <ele>14.773</ele>
        <time>2024-12-16T09:53:51.174Z</time>
      </trkpt>
      <trkpt lat="12.999144" lon="80.239280">
        <ele>14.958</ele>
        <time>2024-12-16T09:54:12.215Z</time>
      </trkpt>
      <trkpt lat="13.000811" lon="80.239494">
        <ele>14.020</ele>
        <time>2024-12-16T09:54:42.213Z</time>
      </trkpt>
      <trkpt lat="13.003339" lon="80.240263">
        <ele>14.772</ele>
        <time>2024-12-16T09:55:29.178Z</time>
      </trkpt>
      <trkpt lat="13.004157" lon="80.241757">
        <ele>14.863</ele>
        <time>2024-12-16T09:56:00.192Z</time>
      </trkpt>
      <trkpt lat="13.005333" lon="80.241714">
        <ele>14.016</ele>
        <time>2024-12-16T09:56:22.178Z</time>
      </trkpt>
      <trkpt lat="13.006165" lon="80.241872">
        <ele>13.676</ele>
        <time>2024-12-16T09:56:53.174Z</time>
      </trkpt>
      <trkpt lat="13.006011" lon="80.242235">
        <ele>13.813</ele>
        <time>2024-12-16T09:57:57.178Z</time>
      </trkpt>
      <trkpt lat="13.006293" lon="80.242378">
        <ele>13.409</ele>
        <time>2024-12-16T09:58:28.179Z</time>
      </trkpt>
      <trkpt lat="13.006460" lon="80.242341">
        <ele>13.272</ele>
        <time>2024-12-16T09:58:39.172Z</time>
      </trkpt>
      <trkpt lat="13.006445" lon="80.242082">
        <ele>13.320</ele>
        <time>2024-12-16T09:59:19.166Z</time>
      </trkpt>
      <trkpt lat="13.006564" lon="80.246410">
        <ele>9.086</ele>
        <time>2024-12-16T10:04:51.175Z</time>
      </trkpt>
      <trkpt lat="13.006399" lon="80.246646">
        <ele>9.091</ele>
        <time>2024-12-16T10:05:15.229Z</time>
      </trkpt>
      <trkpt lat="13.006635" lon="80.247154">
        <ele>7.956</ele>
        <time>2024-12-16T10:05:51.176Z</time>
      </trkpt>
      <trkpt lat="13.006395" lon="80.247492">
        <ele>7.381</ele>
        <time>2024-12-16T10:07:24.174Z</time>
      </trkpt>
      <trkpt lat="13.005987" lon="80.247564">
        <ele>8.013</ele>
        <time>2024-12-16T10:07:50.176Z</time>
      </trkpt>
      <trkpt lat="13.005418" lon="80.247560">
        <ele>7.645</ele>
        <time>2024-12-16T10:08:30.186Z</time>
      </trkpt>
      <trkpt lat="13.005301" lon="80.247289">
        <ele>7.586</ele>
        <time>2024-12-16T10:12:22.177Z</time>
      </trkpt>
      <trkpt lat="13.005489" lon="80.247638">
        <ele>7.972</ele>
        <time>2024-12-16T10:12:37.165Z</time>
      </trkpt>
      <trkpt lat="13.005275" lon="80.247508">
        <ele>7.313</ele>
        <time>2024-12-16T10:13:47.171Z</time>
      </trkpt>
      <trkpt lat="13.005487" lon="80.247745">
        <ele>8.214</ele>
        <time>2024-12-16T10:14:05.172Z</time>
      </trkpt>
      <trkpt lat="13.005832" lon="80.247860">
        <ele>8.909</ele>
        <time>2024-12-16T10:15:27.171Z</time>
      </trkpt>
      <trkpt lat="13.006550" lon="80.247737">
        <ele>7.738</ele>
        <time>2024-12-16T10:16:37.171Z</time>
      </trkpt>
      <trkpt lat="13.005939" lon="80.247865">
        <ele>8.766</ele>
        <time>2024-12-16T10:18:41.170Z</time>
      </trkpt>
      <trkpt lat="13.006129" lon="80.247934">
        <ele>8.762</ele>
        <time>2024-12-16T10:19:36.196Z</time>
      </trkpt>
      <trkpt lat="13.005926" lon="80.247867">
        <ele>8.867</ele>
        <time>2024-12-16T10:20:49.172Z</time>
      </trkpt>
      <trkpt lat="13.006151" lon="80.247902">
        <ele>8.692</ele>
        <time>2024-12-16T10:22:37.176Z</time>
      </trkpt>
      <trkpt lat="13.006133" lon="80.247792">
        <ele>8.387</ele>
        <time>2024-12-16T10:24:00.222Z</time>
      </trkpt>
      <trkpt lat="13.006206" lon="80.247969">
        <ele>8.789</ele>
        <time>2024-12-16T10:26:11.169Z</time>
      </trkpt>
      <trkpt lat="13.006000" lon="80.247795">
        <ele>8.521</ele>
        <time>2024-12-16T10:26:32.172Z</time>
      </trkpt>
      <trkpt lat="13.005728" lon="80.247830">
        <ele>8.742</ele>
        <time>2024-12-16T10:26:40.173Z</time>
      </trkpt>
      <trkpt lat="13.005836" lon="80.247948">
        <ele>9.191</ele>
        <time>2024-12-16T10:27:05.173Z</time>
      </trkpt>
      <trkpt lat="13.010254" lon="80.247907">
        <ele>9.281</ele>
        <time>2024-12-16T10:27:36.189Z</time>
      </trkpt>
      <trkpt lat="13.014088" lon="80.248312">
        <ele>7.019</ele>
        <time>2024-12-16T10:28:18.187Z</time>
      </trkpt>
      <trkpt lat="13.014191" lon="80.247789">
        <ele>8.309</ele>
        <time>2024-12-16T10:28:26.172Z</time>
      </trkpt>
      <trkpt lat="13.014308" lon="80.247983">
        <ele>7.870</ele>
        <time>2024-12-16T10:29:02.172Z</time>
      </trkpt>
      <trkpt lat="13.015192" lon="80.248383">
        <ele>6.928</ele>
        <time>2024-12-16T10:29:12.186Z</time>
      </trkpt>
      <trkpt lat="13.017096" lon="80.248958">
        <ele>6.634</ele>
        <time>2024-12-16T10:29:30.205Z</time>
      </trkpt>
      <trkpt lat="13.020244" lon="80.251817">
        <ele>4.749</ele>
        <time>2024-12-16T10:30:04.172Z</time>
      </trkpt>
      <trkpt lat="13.020717" lon="80.252059">
        <ele>5.874</ele>
        <time>2024-12-16T10:30:16.169Z</time>
      </trkpt>
      <trkpt lat="13.022649" lon="80.253664">
        <ele>9.169</ele>
        <time>2024-12-16T10:31:14.165Z</time>
      </trkpt>
      <trkpt lat="13.024814" lon="80.258595">
        <ele>8.471</ele>
        <time>2024-12-16T10:31:48.189Z</time>
      </trkpt>
      <trkpt lat="13.025365" lon="80.259268">
        <ele>8.683</ele>
        <time>2024-12-16T10:31:54.236Z</time>
      </trkpt>
      <trkpt lat="13.026102" lon="80.259714">
        <ele>8.674</ele>
        <time>2024-12-16T10:32:02.171Z</time>
      </trkpt>
      <trkpt lat="13.028206" lon="80.260589">
        <ele>9.739</ele>
        <time>2024-12-16T10:32:32.172Z</time>
      </trkpt>
      <trkpt lat="13.028691" lon="80.260623">
        <ele>9.501</ele>
        <time>2024-12-16T10:33:07.173Z</time>
      </trkpt>
      <trkpt lat="13.030909" lon="80.261740">
        <ele>7.021</ele>
        <time>2024-12-16T10:33:36.199Z</time>
      </trkpt>
      <trkpt lat="13.031659" lon="80.262266">
        <ele>7.009</ele>
        <time>2024-12-16T10:33:42.201Z</time>
      </trkpt>
      <trkpt lat="13.032781" lon="80.263478">
        <ele>8.644</ele>
        <time>2024-12-16T10:33:52.173Z</time>
      </trkpt>
      <trkpt lat="13.033216" lon="80.264136">
        <ele>10.092</ele>
        <time>2024-12-16T10:33:58.172Z</time>
      </trkpt>
      <trkpt lat="13.034004" lon="80.266042">
        <ele>10.638</ele>
        <time>2024-12-16T10:34:18.194Z</time>
      </trkpt>
      <trkpt lat="13.035131" lon="80.267156">
        <ele>11.023</ele>
        <time>2024-12-16T10:34:56.171Z</time>
      </trkpt>
      <trkpt lat="13.035560" lon="80.267362">
        <ele>11.078</ele>
        <time>2024-12-16T10:35:26.170Z</time>
      </trkpt>
      <trkpt lat="13.035571" lon="80.267803">
        <ele>10.983</ele>
        <time>2024-12-16T10:35:58.174Z</time>
      </trkpt>
      <trkpt lat="13.034413" lon="80.268095">
        <ele>9.615</ele>
        <time>2024-12-16T10:38:35.153Z</time>
      </trkpt>
      <trkpt lat="13.032836" lon="80.267758">
        <ele>10.617</ele>
        <time>2024-12-16T10:41:37.172Z</time>
      </trkpt>
      <trkpt lat="13.032631" lon="80.267793">
        <ele>10.838</ele>
        <time>2024-12-16T10:42:19.171Z</time>
      </trkpt>
      <trkpt lat="13.032411" lon="80.268242">
        <ele>11.067</ele>
        <time>2024-12-16T10:43:37.166Z</time>
      </trkpt>
      <trkpt lat="13.032494" lon="80.267320">
        <ele>10.881</ele>
        <time>2024-12-16T10:44:59.172Z</time>
      </trkpt>
      <trkpt lat="13.031758" lon="80.267271">
        <ele>11.019</ele>
        <time>2024-12-16T10:47:22.172Z</time>
      </trkpt>
      <trkpt lat="13.031741" lon="80.267449">
        <ele>11.009</ele>
        <time>2024-12-16T10:47:37.171Z</time>
      </trkpt>
      <trkpt lat="13.032186" lon="80.267644">
        <ele>11.077</ele>
        <time>2024-12-16T11:16:48.201Z</time>
      </trkpt>
      <trkpt lat="13.032177" lon="80.267744">
        <ele>11.075</ele>
        <time>2024-12-16T11:16:54.222Z</time>
      </trkpt>
      <trkpt lat="13.031841" lon="80.267619">
        <ele>11.031</ele>
        <time>2024-12-16T11:17:30.225Z</time>
      </trkpt>
      <trkpt lat="13.031758" lon="80.267798">
        <ele>11.036</ele>
        <time>2024-12-16T11:18:14.172Z</time>
      </trkpt>
      <trkpt lat="13.031686" lon="80.267539">
        <ele>11.091</ele>
        <time>2024-12-16T11:18:50.168Z</time>
      </trkpt>
      <trkpt lat="13.031116" lon="80.267360">
        <ele>10.916</ele>
        <time>2024-12-16T11:20:04.169Z</time>
      </trkpt>
      <trkpt lat="13.030878" lon="80.267589">
        <ele>11.058</ele>
        <time>2024-12-16T11:20:36.196Z</time>
      </trkpt>
      <trkpt lat="13.030881" lon="80.267813">
        <ele>11.040</ele>
        <time>2024-12-16T11:20:48.195Z</time>
      </trkpt>
      <trkpt lat="13.031120" lon="80.267847">
        <ele>11.081</ele>
        <time>2024-12-16T11:21:01.167Z</time>
      </trkpt>
      <trkpt lat="13.030997" lon="80.267655">
        <ele>11.069</ele>
        <time>2024-12-16T11:21:44.171Z</time>
      </trkpt>
      <trkpt lat="13.030927" lon="80.267813">
        <ele>11.004</ele>
        <time>2024-12-16T11:22:06.198Z</time>
      </trkpt>
      <trkpt lat="13.031206" lon="80.267599">
        <ele>11.024</ele>
        <time>2024-12-16T11:23:04.169Z</time>
      </trkpt>
      <trkpt lat="13.031221" lon="80.267186">
        <ele>10.809</ele>
        <time>2024-12-16T11:23:59.168Z</time>
      </trkpt>
      <trkpt lat="13.031003" lon="80.266834">
        <ele>10.497</ele>
        <time>2024-12-16T11:26:55.155Z</time>
      </trkpt>
      <trkpt lat="13.030432" lon="80.266791">
        <ele>10.165</ele>
        <time>2024-12-16T11:28:17.162Z</time>
      </trkpt>
      <trkpt lat="13.030255" lon="80.266910">
        <ele>10.111</ele>
        <time>2024-12-16T11:28:29.164Z</time>
      </trkpt>
      <trkpt lat="13.030130" lon="80.267754">
        <ele>10.246</ele>
        <time>2024-12-16T11:30:22.170Z</time>
      </trkpt>
      <trkpt lat="13.029474" lon="80.267927">
        <ele>10.091</ele>
        <time>2024-12-16T11:31:39.169Z</time>
      </trkpt>
      <trkpt lat="13.029621" lon="80.268195">
        <ele>10.056</ele>
        <time>2024-12-16T11:32:12.206Z</time>
      </trkpt>
      <trkpt lat="13.029958" lon="80.268391">
        <ele>10.178</ele>
        <time>2024-12-16T11:33:08.165Z</time>
      </trkpt>
      <trkpt lat="13.030415" lon="80.268262">
        <ele>10.540</ele>
        <time>2024-12-16T11:33:46.165Z</time>
      </trkpt>
      <trkpt lat="13.031794" lon="80.268575">
        <ele>11.071</ele>
        <time>2024-12-16T11:36:18.199Z</time>
      </trkpt>
      <trkpt lat="13.031889" lon="80.268513">
        <ele>11.088</ele>
        <time>2024-12-16T11:36:27.164Z</time>
      </trkpt>
      <trkpt lat="13.031808" lon="80.268304">
        <ele>11.024</ele>
        <time>2024-12-16T11:36:34.169Z</time>
      </trkpt>
      <trkpt lat="13.031826" lon="80.268599">
        <ele>11.026</ele>
        <time>2024-12-16T11:37:30.229Z</time>
      </trkpt>
      <trkpt lat="13.032463" lon="80.268879">
        <ele>11.009</ele>
        <time>2024-12-16T11:38:44.165Z</time>
      </trkpt>
      <trkpt lat="13.032496" lon="80.269247">
        <ele>11.069</ele>
        <time>2024-12-16T11:40:19.167Z</time>
      </trkpt>
      <trkpt lat="13.033639" lon="80.269463">
        <ele>10.857</ele>
        <time>2024-12-16T11:42:09.165Z</time>
      </trkpt>
      <trkpt lat="13.033799" lon="80.269652">
        <ele>10.833</ele>
        <time>2024-12-16T11:43:36.214Z</time>
      </trkpt>
      <trkpt lat="13.033719" lon="80.269717">
        <ele>10.838</ele>
        <time>2024-12-16T11:43:43.163Z</time>
      </trkpt>
      <trkpt lat="13.033912" lon="80.269467">
        <ele>10.663</ele>
        <time>2024-12-16T11:44:27.168Z</time>
      </trkpt>
      <trkpt lat="13.033715" lon="80.269628">
        <ele>10.828</ele>
        <time>2024-12-16T11:44:39.161Z</time>
      </trkpt>
      <trkpt lat="13.033731" lon="80.269789">
        <ele>10.970</ele>
        <time>2024-12-16T11:44:50.165Z</time>
      </trkpt>
      <trkpt lat="13.033676" lon="80.269647">
        <ele>10.832</ele>
        <time>2024-12-16T11:57:18.212Z</time>
      </trkpt>
      <trkpt lat="13.033784" lon="80.269620">
        <ele>10.863</ele>
        <time>2024-12-16T11:57:29.169Z</time>
      </trkpt>
      <trkpt lat="13.033722" lon="80.269784">
        <ele>10.977</ele>
        <time>2024-12-16T12:01:29.161Z</time>
      </trkpt>
      <trkpt lat="13.033448" lon="80.269819">
        <ele>11.061</ele>
        <time>2024-12-16T12:02:20.162Z</time>
      </trkpt>
      <trkpt lat="13.033369" lon="80.270162">
        <ele>11.027</ele>
        <time>2024-12-16T12:03:13.164Z</time>
      </trkpt>
      <trkpt lat="13.033692" lon="80.270145">
        <ele>11.009</ele>
        <time>2024-12-16T12:04:19.163Z</time>
      </trkpt>
      <trkpt lat="13.033715" lon="80.270013">
        <ele>11.058</ele>
        <time>2024-12-16T12:04:32.162Z</time>
      </trkpt>
      <trkpt lat="13.033630" lon="80.270065">
        <ele>11.076</ele>
        <time>2024-12-16T12:04:46.166Z</time>
      </trkpt>
      <trkpt lat="13.033733" lon="80.270138">
        <ele>11.042</ele>
        <time>2024-12-16T12:04:53.160Z</time>
      </trkpt>
      <trkpt lat="13.033860" lon="80.270083">
        <ele>11.037</ele>
        <time>2024-12-16T12:05:18.173Z</time>
      </trkpt>
      <trkpt lat="13.033522" lon="80.270211">
        <ele>11.042</ele>
        <time>2024-12-16T12:07:48.175Z</time>
      </trkpt>
      <trkpt lat="13.033630" lon="80.270250">
        <ele>11.077</ele>
        <time>2024-12-16T12:08:26.162Z</time>
      </trkpt>
      <trkpt lat="13.033490" lon="80.270306">
        <ele>11.039</ele>
        <time>2024-12-16T12:09:12.181Z</time>
      </trkpt>
      <trkpt lat="13.033492" lon="80.270419">
        <ele>11.041</ele>
        <time>2024-12-16T12:09:32.162Z</time>
      </trkpt>
      <trkpt lat="13.033575" lon="80.270242">
        <ele>11.082</ele>
        <time>2024-12-16T12:09:46.164Z</time>
      </trkpt>
      <trkpt lat="13.033366" lon="80.271206">
        <ele>11.059</ele>
        <time>2024-12-16T12:16:41.161Z</time>
      </trkpt>
      <trkpt lat="13.034285" lon="80.271328">
        <ele>11.003</ele>
        <time>2024-12-16T12:18:12.203Z</time>
      </trkpt>
      <trkpt lat="13.034730" lon="80.271636">
        <ele>11.023</ele>
        <time>2024-12-16T12:20:25.163Z</time>
      </trkpt>
      <trkpt lat="13.034833" lon="80.271294">
        <ele>11.009</ele>
        <time>2024-12-16T12:21:44.159Z</time>
      </trkpt>
      <trkpt lat="13.034466" lon="80.271567">
        <ele>11.026</ele>
        <time>2024-12-16T12:22:13.164Z</time>
      </trkpt>
      <trkpt lat="13.034743" lon="80.271485">
        <ele>11.074</ele>
        <time>2024-12-16T12:23:38.159Z</time>
      </trkpt>
      <trkpt lat="13.035022" lon="80.270693">
        <ele>11.030</ele>
        <time>2024-12-16T12:25:35.154Z</time>
      </trkpt>
      <trkpt lat="13.034810" lon="80.270398">
        <ele>11.065</ele>
        <time>2024-12-16T12:26:07.164Z</time>
      </trkpt>
      <trkpt lat="13.034624" lon="80.270476">
        <ele>11.050</ele>
        <time>2024-12-16T12:26:32.160Z</time>
      </trkpt>
      <trkpt lat="13.034572" lon="80.270348">
        <ele>11.025</ele>
        <time>2024-12-16T12:26:40.162Z</time>
      </trkpt>
      <trkpt lat="13.034372" lon="80.270585">
        <ele>11.027</ele>
        <time>2024-12-16T12:27:06.201Z</time>
      </trkpt>
      <trkpt lat="13.034141" lon="80.270425">
        <ele>11.049</ele>
        <time>2024-12-16T12:27:41.165Z</time>
      </trkpt>
      <trkpt lat="13.034441" lon="80.268871">
        <ele>9.850</ele>
        <time>2024-12-16T12:32:32.156Z</time>
      </trkpt>
      <trkpt lat="13.034188" lon="80.269446">
        <ele>10.388</ele>
        <time>2024-12-16T13:20:01.150Z</time>
      </trkpt>
      <trkpt lat="13.034334" lon="80.269457">
        <ele>10.324</ele>
        <time>2024-12-16T13:20:08.162Z</time>
      </trkpt>
      <trkpt lat="13.034184" lon="80.270316">
        <ele>11.026</ele>
        <time>2024-12-16T13:21:17.160Z</time>
      </trkpt>
      <trkpt lat="13.033811" lon="80.271331">
        <ele>11.009</ele>
        <time>2024-12-16T13:22:19.157Z</time>
      </trkpt>
      <trkpt lat="13.034631" lon="80.271515">
        <ele>11.059</ele>
        <time>2024-12-16T13:24:03.157Z</time>
      </trkpt>
      <trkpt lat="13.034645" lon="80.271985">
        <ele>11.487</ele>
        <time>2024-12-16T13:24:38.158Z</time>
      </trkpt>
      <trkpt lat="13.034439" lon="80.272510">
        <ele>12.023</ele>
        <time>2024-12-16T13:25:15.158Z</time>
      </trkpt>
      <trkpt lat="13.034396" lon="80.273581">
        <ele>12.268</ele>
        <time>2024-12-16T13:27:11.158Z</time>
      </trkpt>
      <trkpt lat="13.034009" lon="80.273941">
        <ele>12.163</ele>
        <time>2024-12-16T13:28:27.159Z</time>
      </trkpt>
      <trkpt lat="13.034206" lon="80.274086">
        <ele>12.068</ele>
        <time>2024-12-16T13:30:15.198Z</time>
      </trkpt>
      <trkpt lat="13.034005" lon="80.273989">
        <ele>12.180</ele>
        <time>2024-12-16T13:30:27.158Z</time>
      </trkpt>
      <trkpt lat="13.034353" lon="80.273956">
        <ele>12.172</ele>
        <time>2024-12-16T13:31:10.161Z</time>
      </trkpt>
      <trkpt lat="13.033986" lon="80.274393">
        <ele>12.433</ele>
        <time>2024-12-16T13:34:15.158Z</time>
      </trkpt>
      <trkpt lat="13.033999" lon="80.274742">
        <ele>12.635</ele>
        <time>2024-12-16T13:34:34.156Z</time>
      </trkpt>
      <trkpt lat="13.033605" lon="80.275713">
        <ele>12.386</ele>
        <time>2024-12-16T13:36:09.162Z</time>
      </trkpt>
      <trkpt lat="13.033661" lon="80.276328">
        <ele>12.014</ele>
        <time>2024-12-16T13:36:44.158Z</time>
      </trkpt>
      <trkpt lat="13.033287" lon="80.277227">
        <ele>12.209</ele>
        <time>2024-12-16T13:37:55.157Z</time>
      </trkpt>
      <trkpt lat="13.033386" lon="80.277422">
        <ele>12.834</ele>
        <time>2024-12-16T13:38:08.156Z</time>
      </trkpt>
      <trkpt lat="13.033688" lon="80.277446">
        <ele>12.552</ele>
        <time>2024-12-16T13:38:29.157Z</time>
      </trkpt>
      <trkpt lat="13.033766" lon="80.277591">
        <ele>12.438</ele>
        <time>2024-12-16T13:39:24.221Z</time>
      </trkpt>
      <trkpt lat="13.033557" lon="80.277555">
        <ele>12.723</ele>
        <time>2024-12-16T13:40:15.158Z</time>
      </trkpt>
      <trkpt lat="13.033715" lon="80.277852">
        <ele>12.388</ele>
        <time>2024-12-16T13:44:23.157Z</time>
      </trkpt>
      <trkpt lat="13.033530" lon="80.278279">
        <ele>11.613</ele>
        <time>2024-12-16T13:46:31.159Z</time>
      </trkpt>
      <trkpt lat="13.033423" lon="80.278189">
        <ele>11.595</ele>
        <time>2024-12-16T13:46:53.158Z</time>
      </trkpt>
      <trkpt lat="13.033598" lon="80.277894">
        <ele>12.247</ele>
        <time>2024-12-16T13:54:19.160Z</time>
      </trkpt>
      <trkpt lat="13.033441" lon="80.277996">
        <ele>11.968</ele>
        <time>2024-12-16T13:54:31.156Z</time>
      </trkpt>
      <trkpt lat="13.033340" lon="80.277901">
        <ele>12.088</ele>
        <time>2024-12-16T13:54:49.157Z</time>
      </trkpt>
      <trkpt lat="13.033440" lon="80.277731">
        <ele>12.424</ele>
        <time>2024-12-16T13:55:18.199Z</time>
      </trkpt>
      <trkpt lat="13.033340" lon="80.277556">
        <ele>12.926</ele>
        <time>2024-12-16T13:56:58.161Z</time>
      </trkpt>
      <trkpt lat="13.033725" lon="80.277483">
        <ele>12.509</ele>
        <time>2024-12-16T13:57:35.153Z</time>
      </trkpt>
      <trkpt lat="13.033839" lon="80.277641">
        <ele>12.459</ele>
        <time>2024-12-16T14:01:09.159Z</time>
      </trkpt>
      <trkpt lat="13.033632" lon="80.277293">
        <ele>12.477</ele>
        <time>2024-12-16T14:01:34.155Z</time>
      </trkpt>
      <trkpt lat="13.033492" lon="80.277300">
        <ele>12.553</ele>
        <time>2024-12-16T14:01:47.157Z</time>
      </trkpt>
      <trkpt lat="13.033215" lon="80.277790">
        <ele>11.978</ele>
        <time>2024-12-16T14:02:15.159Z</time>
      </trkpt>
      <trkpt lat="13.032981" lon="80.280464">
        <ele>-5.873</ele>
        <time>2024-12-16T14:07:09.155Z</time>
      </trkpt>
      <trkpt lat="13.033846" lon="80.280464">
        <ele>-3.488</ele>
        <time>2024-12-16T14:08:57.158Z</time>
      </trkpt>
      <trkpt lat="13.034093" lon="80.280590">
        <ele>3.760</ele>
        <time>2024-12-16T14:09:13.152Z</time>
      </trkpt>
      <trkpt lat="13.034517" lon="80.280439">
        <ele>2.082</ele>
        <time>2024-12-16T14:10:01.157Z</time>
      </trkpt>
      <trkpt lat="13.035444" lon="80.280844">
        <ele>-2.093</ele>
        <time>2024-12-16T14:11:36.197Z</time>
      </trkpt>
      <trkpt lat="13.036550" lon="80.281072">
        <ele>-1.561</ele>
        <time>2024-12-16T14:14:43.154Z</time>
      </trkpt>
      <trkpt lat="13.036976" lon="80.280928">
        <ele>3.321</ele>
        <time>2024-12-16T14:19:56.154Z</time>
      </trkpt>
      <trkpt lat="13.036983" lon="80.280278">
        <ele>2.913</ele>
        <time>2024-12-16T14:21:06.199Z</time>
      </trkpt>
      <trkpt lat="13.037269" lon="80.280136">
        <ele>4.009</ele>
        <time>2024-12-16T14:23:03.155Z</time>
      </trkpt>
      <trkpt lat="13.038185" lon="80.280188">
        <ele>4.967</ele>
        <time>2024-12-16T14:25:30.222Z</time>
      </trkpt>
      <trkpt lat="13.038063" lon="80.280004">
        <ele>5.785</ele>
        <time>2024-12-16T14:26:21.157Z</time>
      </trkpt>
      <trkpt lat="13.038570" lon="80.279762">
        <ele>6.851</ele>
        <time>2024-12-16T14:27:02.157Z</time>
      </trkpt>
      <trkpt lat="13.039006" lon="80.279877">
        <ele>6.386</ele>
        <time>2024-12-16T14:27:58.154Z</time>
      </trkpt>
      <trkpt lat="13.039167" lon="80.279498">
        <ele>7.261</ele>
        <time>2024-12-16T14:29:10.159Z</time>
      </trkpt>
      <trkpt lat="13.039594" lon="80.279771">
        <ele>5.716</ele>
        <time>2024-12-16T14:32:42.206Z</time>
      </trkpt>
      <trkpt lat="13.040055" lon="80.279801">
        <ele>4.618</ele>
        <time>2024-12-16T14:33:57.157Z</time>
      </trkpt>
      <trkpt lat="13.040196" lon="80.279596">
        <ele>5.930</ele>
        <time>2024-12-16T14:34:29.156Z</time>
      </trkpt>
      <trkpt lat="13.040511" lon="80.279665">
        <ele>4.781</ele>
        <time>2024-12-16T14:35:56.155Z</time>
      </trkpt>
      <trkpt lat="13.040711" lon="80.280139">
        <ele>1.885</ele>
        <time>2024-12-16T14:36:49.155Z</time>
      </trkpt>
      <trkpt lat="13.040994" lon="80.280056">
        <ele>2.089</ele>
        <time>2024-12-16T14:38:56.152Z</time>
      </trkpt>
      <trkpt lat="13.040762" lon="80.279846">
        <ele>3.017</ele>
        <time>2024-12-16T14:39:27.153Z</time>
      </trkpt>
      <trkpt lat="13.040802" lon="80.279217">
        <ele>6.809</ele>
        <time>2024-12-16T14:41:30.229Z</time>
      </trkpt>
      <trkpt lat="13.043050" lon="80.279467">
        <ele>5.239</ele>
        <time>2024-12-16T14:45:32.149Z</time>
      </trkpt>
      <trkpt lat="13.043191" lon="80.279107">
        <ele>6.747</ele>
        <time>2024-12-16T14:46:09.152Z</time>
      </trkpt>
      <trkpt lat="13.043046" lon="80.278635">
        <ele>6.873</ele>
        <time>2024-12-16T14:46:40.157Z</time>
      </trkpt>
      <trkpt lat="13.043197" lon="80.278373">
        <ele>7.068</ele>
        <time>2024-12-16T14:47:01.154Z</time>
      </trkpt>
      <trkpt lat="13.043230" lon="80.276498">
        <ele>7.683</ele>
        <time>2024-12-16T14:49:29.220Z</time>
      </trkpt>
      <trkpt lat="13.044589" lon="80.276635">
        <ele>10.538</ele>
        <time>2024-12-16T14:51:17.982Z</time>
      </trkpt>
      <trkpt lat="13.044660" lon="80.276800">
        <ele>10.630</ele>
        <time>2024-12-16T14:51:20.992Z</time>
      </trkpt>
      <trkpt lat="13.045608" lon="80.276217">
        <ele>9.862</ele>
        <time>2024-12-16T15:06:09.710Z</time>
      </trkpt>
      <trkpt lat="13.045218" lon="80.276259">
        <ele>10.643</ele>
        <time>2024-12-16T15:06:59.702Z</time>
      </trkpt>
      <trkpt lat="13.045180" lon="80.276602">
        <ele>12.362</ele>
        <time>2024-12-16T15:20:00.786Z</time>
      </trkpt>
      <trkpt lat="13.006467" lon="80.243152">
        <ele>13.283</ele>
        <time>2024-12-16T15:55:16.761Z</time>
      </trkpt>
      <trkpt lat="13.006363" lon="80.242718">
        <ele>13.411</ele>
        <time>2024-12-16T15:56:04.403Z</time>
      </trkpt>
    </trkseg>
  </trk></gpx>